{"data":[{"type":"Feature","properties":{"@id":"node/263217812","addr:city":"Livermore","addr:housenumber":"330","addr:postcode":"94551","addr:state":"CA","addr:street":"Airway Boulevard","amenity":"fire_station","name":"Fire Station No. 10","operator":"Livermore-Pleasanton Fire Department"},"geometry":{"type":"Point","coordinates":[-121.8124454,37.695725]},"id":"node/263217812"},{"type":"Feature","properties":{"@id":"node/298297119","addr:city":"Long Beach","addr:housenumber":"160","addr:postcode":"90805","addr:state":"CA","addr:street":"Market Street","addr:unit":"E","amenity":"fire_station","name":"Long Beach Fire Department Station #11","note":"Phone number is non-emergency number","operator":"Long Beach Fire Department","phone":"+1-562-570-9400","source":"http://www.longbeach.gov/fire/fire_station_locations.asp","website":"http://www.longbeach.gov/fire/fire_station_locations.asp"},"geometry":{"type":"Point","coordinates":[-118.1923407,33.8540703]},"id":"node/298297119"},{"type":"Feature","properties":{"@id":"node/298305489","addr:city":"Long Beach","addr:housenumber":"111","addr:postcode":"90802","addr:state":"CA","addr:street":"Pier S Avenue","agency":"Long Beach Fire Dept","amenity":"fire_station","name":"Terminal Island Fire Station","ref":"24","source":"survey;image;usgs_imagery","source_ref":"AM909_DSCS3232"},"geometry":{"type":"Point","coordinates":[-118.2417558,33.758721]},"id":"node/298305489"},{"type":"Feature","properties":{"@id":"node/310972978","addr:city":"Alameda","addr:housenumber":"1300","addr:postcode":"94501","addr:state":"CA","addr:street":"Park Street","amenity":"fire_station","name":"Alameda Fire Department Headquarters"},"geometry":{"type":"Point","coordinates":[-122.2437711,37.7626396]},"id":"node/310972978"},{"type":"Feature","properties":{"@id":"node/345438498","addr:city":"Los Altos","addr:housenumber":"765","addr:postcode":"94022","addr:state":"CA","addr:street":"Fremont Avenue","amenity":"fire_station","ele":"64","gnis:county_name":"Santa Clara","gnis:feature_id":"1828715","gnis:import_uuid":"57871b70-0100-4405-bb30-88b2e001a944","gnis:reviewed":"no","name":"Loyola Fire Station","operator":"Santa Clara County Fire Department","source":"USGS Geonames"},"geometry":{"type":"Point","coordinates":[-122.0933419,37.3576023]},"id":"node/345438498"},{"type":"Feature","properties":{"@id":"node/358833633","addr:city":"Long Barn","addr:housenumber":"25910","addr:postcode":"95346","addr:state":"CA","addr:street":"Long Barn Road","amenity":"fire_station","description":"Volunteer Fire Station","ele":"1513","gnis:county_id":"109","gnis:created":"03/15/1999","gnis:feature_id":"1809402","gnis:state_id":"06","name":"Long Barn Fire Station 54","operator":"Tuolumne County","phone":"+1+209-586-3162"},"geometry":{"type":"Point","coordinates":[-120.1379776,38.0915338]},"id":"node/358833633"},{"type":"Feature","properties":{"@id":"node/368167536","addr:state":"CA","amenity":"fire_station","ele":"147","gnis:county_name":"Alameda","gnis:feature_id":"1665760","gnis:import_uuid":"57871b70-0100-4405-bb30-88b2e001a944","gnis:reviewed":"no","name":"Fire Station Number 4","source":"USGS Geonames"},"geometry":{"type":"Point","coordinates":[-121.784676,37.6610419]},"id":"node/368167536"},{"type":"Feature","properties":{"@id":"node/368167537","addr:state":"CA","amenity":"fire_station","ele":"477","gnis:county_name":"Los Angeles","gnis:feature_id":"1667299","gnis:import_uuid":"57871b70-0100-4405-bb30-88b2e001a944","gnis:reviewed":"no","name":"San Francisquito Canyon Fire Control Station","source":"USGS Geonames"},"geometry":{"type":"Point","coordinates":[-118.5254629,34.5335217]},"id":"node/368167537"},{"type":"Feature","properties":{"@id":"node/368167538","addr:city":"Livermore","addr:housenumber":"951","addr:postcode":"94551","addr:state":"CA","addr:street":"Rincon Avenue","amenity":"fire_station","ele":"138","gnis:county_name":"Alameda","gnis:feature_id":"1665758","gnis:import_uuid":"57871b70-0100-4405-bb30-88b2e001a944","gnis:reviewed":"no","name":"Fire Station No. 7","operator":"Livermore-Pleasanton Fire Department","source":"USGS Geonames"},"geometry":{"type":"Point","coordinates":[-121.783767,37.6886898]},"id":"node/368167538"},{"type":"Feature","properties":{"@id":"node/368167541","addr:housenumber":"1709","addr:state":"CA","addr:street":"Grand Street","amenity":"fire_station","ele":"6","gnis:county_name":"Alameda","gnis:feature_id":"1670742","gnis:import_uuid":"57871b70-0100-4405-bb30-88b2e001a944","name":"Alameda Fire Station 3","source":"USGS Geonames"},"geometry":{"type":"Point","coordinates":[-122.2545223,37.7749736]},"id":"node/368167541"},{"type":"Feature","properties":{"@id":"node/368167545","addr:state":"CA","amenity":"fire_station","ele":"19","gnis:county_name":"San Francisco","gnis:feature_id":"1655378","gnis:import_uuid":"57871b70-0100-4405-bb30-88b2e001a944","gnis:reviewed":"no","name":"Fire Station Number Two","source":"USGS Geonames"},"geometry":{"type":"Point","coordinates":[-122.4046932,37.7907622]},"id":"node/368167545"},{"type":"Feature","properties":{"@id":"node/368167635","addr:city":"Napa","addr:postcode":"94559","addr:state":"CA","addr:street":"930 Seminary Street","amenity":"fire_station","attribution":"Napa County GIS","description":"Fire","ele":"9","gnis:county_name":"Napa","gnis:feature_id":"1800410","gnis:import_uuid":"57871b70-0100-4405-bb30-88b2e001a944","gnis:reviewed":"no","id":"4","name":"Napa City Fire Station 1","phone":"257-9589","source":"USGS Geonames"},"geometry":{"type":"Point","coordinates":[-122.2908857,38.2968312]},"id":"node/368167635"},{"type":"Feature","properties":{"@id":"node/368167638","addr:state":"CA","amenity":"fire_station","ele":"19","gnis:county_name":"Marin","gnis:feature_id":"1800433","gnis:import_uuid":"57871b70-0100-4405-bb30-88b2e001a944","gnis:reviewed":"no","name":"Central Fire Station","source":"USGS Geonames"},"geometry":{"type":"Point","coordinates":[-122.5310875,37.9743679]},"id":"node/368167638"},{"type":"Feature","properties":{"@id":"node/368167639","addr:state":"CA","amenity":"fire_station","ele":"16","gnis:county_name":"Napa","gnis:feature_id":"1800411","gnis:import_uuid":"57871b70-0100-4405-bb30-88b2e001a944","gnis:reviewed":"no","name":"Fire Station Number 2","source":"USGS Geonames"},"geometry":{"type":"Point","coordinates":[-122.2999745,38.3118585]},"id":"node/368167639"},{"type":"Feature","properties":{"@id":"node/368167640","addr:state":"CA","amenity":"fire_station","ele":"9","gnis:county_name":"Solano","gnis:feature_id":"1799896","gnis:import_uuid":"57871b70-0100-4405-bb30-88b2e001a944","gnis:reviewed":"no","name":"Fire Station Number 2","source":"USGS Geonames"},"geometry":{"type":"Point","coordinates":[-122.2480252,38.0965866]},"id":"node/368167640"},{"type":"Feature","properties":{"@id":"node/368167641","addr:housenumber":"1220","addr:postcode":"94590","addr:state":"CA","addr:street":"Marin Street","amenity":"fire_station","ele":"19","gnis:county_name":"Solano","gnis:feature_id":"1799895","gnis:import_uuid":"57871b70-0100-4405-bb30-88b2e001a944","gnis:reviewed":"no","name":"Vallejo Fire Station Number 21","opening_hours":"24/7","source":"USGS Geonames"},"geometry":{"type":"Point","coordinates":[-122.2561168,38.1077496]},"id":"node/368167641"},{"type":"Feature","properties":{"@id":"node/368167643","addr:state":"CA","amenity":"fire_station","ele":"37","gnis:county_name":"Solano","gnis:feature_id":"1799897","gnis:import_uuid":"57871b70-0100-4405-bb30-88b2e001a944","gnis:reviewed":"no","name":"Fire Station Number 3","source":"USGS Geonames"},"geometry":{"type":"Point","coordinates":[-121.9607996,38.3960207]},"id":"node/368167643"},{"type":"Feature","properties":{"@id":"node/368167644","addr:state":"CA","amenity":"fire_station","ele":"206","gnis:county_name":"Fresno","gnis:feature_id":"1811946","gnis:import_uuid":"57871b70-0100-4405-bb30-88b2e001a944","gnis:reviewed":"no","name":"Coalinga Fire Station","source":"USGS Geonames"},"geometry":{"type":"Point","coordinates":[-120.362372,36.1377337]},"id":"node/368167644"},{"type":"Feature","properties":{"@id":"node/368167645","addr:state":"CA","amenity":"fire_station","ele":"95","gnis:county_name":"Fresno","gnis:feature_id":"1811841","gnis:import_uuid":"57871b70-0100-4405-bb30-88b2e001a944","gnis:reviewed":"no","name":"Fire Station Number 2","source":"USGS Geonames"},"geometry":{"type":"Point","coordinates":[-119.6098543,36.5760616]},"id":"node/368167645"},{"type":"Feature","properties":{"@id":"node/368167647","addr:state":"CA","amenity":"fire_station","ele":"84","gnis:county_name":"Madera","gnis:feature_id":"1812681","gnis:import_uuid":"57871b70-0100-4405-bb30-88b2e001a944","gnis:reviewed":"no","name":"Madera Fire Department Station #6","ref":"MDR6","source":"USGS Geonames"},"geometry":{"type":"Point","coordinates":[-120.055917,36.968401]},"id":"node/368167647"},{"type":"Feature","properties":{"@id":"node/368167648","addr:state":"CA","amenity":"fire_station","ele":"36","gnis:county_name":"Marin","gnis:feature_id":"1808979","gnis:import_uuid":"57871b70-0100-4405-bb30-88b2e001a944","gnis:reviewed":"no","name":"Fire Station Number 2","source":"USGS Geonames"},"geometry":{"type":"Point","coordinates":[-122.4794177,37.9035367]},"id":"node/368167648"},{"type":"Feature","properties":{"@id":"node/368167649","addr:city":"Bishop","addr:housenumber":"209","addr:postcode":"93514","addr:state":"CA","addr:street":"West Line Street","amenity":"fire_station","ele":"1265","gnis:county_name":"Inyo","gnis:feature_id":"1804563","gnis:import_uuid":"57871b70-0100-4405-bb30-88b2e001a944","gnis:reviewed":"no","name":"Bishop Fire Department","phone":"(760) 873-5485","source":"USGS Geonames","website":"https://www.cityofbishop.com/departments/fire/"},"geometry":{"type":"Point","coordinates":[-118.3967468,37.3615768]},"id":"node/368167649"},{"type":"Feature","properties":{"@id":"node/368167651","addr:state":"CA","amenity":"fire_station","ele":"651","gnis:county_name":"Tuolumne","gnis:feature_id":"1809351","gnis:import_uuid":"57871b70-0100-4405-bb30-88b2e001a944","gnis:reviewed":"no","name":"Columbia Fire House","source":"USGS Geonames"},"geometry":{"type":"Point","coordinates":[-120.4005293,38.0354202]},"id":"node/368167651"},{"type":"Feature","properties":{"@id":"node/368167652","addr:state":"CA","amenity":"fire_station","ele":"24","gnis:county_name":"San Mateo","gnis:feature_id":"1785757","gnis:import_uuid":"57871b70-0100-4405-bb30-88b2e001a944","gnis:reviewed":"no","name":"Fire Station 63","source":"USGS Geonames","website":"http://www.ssf.net/departments/fire/fire-stations"},"geometry":{"type":"Point","coordinates":[-122.4368243,37.6552027]},"id":"node/368167652"},{"type":"Feature","properties":{"@id":"node/368167653","addr:state":"CA","amenity":"fire_station","ele":"130","gnis:county_name":"San Mateo","gnis:feature_id":"1785902","gnis:import_uuid":"57871b70-0100-4405-bb30-88b2e001a944","gnis:reviewed":"no","name":"Fire Station Number 7","source":"USGS Geonames"},"geometry":{"type":"Point","coordinates":[-122.3331522,37.5223949]},"id":"node/368167653"},{"type":"Feature","properties":{"@id":"node/368167655","addr:state":"CA","alt_name":"San Mateo Fire Station Number 26","amenity":"fire_station","ele":"2","gnis:county_name":"San Mateo","gnis:feature_id":"1785987","gnis:import_uuid":"57871b70-0100-4405-bb30-88b2e001a944","gnis:reviewed":"no","name":"Fire Station Number 6","source":"USGS Geonames"},"geometry":{"type":"Point","coordinates":[-122.2877275,37.549599]},"id":"node/368167655"},{"type":"Feature","properties":{"@id":"node/368167656","addr:state":"CA","amenity":"fire_station","ele":"19","gnis:county_name":"Los Angeles","gnis:feature_id":"1763126","gnis:import_uuid":"57871b70-0100-4405-bb30-88b2e001a944","gnis:reviewed":"no","name":"Long Beach Fire Station 4","source":"USGS Geonames"},"geometry":{"type":"Point","coordinates":[-118.1506222,33.7719618]},"id":"node/368167656"},{"type":"Feature","properties":{"@id":"node/368167659","addr:state":"CA","amenity":"fire_station","ele":"15","gnis:county_name":"Orange","gnis:feature_id":"1765581","gnis:import_uuid":"57871b70-0100-4405-bb30-88b2e001a944","gnis:reviewed":"no","name":"Fountain Valley Fire Station Number 2","source":"USGS Geonames"},"geometry":{"type":"Point","coordinates":[-117.928669,33.7202957]},"id":"node/368167659"},{"type":"Feature","properties":{"@id":"node/368167660","addr:state":"CA","amenity":"fire_station","ele":"9","gnis:county_name":"Sonoma","gnis:feature_id":"1799619","gnis:import_uuid":"57871b70-0100-4405-bb30-88b2e001a944","gnis:reviewed":"no","name":"Fire Station Number 2","source":"USGS Geonames"},"geometry":{"type":"Point","coordinates":[-122.6574962,38.2666418]},"id":"node/368167660"},{"type":"Feature","properties":{"@id":"node/368167661","addr:state":"CA","amenity":"fire_station","ele":"11","gnis:county_name":"Sonoma","gnis:feature_id":"1799829","gnis:import_uuid":"57871b70-0100-4405-bb30-88b2e001a944","gnis:reviewed":"no","name":"Fire Station Number 1","source":"USGS Geonames"},"geometry":{"type":"Point","coordinates":[-122.6366524,38.2335281]},"id":"node/368167661"},{"type":"Feature","properties":{"@id":"node/368167662","addr:state":"CA","amenity":"fire_station","ele":"44","gnis:county_name":"Solano","gnis:feature_id":"1799879","gnis:import_uuid":"57871b70-0100-4405-bb30-88b2e001a944","gnis:reviewed":"no","name":"Allendale Fire Station","source":"USGS Geonames"},"geometry":{"type":"Point","coordinates":[-121.9535776,38.4221312]},"id":"node/368167662"},{"type":"Feature","properties":{"@id":"node/368167664","addr:housenumber":"799","addr:state":"CA","addr:street":"California Dr","alt_name":"Central County Fire Department 34","amenity":"fire_station","ele":"5","gnis:county_name":"San Mateo","gnis:feature_id":"1786039","gnis:import_uuid":"57871b70-0100-4405-bb30-88b2e001a944","name":"Burlingame Number 34","source":"USGS Geonames"},"geometry":{"type":"Point","coordinates":[-122.3538678,37.583269]},"id":"node/368167664"},{"type":"Feature","properties":{"@id":"node/368167665","addr:housenumber":"1399","addr:state":"CA","addr:street":"Rollins Rd","alt_name":"Central County Fire Department 36","amenity":"fire_station","ele":"2","gnis:county_name":"San Mateo","gnis:feature_id":"1786040","gnis:import_uuid":"57871b70-0100-4405-bb30-88b2e001a944","name":"Burlingame No 36","source":"USGS Geonames"},"geometry":{"type":"Point","coordinates":[-122.3673003,37.5909002]},"id":"node/368167665"},{"type":"Feature","properties":{"@id":"node/368167685","addr:state":"CA","amenity":"fire_station","ele":"366","gnis:county_name":"Los Angeles","gnis:feature_id":"1732365","gnis:import_uuid":"57871b70-0100-4405-bb30-88b2e001a944","gnis:reviewed":"no","name":"Los Angeles County Fire Department Station #12","ref":"LAC12","source":"USGS Geonames"},"geometry":{"type":"Point","coordinates":[-118.158525,34.1929618]},"id":"node/368167685"},{"type":"Feature","properties":{"@id":"node/368167687","addr:state":"CA","amenity":"fire_station","ele":"78","gnis:county_name":"Los Angeles","gnis:feature_id":"1731936","gnis:import_uuid":"57871b70-0100-4405-bb30-88b2e001a944","gnis:reviewed":"no","name":"Los Angeles County Fire Department Station #17","ref":"LAC17","source":"USGS Geonames"},"geometry":{"type":"Point","coordinates":[-118.0488896,33.9824977]},"id":"node/368167687"},{"type":"Feature","properties":{"@id":"node/368167688","addr:state":"CA","amenity":"fire_station","ele":"22","gnis:county_name":"Los Angeles","gnis:feature_id":"1724401","gnis:import_uuid":"57871b70-0100-4405-bb30-88b2e001a944","gnis:reviewed":"no","name":"Los Angeles County Fire Department Station #115","ref":"LAC115","source":"USGS Geonames"},"geometry":{"type":"Point","coordinates":[-118.0921295,33.8878402]},"id":"node/368167688"},{"type":"Feature","properties":{"@id":"node/368167695","addr:city":"Norwalk","addr:housenumber":"12110","addr:postcode":"90650","addr:state":"CA","addr:street":"Adoree Street","amenity":"fire_station","ele":"36","gnis:county_name":"Los Angeles","gnis:feature_id":"1724400","gnis:import_uuid":"57871b70-0100-4405-bb30-88b2e001a944","gnis:reviewed":"no","name":"Los Angeles County Fire Dept. Station 20","ref":"LAC20","source":"USGS Geonames"},"geometry":{"type":"Point","coordinates":[-118.0742581,33.9131061]},"id":"node/368167695"},{"type":"Feature","properties":{"@id":"node/368167698","addr:state":"CA","amenity":"fire_station","ele":"154","gnis:county_name":"Los Angeles","gnis:feature_id":"1763004","gnis:import_uuid":"57871b70-0100-4405-bb30-88b2e001a944","gnis:reviewed":"no","name":"Fire Station Number 3","source":"USGS Geonames"},"geometry":{"type":"Point","coordinates":[-118.1474245,34.0922228]},"id":"node/368167698"},{"type":"Feature","properties":{"@id":"node/368167699","addr:state":"CA","amenity":"fire_station","ele":"130","gnis:county_name":"Los Angeles","gnis:feature_id":"1763003","gnis:import_uuid":"57871b70-0100-4405-bb30-88b2e001a944","gnis:reviewed":"no","name":"Fire Station Number 2","source":"USGS Geonames"},"geometry":{"type":"Point","coordinates":[-118.1295146,34.0788988]},"id":"node/368167699"},{"type":"Feature","properties":{"@id":"node/368167701","addr:state":"CA","amenity":"fire_station","ele":"136","gnis:county_name":"Los Angeles","gnis:feature_id":"1744880","gnis:import_uuid":"57871b70-0100-4405-bb30-88b2e001a944","gnis:reviewed":"no","name":"Fire Station Number 4","source":"USGS Geonames"},"geometry":{"type":"Point","coordinates":[-118.151182,34.0758435]},"id":"node/368167701"},{"type":"Feature","properties":{"@id":"node/368167703","addr:state":"CA","amenity":"fire_station","ele":"395","gnis:county_name":"El Dorado","gnis:feature_id":"1733975","gnis:import_uuid":"57871b70-0100-4405-bb30-88b2e001a944","gnis:reviewed":"no","name":"Fire Station Number 1","source":"USGS Geonames"},"geometry":{"type":"Point","coordinates":[-120.978275,38.6604598]},"id":"node/368167703"},{"type":"Feature","properties":{"@id":"node/368167704","addr:state":"CA","amenity":"fire_station","designation":"Lomita Fire Station","ele":"34","gnis:county_name":"Los Angeles","gnis:feature_id":"1733057","gnis:import_uuid":"57871b70-0100-4405-bb30-88b2e001a944","gnis:reviewed":"no","name":"Los Angeles County Fire Department Station #6","ref":"LAC6","source":"USGS Geonames"},"geometry":{"type":"Point","coordinates":[-118.3202072,33.7918429]},"id":"node/368167704"},{"type":"Feature","properties":{"@id":"node/368167707","addr:state":"CA","amenity":"fire_station","ele":"43","gnis:county_name":"Los Angeles","gnis:feature_id":"1693143","gnis:import_uuid":"57871b70-0100-4405-bb30-88b2e001a944","gnis:reviewed":"no","name":"Fire Station Number 5","source":"USGS Geonames"},"geometry":{"type":"Point","coordinates":[-118.4567457,34.014455]},"id":"node/368167707"},{"type":"Feature","properties":{"@id":"node/368167709","addr:state":"CA","amenity":"fire_station","ele":"95","gnis:county_name":"Tehama","gnis:feature_id":"1692689","gnis:import_uuid":"57871b70-0100-4405-bb30-88b2e001a944","gnis:reviewed":"no","name":"Fire Station Number 2","source":"USGS Geonames"},"geometry":{"type":"Point","coordinates":[-122.2430525,40.1768218]},"id":"node/368167709"},{"type":"Feature","properties":{"@id":"node/368167710","addr:state":"CA","amenity":"fire_station","ele":"48","gnis:county_name":"Los Angeles","gnis:feature_id":"1693142","gnis:import_uuid":"57871b70-0100-4405-bb30-88b2e001a944","gnis:reviewed":"no","name":"Fire Station Number 3","source":"USGS Geonames"},"geometry":{"type":"Point","coordinates":[-118.4825801,34.0288986]},"id":"node/368167710"},{"type":"Feature","properties":{"@id":"node/368167711","addr:state":"CA","amenity":"fire_station","ele":"28","gnis:county_name":"Humboldt","gnis:feature_id":"1681869","gnis:import_uuid":"57871b70-0100-4405-bb30-88b2e001a944","gnis:reviewed":"no","name":"Blue Lake Fire Department","source":"USGS Geonames"},"geometry":{"type":"Point","coordinates":[-123.9911711,40.8829071]},"id":"node/368167711"},{"type":"Feature","properties":{"@id":"node/368167715","addr:state":"CA","amenity":"fire_station","ele":"60","gnis:county_name":"Butte","gnis:feature_id":"1723809","gnis:import_uuid":"57871b70-0100-4405-bb30-88b2e001a944","gnis:reviewed":"no","name":"Fire Station Number 2","source":"USGS Geonames"},"geometry":{"type":"Point","coordinates":[-121.8483112,39.742661]},"id":"node/368167715"},{"type":"Feature","properties":{"@id":"node/368167716","addr:state":"CA","amenity":"fire_station","ele":"513","gnis:county_name":"Mendocino","gnis:feature_id":"1724100","gnis:import_uuid":"57871b70-0100-4405-bb30-88b2e001a944","gnis:reviewed":"no","name":"Laytonville Fire Control Station","source":"USGS Geonames"},"geometry":{"type":"Point","coordinates":[-123.4866835,39.7021001]},"id":"node/368167716"},{"type":"Feature","properties":{"@id":"node/368167717","addr:state":"CA","amenity":"fire_station","ele":"194","gnis:county_name":"Placer","gnis:feature_id":"1723518","name":"Station 20","operator":"South Placer Fire District"},"geometry":{"type":"Point","coordinates":[-121.1243747,38.8245416]},"id":"node/368167717"},{"type":"Feature","properties":{"@id":"node/368167720","FIXME":"Verified that it's there but still need to check name, number and operator","addr:state":"CA","amenity":"fire_station","ele":"182","gnis:county_name":"Placer","gnis:feature_id":"1723492","gnis:reviewed":"no","name":"Loomis Fire Station Number 2","source":"USGS Geonames"},"geometry":{"type":"Point","coordinates":[-121.1411275,38.8102764]},"id":"node/368167720"},{"type":"Feature","properties":{"@id":"node/368167722","addr:state":"CA","amenity":"fire_station","ele":"4","gnis:county_name":"Contra Costa","gnis:feature_id":"1701504","gnis:import_uuid":"57871b70-0100-4405-bb30-88b2e001a944","gnis:reviewed":"no","name":"Fire Station Number 7","source":"USGS Geonames"},"geometry":{"type":"Point","coordinates":[-122.3583043,37.9254802]},"id":"node/368167722"},{"type":"Feature","properties":{"@id":"node/368167723","addr:state":"CA","amenity":"fire_station","ele":"-3","gnis:county_name":"Ventura","gnis:feature_id":"1870683","gnis:import_uuid":"57871b70-0100-4405-bb30-88b2e001a944","gnis:reviewed":"no","name":"Fire Station Number 1","source":"USGS Geonames"},"geometry":{"type":"Point","coordinates":[-119.2978899,34.271391]},"id":"node/368167723"},{"type":"Feature","properties":{"@id":"node/368167725","addr:state":"CA","amenity":"fire_station","ele":"861","gnis:county_name":"San Diego","gnis:feature_id":"1870374","gnis:import_uuid":"57871b70-0100-4405-bb30-88b2e001a944","gnis:reviewed":"no","name":"Jacumba Fire Station","source":"USGS Geonames"},"geometry":{"type":"Point","coordinates":[-116.1919612,32.6195069]},"id":"node/368167725"},{"type":"Feature","properties":{"@id":"node/368167726","addr:state":"CA","amenity":"fire_station","ele":"17","gnis:county_name":"Ventura","gnis:feature_id":"1871059","gnis:import_uuid":"57871b70-0100-4405-bb30-88b2e001a944","gnis:reviewed":"no","name":"Fire Station Number 1","source":"USGS Geonames"},"geometry":{"type":"Point","coordinates":[-119.1806942,34.2013948]},"id":"node/368167726"},{"type":"Feature","properties":{"@id":"node/368167727","addr:state":"CA","amenity":"fire_station","ele":"92","gnis:county_name":"Ventura","gnis:feature_id":"1870958","gnis:import_uuid":"57871b70-0100-4405-bb30-88b2e001a944","gnis:reviewed":"no","name":"Somis Fire Station","source":"USGS Geonames"},"geometry":{"type":"Point","coordinates":[-118.9959346,34.2569483]},"id":"node/368167727"},{"type":"Feature","properties":{"@id":"node/368167728","addr:state":"CA","amenity":"fire_station","ele":"45","gnis:county_name":"Ventura","gnis:feature_id":"1871317","gnis:import_uuid":"57871b70-0100-4405-bb30-88b2e001a944","gnis:reviewed":"no","name":"Fire Station Number 54","source":"USGS Geonames"},"geometry":{"type":"Point","coordinates":[-119.0417691,34.2219491]},"id":"node/368167728"},{"type":"Feature","properties":{"@id":"node/368167729","addr:state":"CA","amenity":"fire_station","ele":"153","gnis:county_name":"Ventura","gnis:feature_id":"1871248","gnis:import_uuid":"57871b70-0100-4405-bb30-88b2e001a944","gnis:reviewed":"no","name":"Fire Station Number 55","source":"USGS Geonames"},"geometry":{"type":"Point","coordinates":[-119.0687149,34.2455599]},"id":"node/368167729"},{"type":"Feature","properties":{"@id":"node/368167731","addr:state":"CA","amenity":"fire_station","ele":"36","gnis:county_name":"Ventura","gnis:feature_id":"1871358","gnis:import_uuid":"57871b70-0100-4405-bb30-88b2e001a944","gnis:reviewed":"no","name":"Fire Station Number 52","source":"USGS Geonames"},"geometry":{"type":"Point","coordinates":[-118.9948611,34.2239792]},"id":"node/368167731"},{"type":"Feature","properties":{"@id":"node/368167734","addr:state":"CA","amenity":"fire_station","ele":"9","gnis:county_name":"Santa Cruz","gnis:feature_id":"1873011","gnis:import_uuid":"57871b70-0100-4405-bb30-88b2e001a944","gnis:reviewed":"no","name":"Watsonville Fire Department, Station Number 1","source":"USGS Geonames"},"geometry":{"type":"Point","coordinates":[-121.7568946,36.9080089]},"id":"node/368167734"},{"type":"Feature","properties":{"@id":"node/368167741","addr:state":"CA","amenity":"fire_station","ele":"362","gnis:county_name":"San Bernardino","gnis:feature_id":"1844479","gnis:import_uuid":"57871b70-0100-4405-bb30-88b2e001a944","gnis:reviewed":"no","name":"Fire Station Number 1","source":"USGS Geonames"},"geometry":{"type":"Point","coordinates":[-117.6889443,34.0922321]},"id":"node/368167741"},{"type":"Feature","properties":{"@id":"node/368167742","addr:state":"CA","amenity":"fire_station","ele":"298","gnis:county_name":"San Bernardino","gnis:feature_id":"1844480","gnis:import_uuid":"57871b70-0100-4405-bb30-88b2e001a944","gnis:reviewed":"no","name":"Fire Station Number 2","source":"USGS Geonames"},"geometry":{"type":"Point","coordinates":[-117.6889442,34.0627887]},"id":"node/368167742"},{"type":"Feature","properties":{"@id":"node/368167743","addr:state":"CA","amenity":"fire_station","designation":"Beaumont Fire Station","ele":"793","gnis:county_name":"Riverside","gnis:feature_id":"1848862","gnis:import_uuid":"57871b70-0100-4405-bb30-88b2e001a944","gnis:reviewed":"no","name":"CAL FIRE/Riverside County Fire Department Station #20","ref":"RVC20","source":"local_knowledge"},"geometry":{"type":"Point","coordinates":[-116.9496314,33.9300075]},"id":"node/368167743"},{"type":"Feature","properties":{"@id":"node/368167744","addr:state":"CA","amenity":"fire_station","designation":"Beaumont City Fire Station","ele":"797","gnis:county_name":"Riverside","gnis:feature_id":"1848863","gnis:import_uuid":"57871b70-0100-4405-bb30-88b2e001a944","gnis:reviewed":"yes","name":"Riverside County Fire Department Station #66","ref":"RVC66","source":"local_knowledge"},"geometry":{"type":"Point","coordinates":[-116.9727699,33.92997]},"id":"node/368167744"},{"type":"Feature","properties":{"@id":"node/368167745","addr:state":"CA","amenity":"fire_station","ele":"-41","gnis:county_name":"Imperial","gnis:feature_id":"1868167","gnis:import_uuid":"57871b70-0100-4405-bb30-88b2e001a944","gnis:reviewed":"no","name":"Niland Fire Station","source":"USGS Geonames"},"geometry":{"type":"Point","coordinates":[-115.5130421,33.2389255]},"id":"node/368167745"},{"type":"Feature","properties":{"@id":"node/368167746","addr:state":"CA","amenity":"fire_station","ele":"-50","gnis:county_name":"Imperial","gnis:feature_id":"1868199","gnis:import_uuid":"57871b70-0100-4405-bb30-88b2e001a944","gnis:reviewed":"no","name":"Westmorland Fire Station","source":"USGS Geonames"},"geometry":{"type":"Point","coordinates":[-115.6233311,33.0372738]},"id":"node/368167746"},{"type":"Feature","properties":{"@id":"node/368167759","addr:state":"CA","amenity":"fire_station","ele":"-3","gnis:county_name":"Imperial","gnis:feature_id":"1868223","gnis:import_uuid":"57871b70-0100-4405-bb30-88b2e001a944","gnis:reviewed":"no","name":"Heber Fire Station","source":"USGS Geonames"},"geometry":{"type":"Point","coordinates":[-115.52444,32.730891]},"id":"node/368167759"},{"type":"Feature","properties":{"@id":"node/368167784","addr:state":"CA","amenity":"fire_station","ele":"-11","gnis:county_name":"Imperial","gnis:feature_id":"1868340","gnis:import_uuid":"57871b70-0100-4405-bb30-88b2e001a944","gnis:reviewed":"no","name":"Seeley Fire Station","source":"USGS Geonames"},"geometry":{"type":"Point","coordinates":[-115.692223,32.7908907]},"id":"node/368167784"},{"type":"Feature","properties":{"@id":"node/368167786","addr:state":"CA","amenity":"fire_station","ele":"54","gnis:county_name":"San Diego","gnis:feature_id":"1868357","gnis:import_uuid":"57871b70-0100-4405-bb30-88b2e001a944","gnis:reviewed":"no","name":"Bonsall Fire Station","source":"USGS Geonames"},"geometry":{"type":"Point","coordinates":[-117.2189235,33.2839228]},"id":"node/368167786"},{"type":"Feature","properties":{"@id":"node/368167788","addr:state":"CA","amenity":"fire_station","ele":"214","gnis:county_name":"San Diego","gnis:feature_id":"1868379","gnis:import_uuid":"57871b70-0100-4405-bb30-88b2e001a944","gnis:reviewed":"no","name":"Fallbrook Fire Station","source":"USGS Geonames"},"geometry":{"type":"Point","coordinates":[-117.2489243,33.3833637]},"id":"node/368167788"},{"type":"Feature","properties":{"@id":"node/368167790","addr:state":"CA","amenity":"fire_station","ele":"213","gnis:county_name":"San Diego","gnis:feature_id":"1868380","gnis:import_uuid":"57871b70-0100-4405-bb30-88b2e001a944","gnis:reviewed":"no","name":"Fallbrook Fire Station Number 2","source":"USGS Geonames"},"geometry":{"type":"Point","coordinates":[-117.2130898,33.345032]},"id":"node/368167790"},{"type":"Feature","properties":{"@id":"node/368167792","addr:state":"CA","amenity":"fire_station","ele":"178","gnis:county_name":"San Diego","gnis:feature_id":"1868445","gnis:import_uuid":"57871b70-0100-4405-bb30-88b2e001a944","gnis:reviewed":"no","name":"Borrego Springs Fire Station","source":"USGS Geonames"},"geometry":{"type":"Point","coordinates":[-116.3719563,33.2614271]},"id":"node/368167792"},{"type":"Feature","properties":{"@id":"node/368167794","addr:state":"CA","amenity":"fire_station","ele":"417","gnis:county_name":"San Diego","gnis:feature_id":"1868934","gnis:import_uuid":"57871b70-0100-4405-bb30-88b2e001a944","gnis:reviewed":"no","name":"Valley Center Fire Station","source":"USGS Geonames"},"geometry":{"type":"Point","coordinates":[-117.0236408,33.2355918]},"id":"node/368167794"},{"type":"Feature","properties":{"@id":"node/368167796","addr:state":"CA","amenity":"fire_station","ele":"528","gnis:county_name":"San Diego","gnis:feature_id":"1869848","gnis:import_uuid":"57871b70-0100-4405-bb30-88b2e001a944","gnis:reviewed":"no","name":"Alpine Fire Station","source":"USGS Geonames"},"geometry":{"type":"Point","coordinates":[-116.7773115,32.8359975]},"id":"node/368167796"},{"type":"Feature","properties":{"@id":"node/368167810","addr:state":"CA","amenity":"fire_station","ele":"10","gnis:county_name":"San Diego","gnis:feature_id":"1869943","gnis:import_uuid":"57871b70-0100-4405-bb30-88b2e001a944","gnis:reviewed":"no","name":"Fire Station Number 4","source":"USGS Geonames"},"geometry":{"type":"Point","coordinates":[-117.1575639,32.709569]},"id":"node/368167810"},{"type":"Feature","properties":{"@id":"node/368167835","addr:state":"CA","amenity":"fire_station","ele":"123","gnis:county_name":"Kern","gnis:feature_id":"1839003","gnis:import_uuid":"57871b70-0100-4405-bb30-88b2e001a944","gnis:reviewed":"no","name":"Fire Station Number 1","source":"USGS Geonames"},"geometry":{"type":"Point","coordinates":[-119.0212125,35.378292]},"id":"node/368167835"},{"type":"Feature","properties":{"@id":"node/368167837","addr:state":"CA","amenity":"fire_station","ele":"97","gnis:county_name":"Kern","gnis:feature_id":"1835969","gnis:import_uuid":"57871b70-0100-4405-bb30-88b2e001a944","gnis:reviewed":"no","name":"Fire Station Number 1","source":"USGS Geonames"},"geometry":{"type":"Point","coordinates":[-119.2445535,35.7724536]},"id":"node/368167837"},{"type":"Feature","properties":{"@id":"node/368167838","addr:state":"CA","amenity":"fire_station","ele":"715","gnis:county_name":"Kern","gnis:feature_id":"1835858","gnis:import_uuid":"57871b70-0100-4405-bb30-88b2e001a944","gnis:reviewed":"no","name":"Fire Station Number 77","source":"USGS Geonames"},"geometry":{"type":"Point","coordinates":[-117.686217,35.6003515]},"id":"node/368167838"},{"type":"Feature","properties":{"@id":"node/368167840","addr:state":"CA","amenity":"fire_station","ele":"130","gnis:county_name":"Kern","gnis:feature_id":"1839092","gnis:import_uuid":"57871b70-0100-4405-bb30-88b2e001a944","gnis:reviewed":"no","name":"Fire Station Number 2","source":"USGS Geonames"},"geometry":{"type":"Point","coordinates":[-118.9912115,35.3777363]},"id":"node/368167840"},{"type":"Feature","properties":{"@id":"node/368167841","addr:state":"CA","amenity":"fire_station","ele":"118","gnis:county_name":"Kern","gnis:feature_id":"1839045","gnis:import_uuid":"57871b70-0100-4405-bb30-88b2e001a944","gnis:reviewed":"no","name":"Fire Station Number 11","source":"USGS Geonames"},"geometry":{"type":"Point","coordinates":[-119.0794145,35.3545739]},"id":"node/368167841"},{"type":"Feature","properties":{"@id":"node/368167850","addr:state":"CA","amenity":"fire_station","ele":"425","gnis:county_name":"San Bernardino","gnis:feature_id":"1839571","gnis:import_uuid":"57871b70-0100-4405-bb30-88b2e001a944","gnis:reviewed":"no","name":"Redlands Fire Station #1","operator":"Redlands Fire Department","ref":"RDL1","source":"USGS Geonames"},"geometry":{"type":"Point","coordinates":[-117.1763429,34.0557878]},"id":"node/368167850"},{"type":"Feature","properties":{"@id":"node/368167851","addr:state":"CA","amenity":"fire_station","ele":"748","gnis:county_name":"Kern","gnis:feature_id":"1839472","gnis:import_uuid":"57871b70-0100-4405-bb30-88b2e001a944","gnis:reviewed":"no","name":"Boron Fire Station","source":"USGS Geonames"},"geometry":{"type":"Point","coordinates":[-117.6503377,35.0027534]},"id":"node/368167851"},{"type":"Feature","properties":{"@id":"node/368167853","addr:state":"CA","amenity":"fire_station","ele":"121","gnis:county_name":"Kern","gnis:feature_id":"1839168","gnis:import_uuid":"57871b70-0100-4405-bb30-88b2e001a944","gnis:reviewed":"no","name":"Fire Station Number 6","source":"USGS Geonames"},"geometry":{"type":"Point","coordinates":[-119.0048234,35.353848]},"id":"node/368167853"},{"type":"Feature","properties":{"@id":"node/368167854","addr:state":"CA","amenity":"fire_station","ele":"306","gnis:county_name":"San Bernardino","gnis:feature_id":"1844433","gnis:import_uuid":"57871b70-0100-4405-bb30-88b2e001a944","gnis:reviewed":"no","name":"Fire Station Number 1","source":"USGS Geonames"},"geometry":{"type":"Point","coordinates":[-117.646443,34.065011]},"id":"node/368167854"},{"type":"Feature","properties":{"@id":"node/368167855","addr:state":"CA","amenity":"fire_station","ele":"340","gnis:county_name":"San Bernardino","gnis:feature_id":"1842240","gnis:import_uuid":"57871b70-0100-4405-bb30-88b2e001a944","gnis:reviewed":"no","name":"Central Valley Fire District Headquarters","source":"USGS Geonames"},"geometry":{"type":"Point","coordinates":[-117.4694935,34.0777893]},"id":"node/368167855"},{"type":"Feature","properties":{"@id":"node/368167856","addr:state":"CA","amenity":"fire_station","ele":"417","gnis:county_name":"San Bernardino","gnis:feature_id":"1839573","gnis:import_uuid":"57871b70-0100-4405-bb30-88b2e001a944","gnis:reviewed":"no","name":"Fire Station #3","ref":"3","source":"USGS Geonames"},"geometry":{"type":"Point","coordinates":[-117.1828161,34.0739019]},"id":"node/368167856"},{"type":"Feature","properties":{"@id":"node/368167857","addr:state":"CA","amenity":"fire_station","ele":"557","gnis:county_name":"San Bernardino","gnis:feature_id":"1839572","gnis:import_uuid":"57871b70-0100-4405-bb30-88b2e001a944","gnis:reviewed":"no","name":"Fire Station Number 2","source":"USGS Geonames"},"geometry":{"type":"Point","coordinates":[-117.155314,34.0261258]},"id":"node/368167857"},{"type":"Feature","properties":{"@id":"node/368167858","addr:state":"CA","amenity":"fire_station","ele":"31","gnis:county_name":"Stanislaus","gnis:feature_id":"1816796","gnis:import_uuid":"57871b70-0100-4405-bb30-88b2e001a944","gnis:reviewed":"no","name":"Fire Station Number 2","source":"USGS Geonames"},"geometry":{"type":"Point","coordinates":[-120.8527053,37.494379]},"id":"node/368167858"},{"type":"Feature","properties":{"@id":"node/368167859","addr:state":"CA","amenity":"fire_station","ele":"27","gnis:county_name":"Stanislaus","gnis:feature_id":"1816895","gnis:import_uuid":"57871b70-0100-4405-bb30-88b2e001a944","gnis:reviewed":"no","name":"Fire Station Number 2","source":"USGS Geonames"},"geometry":{"type":"Point","coordinates":[-121.0049339,37.6315973]},"id":"node/368167859"},{"type":"Feature","properties":{"@id":"node/368167863","addr:state":"CA","amenity":"fire_station","ele":"32","gnis:county_name":"Stanislaus","gnis:feature_id":"1816795","gnis:import_uuid":"57871b70-0100-4405-bb30-88b2e001a944","gnis:reviewed":"no","name":"Fire Station Number 1","source":"USGS Geonames"},"geometry":{"type":"Point","coordinates":[-120.8404228,37.4953754]},"id":"node/368167863"},{"type":"Feature","properties":{"@id":"node/368167864","addr:city":"Lodi","addr:housenumber":"210","addr:postcode":"95240","addr:state":"CA","addr:street":"Elm Street","amenity":"fire_station","ele":"15","gnis:county_name":"San Joaquin","gnis:feature_id":"1827201","gnis:import_uuid":"57871b70-0100-4405-bb30-88b2e001a944","gnis:reviewed":"no","name":"Central Fire Station","source":"USGS Geonames"},"geometry":{"type":"Point","coordinates":[-121.2756254,38.1352584]},"id":"node/368167864"},{"type":"Feature","properties":{"@id":"node/368167865","addr:state":"CA","amenity":"fire_station","ele":"7","gnis:county_name":"San Joaquin","gnis:feature_id":"1827351","gnis:import_uuid":"57871b70-0100-4405-bb30-88b2e001a944","gnis:reviewed":"no","name":"East Side Fire Station Number 1","source":"USGS Geonames"},"geometry":{"type":"Point","coordinates":[-121.2668905,37.9732568]},"id":"node/368167865"},{"type":"Feature","properties":{"@id":"node/368167866","addr:state":"CA","amenity":"fire_station","ele":"27","gnis:county_name":"Stanislaus","gnis:feature_id":"1816896","gnis:import_uuid":"57871b70-0100-4405-bb30-88b2e001a944","gnis:reviewed":"no","name":"Fire Station Number 4","source":"USGS Geonames"},"geometry":{"type":"Point","coordinates":[-121.002712,37.652708]},"id":"node/368167866"},{"type":"Feature","properties":{"@id":"node/368167868","addr:state":"CA","amenity":"fire_station","ele":"5","gnis:county_name":"San Joaquin","gnis:feature_id":"1827388","gnis:import_uuid":"57871b70-0100-4405-bb30-88b2e001a944","gnis:reviewed":"no","name":"Central Fire Station","source":"USGS Geonames"},"geometry":{"type":"Point","coordinates":[-121.2916128,37.9474241]},"id":"node/368167868"},{"type":"Feature","properties":{"@id":"node/368167872","addr:state":"CA","amenity":"fire_station","ele":"4","gnis:county_name":"San Joaquin","gnis:feature_id":"1827354","gnis:import_uuid":"57871b70-0100-4405-bb30-88b2e001a944","gnis:reviewed":"no","name":"Fire Station Number 6","source":"USGS Geonames"},"geometry":{"type":"Point","coordinates":[-121.3137541,37.9594803]},"id":"node/368167872"},{"type":"Feature","properties":{"@id":"node/368167879","addr:city":"Los Altos","addr:housenumber":"10","addr:postcode":"94022","addr:state":"CA","addr:street":"Almond Avenue","amenity":"fire_station","ele":"49","gnis:county_name":"Santa Clara","gnis:feature_id":"1828569","gnis:import_uuid":"57871b70-0100-4405-bb30-88b2e001a944","gnis:reviewed":"no","name":"Los Altos Fire Station","operator":"Santa Clara County Fire Department","source":"USGS Geonames"},"geometry":{"type":"Point","coordinates":[-122.1136729,37.3847086]},"id":"node/368167879"},{"type":"Feature","properties":{"@id":"node/368167881","addr:state":"CA","amenity":"fire_station","ele":"33","gnis:county_name":"Sacramento","gnis:feature_id":"2061490","gnis:import_uuid":"57871b70-0100-4405-bb30-88b2e001a944","gnis:reviewed":"no","name":"Sacramento Metro Fire Station Number 24","source":"USGS Geonames"},"geometry":{"type":"Point","coordinates":[-121.3499517,38.6551816]},"id":"node/368167881"},{"type":"Feature","properties":{"@id":"node/368167884","addr:state":"CA","amenity":"fire_station","ele":"51","gnis:county_name":"Sacramento","gnis:feature_id":"2061491","gnis:import_uuid":"57871b70-0100-4405-bb30-88b2e001a944","gnis:reviewed":"no","name":"Sacramento Metro Fire Station Number 25","source":"USGS Geonames"},"geometry":{"type":"Point","coordinates":[-121.3313402,38.7010137]},"id":"node/368167884"},{"type":"Feature","properties":{"@id":"node/368167886","addr:state":"CA","amenity":"fire_station","ele":"46","gnis:county_name":"Sacramento","gnis:feature_id":"2061493","gnis:import_uuid":"57871b70-0100-4405-bb30-88b2e001a944","gnis:reviewed":"no","name":"Sacramento Metro Fire Station Number 27","source":"USGS Geonames"},"geometry":{"type":"Point","coordinates":[-121.2921725,38.710458]},"id":"node/368167886"},{"type":"Feature","properties":{"@id":"node/368167887","addr:state":"CA","amenity":"fire_station","ele":"23","gnis:county_name":"Sacramento","gnis:feature_id":"2061486","gnis:import_uuid":"57871b70-0100-4405-bb30-88b2e001a944","gnis:reviewed":"no","name":"Sacramento Metro Fire Station Number 117","source":"USGS Geonames"},"geometry":{"type":"Point","coordinates":[-121.419398,38.7140689]},"id":"node/368167887"},{"type":"Feature","properties":{"@id":"node/368167888","addr:state":"CA","amenity":"fire_station","ele":"51","gnis:county_name":"Sacramento","gnis:feature_id":"2061487","gnis:import_uuid":"57871b70-0100-4405-bb30-88b2e001a944","gnis:reviewed":"no","name":"Sacramento Metro Fire Station Number 21","source":"USGS Geonames"},"geometry":{"type":"Point","coordinates":[-121.2835611,38.6785144]},"id":"node/368167888"},{"type":"Feature","properties":{"@id":"node/368167889","addr:state":"CA","amenity":"fire_station","ele":"75","gnis:county_name":"Sacramento","gnis:feature_id":"2061488","gnis:import_uuid":"57871b70-0100-4405-bb30-88b2e001a944","gnis:reviewed":"no","name":"Sacramento Metro Fire Station Number 22","source":"USGS Geonames"},"geometry":{"type":"Point","coordinates":[-121.2110592,38.6799034]},"id":"node/368167889"},{"type":"Feature","properties":{"@id":"node/368167892","addr:state":"CA","amenity":"fire_station","ele":"16","gnis:county_name":"Sacramento","gnis:feature_id":"2061483","gnis:import_uuid":"57871b70-0100-4405-bb30-88b2e001a944","gnis:reviewed":"no","name":"Sacramento Metro Fire Station Number 111","source":"USGS Geonames"},"geometry":{"type":"Point","coordinates":[-121.4496766,38.6904583]},"id":"node/368167892"},{"type":"Feature","properties":{"@id":"node/368167893","addr:state":"CA","amenity":"fire_station","ele":"25","gnis:county_name":"Sacramento","gnis:feature_id":"2061484","gnis:import_uuid":"57871b70-0100-4405-bb30-88b2e001a944","gnis:reviewed":"no","name":"Sacramento Metro Fire Station Number 112","source":"USGS Geonames"},"geometry":{"type":"Point","coordinates":[-121.3877305,38.6907361]},"id":"node/368167893"},{"type":"Feature","properties":{"@id":"node/368167895","addr:state":"CA","amenity":"fire_station","ele":"14","gnis:county_name":"Sacramento","gnis:feature_id":"2061485","gnis:import_uuid":"57871b70-0100-4405-bb30-88b2e001a944","gnis:reviewed":"no","name":"Sacramento Metro Fire Station Number 116","source":"USGS Geonames"},"geometry":{"type":"Point","coordinates":[-121.4668993,38.7143465]},"id":"node/368167895"},{"type":"Feature","properties":{"@id":"node/368167896","addr:state":"CA","amenity":"fire_station","ele":"17","gnis:county_name":"Sacramento","gnis:feature_id":"2061478","gnis:import_uuid":"57871b70-0100-4405-bb30-88b2e001a944","gnis:reviewed":"no","name":"Sacramento Metro Fire Station Number 106","source":"USGS Geonames"},"geometry":{"type":"Point","coordinates":[-121.3849524,38.6065716]},"id":"node/368167896"},{"type":"Feature","properties":{"@id":"node/368167897","addr:state":"CA","amenity":"fire_station","ele":"22","gnis:county_name":"Sacramento","gnis:feature_id":"2061479","gnis:import_uuid":"57871b70-0100-4405-bb30-88b2e001a944","gnis:reviewed":"no","name":"Sacramento Metro Fire Station Number 107","source":"USGS Geonames"},"geometry":{"type":"Point","coordinates":[-121.3746743,38.5821278]},"id":"node/368167897"},{"type":"Feature","properties":{"@id":"node/368167898","addr:state":"CA","amenity":"fire_station","ele":"48","gnis:county_name":"Sacramento","gnis:feature_id":"2061480","gnis:import_uuid":"57871b70-0100-4405-bb30-88b2e001a944","gnis:reviewed":"no","name":"Sacramento Metro Fire Station Number 108","source":"USGS Geonames"},"geometry":{"type":"Point","coordinates":[-121.308006,38.6493484]},"id":"node/368167898"},{"type":"Feature","properties":{"@id":"node/368167899","addr:state":"CA","amenity":"fire_station","ele":"36","gnis:county_name":"Sacramento","gnis:feature_id":"2061481","gnis:import_uuid":"57871b70-0100-4405-bb30-88b2e001a944","gnis:reviewed":"no","name":"Sacramento Metro Fire Station Number 109","source":"USGS Geonames"},"geometry":{"type":"Point","coordinates":[-121.3332844,38.620738]},"id":"node/368167899"},{"type":"Feature","properties":{"@id":"node/368167900","addr:state":"CA","amenity":"fire_station","ele":"27","gnis:county_name":"Sacramento","gnis:feature_id":"2061475","gnis:import_uuid":"57871b70-0100-4405-bb30-88b2e001a944","gnis:reviewed":"no","name":"Sacramento Metro Fire Station Number 102","source":"USGS Geonames"},"geometry":{"type":"Point","coordinates":[-121.3593962,38.6179603]},"id":"node/368167900"},{"type":"Feature","properties":{"@id":"node/368167901","addr:state":"CA","amenity":"fire_station","ele":"20","gnis:county_name":"Sacramento","gnis:feature_id":"2061474","gnis:import_uuid":"57871b70-0100-4405-bb30-88b2e001a944","gnis:reviewed":"no","name":"Sacramento Metro Fire Station Number 101","source":"USGS Geonames"},"geometry":{"type":"Point","coordinates":[-121.401064,38.6199045]},"id":"node/368167901"},{"type":"Feature","properties":{"@id":"node/368167902","addr:state":"CA","amenity":"fire_station","ele":"15","gnis:county_name":"Sacramento","gnis:feature_id":"2061477","gnis:import_uuid":"57871b70-0100-4405-bb30-88b2e001a944","gnis:reviewed":"no","name":"Sacramento Metro Fire Station Number 105","source":"USGS Geonames"},"geometry":{"type":"Point","coordinates":[-121.3993971,38.5818499]},"id":"node/368167902"},{"type":"Feature","properties":{"@id":"node/368167903","addr:state":"CA","amenity":"fire_station","ele":"25","gnis:county_name":"Sacramento","gnis:feature_id":"2061476","gnis:import_uuid":"57871b70-0100-4405-bb30-88b2e001a944","gnis:reviewed":"no","name":"Sacramento Metro Fire Station Number 103","source":"USGS Geonames"},"geometry":{"type":"Point","coordinates":[-121.3824524,38.635182]},"id":"node/368167903"},{"type":"Feature","properties":{"@id":"node/368167904","addr:state":"CA","amenity":"fire_station","ele":"7","gnis:county_name":"Sacramento","gnis:feature_id":"2061468","gnis:import_uuid":"57871b70-0100-4405-bb30-88b2e001a944","gnis:reviewed":"no","name":"Sacramento Fire Station Number 7","source":"USGS Geonames"},"geometry":{"type":"Point","coordinates":[-121.4268974,38.4682417]},"id":"node/368167904"},{"type":"Feature","properties":{"@id":"node/368167905","addr:state":"CA","amenity":"fire_station","ele":"13","gnis:county_name":"Sacramento","gnis:feature_id":"2061467","gnis:import_uuid":"57871b70-0100-4405-bb30-88b2e001a944","gnis:reviewed":"no","name":"Sacramento Fire Station Number 60","source":"USGS Geonames"},"geometry":{"type":"Point","coordinates":[-121.3927303,38.5487953]},"id":"node/368167905"},{"type":"Feature","properties":{"@id":"node/368167906","addr:state":"CA","amenity":"fire_station","ele":"13","gnis:county_name":"Sacramento","gnis:feature_id":"2061473","gnis:import_uuid":"57871b70-0100-4405-bb30-88b2e001a944","gnis:reviewed":"no","name":"Sacramento Metro Fire Department","source":"USGS Geonames"},"geometry":{"type":"Point","coordinates":[-121.4174532,38.5893497]},"id":"node/368167906"},{"type":"Feature","properties":{"@id":"node/368167907","addr:state":"CA","amenity":"fire_station","ele":"11","gnis:county_name":"Sacramento","gnis:feature_id":"2061469","gnis:import_uuid":"57871b70-0100-4405-bb30-88b2e001a944","gnis:reviewed":"no","name":"Sacramento Fire Station Number 8","source":"USGS Geonames"},"geometry":{"type":"Point","coordinates":[-121.4277313,38.5676836]},"id":"node/368167907"},{"type":"Feature","properties":{"@id":"node/368167908","addr:state":"CA","amenity":"fire_station","ele":"6","gnis:county_name":"Sacramento","gnis:feature_id":"2061464","gnis:import_uuid":"57871b70-0100-4405-bb30-88b2e001a944","gnis:reviewed":"no","name":"Sacramento Fire Station Number 5","source":"USGS Geonames"},"geometry":{"type":"Point","coordinates":[-121.5035665,38.5649056]},"id":"node/368167908"},{"type":"Feature","properties":{"@id":"node/368167909","addr:state":"CA","amenity":"fire_station","ele":"8","gnis:county_name":"Sacramento","gnis:feature_id":"2061463","gnis:import_uuid":"57871b70-0100-4405-bb30-88b2e001a944","gnis:reviewed":"no","name":"Sacramento Fire Station Number 4","source":"USGS Geonames"},"geometry":{"type":"Point","coordinates":[-121.4649544,38.5710166]},"id":"node/368167909"},{"type":"Feature","properties":{"@id":"node/368167910","addr:state":"CA","amenity":"fire_station","ele":"6","gnis:county_name":"Sacramento","gnis:feature_id":"2061466","gnis:import_uuid":"57871b70-0100-4405-bb30-88b2e001a944","gnis:reviewed":"no","name":"Sacramento Fire Station Number 57","source":"USGS Geonames"},"geometry":{"type":"Point","coordinates":[-121.4538427,38.4854633]},"id":"node/368167910"},{"type":"Feature","properties":{"@id":"node/368167911","addr:state":"CA","amenity":"fire_station","ele":"8","gnis:county_name":"Sacramento","gnis:feature_id":"2061465","gnis:import_uuid":"57871b70-0100-4405-bb30-88b2e001a944","gnis:reviewed":"no","name":"Sacramento Fire Station Number 56","source":"USGS Geonames"},"geometry":{"type":"Point","coordinates":[-121.4657876,38.509907]},"id":"node/368167911"},{"type":"Feature","properties":{"@id":"node/368167912","addr:state":"CA","amenity":"fire_station","ele":"10","gnis:county_name":"Sacramento","gnis:feature_id":"2061460","gnis:import_uuid":"57871b70-0100-4405-bb30-88b2e001a944","gnis:reviewed":"no","name":"Sacramento Fire Station Number 19","source":"USGS Geonames"},"geometry":{"type":"Point","coordinates":[-121.4274535,38.5960162]},"id":"node/368167912"},{"type":"Feature","properties":{"@id":"node/368167914","addr:state":"CA","amenity":"fire_station","ele":"9","gnis:county_name":"Sacramento","gnis:feature_id":"2061459","gnis:import_uuid":"57871b70-0100-4405-bb30-88b2e001a944","gnis:reviewed":"no","name":"Sacramento Fire Station Number 18","source":"USGS Geonames"},"geometry":{"type":"Point","coordinates":[-121.479955,38.6471259]},"id":"node/368167914"},{"type":"Feature","properties":{"@id":"node/368167920","addr:state":"CA","amenity":"fire_station","ele":"8","gnis:county_name":"Sacramento","gnis:feature_id":"2061461","gnis:import_uuid":"57871b70-0100-4405-bb30-88b2e001a944","gnis:reviewed":"no","name":"Sacramento Fire Station Number 2","source":"USGS Geonames"},"geometry":{"type":"Point","coordinates":[-121.4889453,38.580629]},"id":"node/368167920"},{"type":"Feature","properties":{"@id":"node/368167925","addr:state":"CA","amenity":"fire_station","ele":"4","gnis:county_name":"Sacramento","gnis:feature_id":"2061457","gnis:import_uuid":"57871b70-0100-4405-bb30-88b2e001a944","gnis:reviewed":"no","name":"Sacramento Fire Station Number 16","source":"USGS Geonames"},"geometry":{"type":"Point","coordinates":[-121.4799546,38.4907408]},"id":"node/368167925"},{"type":"Feature","properties":{"@id":"node/368167926","addr:state":"CA","amenity":"fire_station","ele":"13","gnis:county_name":"Sacramento","gnis:feature_id":"2061458","gnis:import_uuid":"57871b70-0100-4405-bb30-88b2e001a944","gnis:reviewed":"no","name":"Sacramento Fire Station Number 17","source":"USGS Geonames"},"geometry":{"type":"Point","coordinates":[-121.4355094,38.6476816]},"id":"node/368167926"},{"type":"Feature","properties":{"@id":"node/368167927","addr:state":"CA","amenity":"fire_station","ele":"9","gnis:county_name":"Sacramento","gnis:feature_id":"2061455","gnis:import_uuid":"57871b70-0100-4405-bb30-88b2e001a944","gnis:reviewed":"no","name":"Sacramento Fire Station Number 14","source":"USGS Geonames"},"geometry":{"type":"Point","coordinates":[-121.4827623,38.5910465]},"id":"node/368167927"},{"type":"Feature","properties":{"@id":"node/368167929","addr:state":"CA","amenity":"fire_station","ele":"8","gnis:county_name":"Sacramento","gnis:feature_id":"2061453","gnis:import_uuid":"57871b70-0100-4405-bb30-88b2e001a944","gnis:reviewed":"no","name":"Sacramento Fire Station Number 12","source":"USGS Geonames"},"geometry":{"type":"Point","coordinates":[-121.4835659,38.5337953]},"id":"node/368167929"},{"type":"Feature","properties":{"@id":"node/368167930","addr:state":"CA","amenity":"fire_station","ele":"3","gnis:county_name":"Sacramento","gnis:feature_id":"2061454","gnis:import_uuid":"57871b70-0100-4405-bb30-88b2e001a944","gnis:reviewed":"no","name":"Sacramento Fire Station Number 13","source":"USGS Geonames"},"geometry":{"type":"Point","coordinates":[-121.518289,38.5165734]},"id":"node/368167930"},{"type":"Feature","properties":{"@id":"node/368167931","addr:state":"CA","amenity":"fire_station","ele":"11","gnis:county_name":"Sacramento","gnis:feature_id":"2061451","gnis:import_uuid":"57871b70-0100-4405-bb30-88b2e001a944","gnis:reviewed":"no","name":"Sacramento Fire Station Number 10","source":"USGS Geonames"},"geometry":{"type":"Point","coordinates":[-121.4257866,38.5237957]},"id":"node/368167931"},{"type":"Feature","properties":{"@id":"node/368167932","addr:state":"CA","amenity":"fire_station","ele":"2","gnis:county_name":"Sacramento","gnis:feature_id":"2061452","gnis:import_uuid":"57871b70-0100-4405-bb30-88b2e001a944","gnis:reviewed":"no","name":"Sacramento Fire Station Number 11","source":"USGS Geonames"},"geometry":{"type":"Point","coordinates":[-121.531067,38.4979628]},"id":"node/368167932"},{"type":"Feature","properties":{"@id":"node/368167933","addr:state":"CA","amenity":"fire_station","ele":"7","gnis:county_name":"Sacramento","gnis:feature_id":"2061449","gnis:import_uuid":"57871b70-0100-4405-bb30-88b2e001a944","gnis:reviewed":"no","name":"Sacramento Fire Department","source":"USGS Geonames"},"geometry":{"type":"Point","coordinates":[-121.4988441,38.521851]},"id":"node/368167933"},{"type":"Feature","properties":{"@id":"node/368167934","addr:state":"CA","amenity":"fire_station","ele":"6","gnis:county_name":"Sacramento","gnis:feature_id":"2061450","gnis:import_uuid":"57871b70-0100-4405-bb30-88b2e001a944","gnis:reviewed":"no","name":"Sacramento Fire Station Number 1","source":"USGS Geonames"},"geometry":{"type":"Point","coordinates":[-121.5013443,38.5735165]},"id":"node/368167934"},{"type":"Feature","properties":{"@id":"node/368167936","addr:state":"CA","amenity":"fire_station","ele":"7","gnis:county_name":"Sacramento","gnis:feature_id":"2061428","gnis:import_uuid":"57871b70-0100-4405-bb30-88b2e001a944","gnis:reviewed":"no","name":"Sacramento Airport Fire Station","source":"USGS Geonames"},"geometry":{"type":"Point","coordinates":[-121.5907918,38.6996253]},"id":"node/368167936"},{"type":"Feature","properties":{"@id":"node/368167938","addr:state":"CA","amenity":"fire_station","ele":"3","gnis:county_name":"Sacramento","gnis:feature_id":"2061356","gnis:import_uuid":"57871b70-0100-4405-bb30-88b2e001a944","gnis:reviewed":"no","name":"Hood Fire Station","source":"USGS Geonames"},"geometry":{"type":"Point","coordinates":[-121.5130097,38.3665778]},"id":"node/368167938"},{"type":"Feature","properties":{"@id":"node/368167939","addr:state":"CA","amenity":"fire_station","ele":"2","gnis:county_name":"Sacramento","gnis:feature_id":"2061360","gnis:import_uuid":"57871b70-0100-4405-bb30-88b2e001a944","gnis:reviewed":"no","name":"Isleton City Fire Station","source":"USGS Geonames"},"geometry":{"type":"Point","coordinates":[-121.6126082,38.1614364]},"id":"node/368167939"},{"type":"Feature","properties":{"@id":"node/368167943","addr:state":"CA","amenity":"fire_station","ele":"23","gnis:county_name":"Sacramento","gnis:feature_id":"2061351","gnis:import_uuid":"57871b70-0100-4405-bb30-88b2e001a944","gnis:reviewed":"no","name":"Herald Fire Station Number 87","source":"USGS Geonames"},"geometry":{"type":"Point","coordinates":[-121.2407807,38.2938031]},"id":"node/368167943"},{"type":"Feature","properties":{"@id":"node/368167944","addr:state":"CA","amenity":"fire_station","ele":"33","gnis:county_name":"Sacramento","gnis:feature_id":"2061352","gnis:import_uuid":"57871b70-0100-4405-bb30-88b2e001a944","gnis:reviewed":"no","name":"Herald Fire Station Number 88","source":"USGS Geonames"},"geometry":{"type":"Point","coordinates":[-121.1602234,38.3346356]},"id":"node/368167944"},{"type":"Feature","properties":{"@id":"node/368167945","addr:state":"CA","amenity":"fire_station","ele":"14","gnis:county_name":"Sacramento","gnis:feature_id":"2061341","gnis:import_uuid":"57871b70-0100-4405-bb30-88b2e001a944","gnis:reviewed":"no","name":"Galt Fire Station","source":"USGS Geonames"},"geometry":{"type":"Point","coordinates":[-121.3088376,38.2540818]},"id":"node/368167945"},{"type":"Feature","properties":{"@id":"node/368167946","addr:state":"CA","amenity":"fire_station","ele":"93","gnis:county_name":"Sacramento","gnis:feature_id":"2061326","gnis:import_uuid":"57871b70-0100-4405-bb30-88b2e001a944","gnis:reviewed":"no","name":"Folsom Fire Station Number 36","source":"USGS Geonames"},"geometry":{"type":"Point","coordinates":[-121.1841142,38.6965697]},"id":"node/368167946"},{"type":"Feature","properties":{"@id":"node/368167947","addr:state":"CA","amenity":"fire_station","ele":"107","gnis:county_name":"Sacramento","gnis:feature_id":"2061325","gnis:import_uuid":"57871b70-0100-4405-bb30-88b2e001a944","gnis:reviewed":"no","name":"Folsom Fire Station Number 38","source":"USGS Geonames"},"geometry":{"type":"Point","coordinates":[-121.1366129,38.6771258]},"id":"node/368167947"},{"type":"Feature","properties":{"@id":"node/368167949","addr:state":"CA","amenity":"fire_station","ele":"83","gnis:county_name":"Sacramento","gnis:feature_id":"2061323","gnis:import_uuid":"57871b70-0100-4405-bb30-88b2e001a944","gnis:reviewed":"no","name":"Folsom Fire Station Number 35","source":"USGS Geonames"},"geometry":{"type":"Point","coordinates":[-121.1655024,38.6682371]},"id":"node/368167949"},{"type":"Feature","properties":{"@id":"node/368167950","addr:state":"CA","amenity":"fire_station","ele":"21","gnis:county_name":"Sacramento","gnis:feature_id":"2061321","gnis:import_uuid":"57871b70-0100-4405-bb30-88b2e001a944","gnis:reviewed":"no","name":"Florin Fire Station","source":"USGS Geonames"},"geometry":{"type":"Point","coordinates":[-121.3316174,38.5104632]},"id":"node/368167950"},{"type":"Feature","properties":{"@id":"node/368167953","addr:state":"CA","amenity":"fire_station","ele":"10","gnis:county_name":"Sacramento","gnis:feature_id":"2061311","gnis:import_uuid":"57871b70-0100-4405-bb30-88b2e001a944","gnis:reviewed":"no","name":"Elk Grove Fire Station Number 76","source":"USGS Geonames"},"geometry":{"type":"Point","coordinates":[-121.3877296,38.4385205]},"id":"node/368167953"},{"type":"Feature","properties":{"@id":"node/368167960","addr:state":"CA","amenity":"fire_station","ele":"5","gnis:county_name":"Sacramento","gnis:feature_id":"2061310","gnis:import_uuid":"57871b70-0100-4405-bb30-88b2e001a944","gnis:reviewed":"no","name":"Elk Grove Fire Station Number 75","source":"USGS Geonames"},"geometry":{"type":"Point","coordinates":[-121.4816206,38.4154653]},"id":"node/368167960"},{"type":"Feature","properties":{"@id":"node/368167962","addr:state":"CA","amenity":"fire_station","ele":"18","gnis:county_name":"Sacramento","gnis:feature_id":"2061308","gnis:import_uuid":"57871b70-0100-4405-bb30-88b2e001a944","gnis:reviewed":"no","name":"Elk Grove Fire Station Number 73","source":"USGS Geonames"},"geometry":{"type":"Point","coordinates":[-121.3388393,38.4243544]},"id":"node/368167962"},{"type":"Feature","properties":{"@id":"node/368167963","addr:state":"CA","amenity":"fire_station","ele":"6","gnis:county_name":"Sacramento","gnis:feature_id":"2061307","gnis:import_uuid":"57871b70-0100-4405-bb30-88b2e001a944","gnis:reviewed":"no","name":"Elk Grove Fire Station Number 72","source":"USGS Geonames"},"geometry":{"type":"Point","coordinates":[-121.4566197,38.3771332]},"id":"node/368167963"},{"type":"Feature","properties":{"@id":"node/368167964","addr:state":"CA","amenity":"fire_station","ele":"11","gnis:county_name":"Sacramento","gnis:feature_id":"2061306","gnis:import_uuid":"57871b70-0100-4405-bb30-88b2e001a944","gnis:reviewed":"no","name":"Elk Grove Fire Station Number 71","source":"USGS Geonames"},"geometry":{"type":"Point","coordinates":[-121.3780068,38.4085215]},"id":"node/368167964"},{"type":"Feature","properties":{"@id":"node/368167965","addr:state":"CA","amenity":"fire_station","ele":"3","gnis:county_name":"Sacramento","gnis:feature_id":"2061285","gnis:import_uuid":"57871b70-0100-4405-bb30-88b2e001a944","gnis:reviewed":"no","name":"Courtland Fire Station Number 91","source":"USGS Geonames"},"geometry":{"type":"Point","coordinates":[-121.5702327,38.328801]},"id":"node/368167965"},{"type":"Feature","properties":{"@id":"node/368167969","addr:state":"CA","amenity":"fire_station","ele":"50","gnis:county_name":"Orange","gnis:feature_id":"2101214","gnis:import_uuid":"57871b70-0100-4405-bb30-88b2e001a944","gnis:reviewed":"no","name":"Fullerton Fire Station 1","source":"USGS Geonames"},"geometry":{"type":"Point","coordinates":[-117.9191711,33.870088]},"id":"node/368167969"},{"type":"Feature","properties":{"@id":"node/368167970","addr:state":"CA","amenity":"fire_station","ele":"34","gnis:county_name":"Orange","gnis:feature_id":"2101215","gnis:import_uuid":"57871b70-0100-4405-bb30-88b2e001a944","gnis:reviewed":"no","name":"Fullerton Fire Station 2","source":"USGS Geonames"},"geometry":{"type":"Point","coordinates":[-117.9590382,33.8662843]},"id":"node/368167970"},{"type":"Feature","properties":{"@id":"node/368167971","addr:state":"CA","amenity":"fire_station","ele":"56","gnis:county_name":"Orange","gnis:feature_id":"2101216","gnis:import_uuid":"57871b70-0100-4405-bb30-88b2e001a944","gnis:reviewed":"no","name":"Fullerton Fire Station 3","source":"USGS Geonames"},"geometry":{"type":"Point","coordinates":[-117.8977778,33.8644444]},"id":"node/368167971"},{"type":"Feature","properties":{"@id":"node/368167972","addr:state":"CA","amenity":"fire_station","ele":"99","gnis:county_name":"Orange","gnis:feature_id":"2101217","gnis:import_uuid":"57871b70-0100-4405-bb30-88b2e001a944","gnis:reviewed":"no","name":"Fullerton Fire Station 4","source":"USGS Geonames"},"geometry":{"type":"Point","coordinates":[-117.9311111,33.9086111]},"id":"node/368167972"},{"type":"Feature","properties":{"@id":"node/368167985","addr:city":"Brea","addr:state":"CA","amenity":"fire_station","ele":"117","gnis:county_name":"Orange","gnis:feature_id":"2101207","gnis:import_uuid":"57871b70-0100-4405-bb30-88b2e001a944","gnis:reviewed":"no","name":"Brea Fire Station 1","source":"USGS Geonames"},"geometry":{"type":"Point","coordinates":[-117.9070601,33.9271243]},"id":"node/368167985"},{"type":"Feature","properties":{"@id":"node/368167989","addr:state":"CA","amenity":"fire_station","ele":"104","gnis:county_name":"Orange","gnis:feature_id":"2101208","gnis:import_uuid":"57871b70-0100-4405-bb30-88b2e001a944","gnis:reviewed":"no","name":"Brea Fire Station 2","source":"USGS Geonames"},"geometry":{"type":"Point","coordinates":[-117.8976129,33.9208387]},"id":"node/368167989"},{"type":"Feature","properties":{"@id":"node/368167992","addr:state":"CA","amenity":"fire_station","ele":"18","gnis:county_name":"Orange","gnis:feature_id":"2101209","gnis:import_uuid":"57871b70-0100-4405-bb30-88b2e001a944","gnis:reviewed":"no","name":"Costa Mesa Fire Station 1","source":"USGS Geonames"},"geometry":{"type":"Point","coordinates":[-117.9222578,33.6737486]},"id":"node/368167992"},{"type":"Feature","properties":{"@id":"node/368167999","addr:state":"CA","amenity":"fire_station","ele":"11","gnis:county_name":"Orange","gnis:feature_id":"2101210","gnis:import_uuid":"57871b70-0100-4405-bb30-88b2e001a944","gnis:reviewed":"no","name":"Costa Mesa Fire Station 2","source":"USGS Geonames"},"geometry":{"type":"Point","coordinates":[-117.8898983,33.6804385]},"id":"node/368167999"},{"type":"Feature","properties":{"@id":"node/368168004","addr:state":"CA","amenity":"fire_station","ele":"27","gnis:county_name":"Orange","gnis:feature_id":"2101211","gnis:import_uuid":"57871b70-0100-4405-bb30-88b2e001a944","gnis:reviewed":"no","name":"Costa Mesa Fire Station 3","source":"USGS Geonames"},"geometry":{"type":"Point","coordinates":[-117.9213889,33.6425]},"id":"node/368168004"},{"type":"Feature","properties":{"@id":"node/368168008","addr:state":"CA","amenity":"fire_station","ele":"22","gnis:county_name":"Orange","gnis:feature_id":"2101213","gnis:import_uuid":"57871b70-0100-4405-bb30-88b2e001a944","gnis:reviewed":"no","name":"Costa Mesa Fire Station 5","source":"USGS Geonames"},"geometry":{"type":"Point","coordinates":[-117.9044444,33.662479]},"id":"node/368168008"},{"type":"Feature","properties":{"@id":"node/368168010","addr:state":"CA","amenity":"fire_station","ele":"49","gnis:county_name":"Orange","gnis:feature_id":"2101198","gnis:import_uuid":"57871b70-0100-4405-bb30-88b2e001a944","gnis:reviewed":"no","name":"Anaheim Fire Station 1","source":"USGS Geonames"},"geometry":{"type":"Point","coordinates":[-117.9079127,33.8342653]},"id":"node/368168010"},{"type":"Feature","properties":{"@id":"node/368168015","addr:state":"CA","amenity":"fire_station","ele":"37","gnis:county_name":"Orange","gnis:feature_id":"2101202","gnis:import_uuid":"57871b70-0100-4405-bb30-88b2e001a944","gnis:reviewed":"no","name":"Anaheim Fire Station 5","source":"USGS Geonames"},"geometry":{"type":"Point","coordinates":[-117.9575,33.8533333]},"id":"node/368168015"},{"type":"Feature","properties":{"@id":"node/368168020","addr:state":"CA","amenity":"fire_station","ele":"53","gnis:county_name":"Orange","gnis:feature_id":"2101204","gnis:import_uuid":"57871b70-0100-4405-bb30-88b2e001a944","gnis:reviewed":"no","name":"Anaheim Fire Station 7","source":"USGS Geonames"},"geometry":{"type":"Point","coordinates":[-117.8852816,33.8178157]},"id":"node/368168020"},{"type":"Feature","properties":{"@id":"node/368168021","addr:state":"CA","amenity":"fire_station","ele":"201","gnis:county_name":"Los Angeles","gnis:feature_id":"2086688","gnis:import_uuid":"57871b70-0100-4405-bb30-88b2e001a944","gnis:reviewed":"no","name":"Burbank Fire Station Number 13","source":"USGS Geonames"},"geometry":{"type":"Point","coordinates":[-118.3377778,34.1969444]},"id":"node/368168021"},{"type":"Feature","properties":{"@id":"node/368168022","addr:city":"Glendale","addr:housenumber":"1127","addr:postcode":"91201","addr:state":"CA","addr:street":"Western Avenue","amenity":"fire_station","ele":"169","gnis:county_name":"Los Angeles","gnis:feature_id":"2084477","gnis:import_uuid":"57871b70-0100-4405-bb30-88b2e001a944","gnis:reviewed":"no","name":"Glendale Fire Station 27","phone":"1-818-548-4027","source":"USGS Geonames"},"geometry":{"type":"Point","coordinates":[-118.2890972,34.1720939]},"id":"node/368168022"},{"type":"Feature","properties":{"@id":"node/368168023","addr:state":"CA","amenity":"fire_station","ele":"163","gnis:county_name":"Los Angeles","gnis:feature_id":"2086701","gnis:import_uuid":"57871b70-0100-4405-bb30-88b2e001a944","gnis:reviewed":"no","name":"Burbank Fire Station Number 5","source":"USGS Geonames"},"geometry":{"type":"Point","coordinates":[-118.3211111,34.1683333]},"id":"node/368168023"},{"type":"Feature","properties":{"@id":"node/368168024","addr:state":"CA","amenity":"fire_station","ele":"172","gnis:county_name":"Los Angeles","gnis:feature_id":"2086700","gnis:import_uuid":"57871b70-0100-4405-bb30-88b2e001a944","gnis:reviewed":"no","name":"Burbank Fire Station Number 12","source":"USGS Geonames"},"geometry":{"type":"Point","coordinates":[-118.3439821,34.1626056]},"id":"node/368168024"},{"type":"Feature","properties":{"@id":"node/368168027","addr:city":"Berkeley","addr:housenumber":"997","addr:state":"CA","addr:street":"Cedar Street","amenity":"fire_station","ele":"9","gnis:county_name":"Alameda","gnis:feature_id":"2086816","gnis:import_uuid":"57871b70-0100-4405-bb30-88b2e001a944","gnis:reviewed":"no","name":"Berkeley Engine Company Number 6","source":"USGS Geonames"},"geometry":{"type":"Point","coordinates":[-122.2969639,37.8748143]},"id":"node/368168027"},{"type":"Feature","properties":{"@id":"node/368168029","addr:city":"Emeryville","addr:housenumber":"2333","addr:state":"CA","addr:street":"Powell Street","amenity":"fire_station","ele":"2","gnis:county_name":"Alameda","gnis:feature_id":"2087487","gnis:import_uuid":"57871b70-0100-4405-bb30-88b2e001a944","gnis:reviewed":"no","name":"Emeryville Fire Station Number 34","source":"Emeryville Public Facilities map"},"geometry":{"type":"Point","coordinates":[-122.3032905,37.8369378]},"id":"node/368168029"},{"type":"Feature","properties":{"@id":"node/368168030","addr:state":"CA","amenity":"fire_station","ele":"39","gnis:county_name":"Sacramento","gnis:feature_id":"2061565","gnis:import_uuid":"57871b70-0100-4405-bb30-88b2e001a944","gnis:reviewed":"no","name":"Wilton Fire Station Number 84","source":"USGS Geonames"},"geometry":{"type":"Point","coordinates":[-121.2235584,38.3701898]},"id":"node/368168030"},{"type":"Feature","properties":{"@id":"node/368168031","addr:state":"CA","amenity":"fire_station","ele":"25","gnis:county_name":"Sacramento","gnis:feature_id":"2061566","gnis:import_uuid":"57871b70-0100-4405-bb30-88b2e001a944","gnis:reviewed":"no","name":"Wilton Fire Station","source":"USGS Geonames"},"geometry":{"type":"Point","coordinates":[-121.2577261,38.4012999]},"id":"node/368168031"},{"type":"Feature","properties":{"@id":"node/368168032","addr:state":"CA","amenity":"fire_station","ele":"3","gnis:county_name":"Sacramento","gnis:feature_id":"2061557","gnis:import_uuid":"57871b70-0100-4405-bb30-88b2e001a944","gnis:reviewed":"no","name":"Walnut Grove Fire Station","source":"USGS Geonames"},"geometry":{"type":"Point","coordinates":[-121.5135641,38.2460259]},"id":"node/368168032"},{"type":"Feature","properties":{"@id":"node/368168033","addr:state":"CA","amenity":"fire_station","ele":"4","gnis:county_name":"Sacramento","gnis:feature_id":"2061558","gnis:import_uuid":"57871b70-0100-4405-bb30-88b2e001a944","gnis:reviewed":"no","name":"Walnut Grove Fire Station","source":"USGS Geonames"},"geometry":{"type":"Point","coordinates":[-121.5121752,38.2415816]},"id":"node/368168033"},{"type":"Feature","properties":{"@id":"node/368168034","addr:city":"Glendale","addr:housenumber":"353","addr:postcode":"91206","addr:state":"CA","addr:street":"N Chevy Chase Drive","amenity":"fire_station","description":"Built in 1988. One of the busiest districts in Glendale. This fire station houses a engine company and rescue. It also maintains one of our reserve engine apparatus. Nickname: Home of the New \"Devil Rig\".","ele":"189","gnis:county_name":"Los Angeles","gnis:feature_id":"2084449","gnis:import_uuid":"57871b70-0100-4405-bb30-88b2e001a944","gnis:reviewed":"no","name":"Glendale Fire Station 25","operator":"Glendale Fire Department","source":"USGS Geonames","website":"https://www.glendaleca.gov/government/departments/fire-department"},"geometry":{"type":"Point","coordinates":[-118.2371745,34.1513118]},"id":"node/368168034"},{"type":"Feature","properties":{"@id":"node/368168036","addr:city":"Glendale","addr:housenumber":"1145","addr:postcode":"91202","addr:state":"CA","addr:street":"N Brand Boulevard","amenity":"fire_station","description":"Built in 1951. This Fire Station is one of 3 stations which house a full task force. Nickname: \"The PIT\"","ele":"174","gnis:county_name":"Los Angeles","gnis:feature_id":"2084476","gnis:import_uuid":"57871b70-0100-4405-bb30-88b2e001a944","gnis:reviewed":"no","name":"Glendale Fire Station 26","operator":"Glendale Fire Department","phone":"+1-818-548-4026","source":"USGS Geonames"},"geometry":{"type":"Point","coordinates":[-118.2555556,34.1630556]},"id":"node/368168036"},{"type":"Feature","properties":{"@id":"node/368168037","addr:state":"CA","amenity":"fire_station","ele":"35","gnis:county_name":"Sacramento","gnis:feature_id":"2061567","gnis:import_uuid":"57871b70-0100-4405-bb30-88b2e001a944","gnis:reviewed":"no","name":"Wilton Fire Station Number 83","source":"USGS Geonames"},"geometry":{"type":"Point","coordinates":[-121.1882801,38.4426878]},"id":"node/368168037"},{"type":"Feature","properties":{"@id":"node/368168039","addr:state":"CA","amenity":"fire_station","ele":"44","gnis:county_name":"Sacramento","gnis:feature_id":"2061512","gnis:import_uuid":"57871b70-0100-4405-bb30-88b2e001a944","gnis:reviewed":"no","name":"Sacramento Metro Fire Station Number 63","source":"USGS Geonames"},"geometry":{"type":"Point","coordinates":[-121.2168925,38.6290714]},"id":"node/368168039"},{"type":"Feature","properties":{"@id":"node/368168040","addr:state":"CA","amenity":"fire_station","ele":"16","gnis:county_name":"Sacramento","gnis:feature_id":"2061513","gnis:import_uuid":"57871b70-0100-4405-bb30-88b2e001a944","gnis:reviewed":"no","name":"Sacramento Metro Fire Station Number 64","source":"USGS Geonames"},"geometry":{"type":"Point","coordinates":[-121.3588405,38.5635172]},"id":"node/368168040"},{"type":"Feature","properties":{"@id":"node/368168041","addr:state":"CA","amenity":"fire_station","ele":"29","gnis:county_name":"Sacramento","gnis:feature_id":"2061510","gnis:import_uuid":"57871b70-0100-4405-bb30-88b2e001a944","gnis:reviewed":"no","name":"Sacramento Metro Fire Station Number 61","source":"USGS Geonames"},"geometry":{"type":"Point","coordinates":[-121.2955055,38.5932388]},"id":"node/368168041"},{"type":"Feature","properties":{"@id":"node/368168042","addr:state":"CA","amenity":"fire_station","ele":"21","gnis:county_name":"Sacramento","gnis:feature_id":"2061511","gnis:import_uuid":"57871b70-0100-4405-bb30-88b2e001a944","gnis:reviewed":"no","name":"Sacramento Metro Fire Station Number 62","source":"USGS Geonames"},"geometry":{"type":"Point","coordinates":[-121.3366177,38.555462]},"id":"node/368168042"},{"type":"Feature","properties":{"@id":"node/368168043","addr:state":"CA","amenity":"fire_station","ele":"25","gnis:county_name":"Sacramento","gnis:feature_id":"2061516","gnis:import_uuid":"57871b70-0100-4405-bb30-88b2e001a944","gnis:reviewed":"no","name":"Sacramento Metro Fire Station Number 67","source":"USGS Geonames"},"geometry":{"type":"Point","coordinates":[-121.3066169,38.5590731]},"id":"node/368168043"},{"type":"Feature","properties":{"@id":"node/368168044","addr:state":"CA","amenity":"fire_station","ele":"23","gnis:county_name":"Sacramento","gnis:feature_id":"2061519","gnis:import_uuid":"57871b70-0100-4405-bb30-88b2e001a944","gnis:reviewed":"no","name":"Sacramento Metro Fire Station Number 114","source":"USGS Geonames"},"geometry":{"type":"Point","coordinates":[-121.3966196,38.6732365]},"id":"node/368168044"},{"type":"Feature","properties":{"@id":"node/368168045","addr:state":"CA","amenity":"fire_station","ele":"35","gnis:county_name":"Sacramento","gnis:feature_id":"2061514","gnis:import_uuid":"57871b70-0100-4405-bb30-88b2e001a944","gnis:reviewed":"no","name":"Sacramento Metro Fire Station Number 65","source":"USGS Geonames"},"geometry":{"type":"Point","coordinates":[-121.2657826,38.6190716]},"id":"node/368168045"},{"type":"Feature","properties":{"@id":"node/368168046","addr:state":"CA","amenity":"fire_station","ele":"35","gnis:county_name":"Sacramento","gnis:feature_id":"2061515","gnis:import_uuid":"57871b70-0100-4405-bb30-88b2e001a944","gnis:reviewed":"no","name":"Sacramento Metro Fire Station Number 66","source":"USGS Geonames"},"geometry":{"type":"Point","coordinates":[-121.2710605,38.5874058]},"id":"node/368168046"},{"type":"Feature","properties":{"@id":"node/368168047","addr:state":"CA","amenity":"fire_station","ele":"8","gnis:county_name":"Sacramento","gnis:feature_id":"2061505","gnis:import_uuid":"57871b70-0100-4405-bb30-88b2e001a944","gnis:reviewed":"no","name":"Sacramento Metro Fire Station Number 53","source":"USGS Geonames"},"geometry":{"type":"Point","coordinates":[-121.4241198,38.48713]},"id":"node/368168047"},{"type":"Feature","properties":{"@id":"node/368168048","addr:state":"CA","amenity":"fire_station","ele":"10","gnis:county_name":"Sacramento","gnis:feature_id":"2061504","gnis:import_uuid":"57871b70-0100-4405-bb30-88b2e001a944","gnis:reviewed":"no","name":"Sacramento Metro Fire Station Number 51","source":"USGS Geonames"},"geometry":{"type":"Point","coordinates":[-121.4035634,38.4596309]},"id":"node/368168048"},{"type":"Feature","properties":{"@id":"node/368168051","addr:state":"CA","amenity":"fire_station","ele":"14","gnis:county_name":"Sacramento","gnis:feature_id":"2061503","gnis:import_uuid":"57871b70-0100-4405-bb30-88b2e001a944","gnis:reviewed":"no","name":"Sacramento Metro Fire Station Number 50","source":"USGS Geonames"},"geometry":{"type":"Point","coordinates":[-121.3738406,38.4812971]},"id":"node/368168051"},{"type":"Feature","properties":{"@id":"node/368168052","addr:state":"CA","amenity":"fire_station","ele":"15","gnis:county_name":"Sacramento","gnis:feature_id":"2061502","gnis:import_uuid":"57871b70-0100-4405-bb30-88b2e001a944","gnis:reviewed":"no","name":"Sacramento Metro Fire Station Number 46","source":"USGS Geonames"},"geometry":{"type":"Point","coordinates":[-121.2892681,38.2798535]},"id":"node/368168052"},{"type":"Feature","properties":{"@id":"node/368168053","addr:state":"CA","amenity":"fire_station","ele":"44","gnis:county_name":"Sacramento","gnis:feature_id":"2061509","gnis:import_uuid":"57871b70-0100-4405-bb30-88b2e001a944","gnis:reviewed":"no","name":"Sacramento Metro Fire Station Number 59","source":"USGS Geonames"},"geometry":{"type":"Point","coordinates":[-121.0993892,38.4960196]},"id":"node/368168053"},{"type":"Feature","properties":{"@id":"node/368168054","addr:state":"CA","amenity":"fire_station","ele":"59","gnis:county_name":"Sacramento","gnis:feature_id":"2061508","gnis:import_uuid":"57871b70-0100-4405-bb30-88b2e001a944","gnis:reviewed":"no","name":"Sacramento Metro Fire Station Number 58","source":"USGS Geonames"},"geometry":{"type":"Point","coordinates":[-121.2110586,38.4946306]},"id":"node/368168054"},{"type":"Feature","properties":{"@id":"node/368168055","addr:state":"CA","amenity":"fire_station","ele":"32","gnis:county_name":"Sacramento","gnis:feature_id":"2061507","gnis:import_uuid":"57871b70-0100-4405-bb30-88b2e001a944","gnis:reviewed":"no","name":"Sacramento Metro Fire Station Number 55","source":"USGS Geonames"},"geometry":{"type":"Point","coordinates":[-121.298283,38.4754643]},"id":"node/368168055"},{"type":"Feature","properties":{"@id":"node/368168056","addr:state":"CA","amenity":"fire_station","ele":"17","gnis:county_name":"Sacramento","gnis:feature_id":"2061506","gnis:import_uuid":"57871b70-0100-4405-bb30-88b2e001a944","gnis:reviewed":"no","name":"Sacramento Metro Fire Station Number 54","source":"USGS Geonames"},"geometry":{"type":"Point","coordinates":[-121.3718963,38.5457398]},"id":"node/368168056"},{"type":"Feature","properties":{"@id":"node/368168057","addr:state":"CA","amenity":"fire_station","ele":"80","gnis:county_name":"Sacramento","gnis:feature_id":"2061497","gnis:import_uuid":"57871b70-0100-4405-bb30-88b2e001a944","gnis:reviewed":"no","name":"Sacramento Metro Fire Station Number 32","source":"USGS Geonames"},"geometry":{"type":"Point","coordinates":[-121.2260595,38.6565707]},"id":"node/368168057"},{"type":"Feature","properties":{"@id":"node/368168058","addr:state":"CA","amenity":"fire_station","ele":"59","gnis:county_name":"Sacramento","gnis:feature_id":"2061496","gnis:import_uuid":"57871b70-0100-4405-bb30-88b2e001a944","gnis:reviewed":"no","name":"Sacramento Metro Fire Station Number 31","source":"USGS Geonames"},"geometry":{"type":"Point","coordinates":[-121.2713385,38.6418487]},"id":"node/368168058"},{"type":"Feature","properties":{"@id":"node/368168060","addr:state":"CA","amenity":"fire_station","ele":"59","gnis:county_name":"Sacramento","gnis:feature_id":"2061494","gnis:import_uuid":"57871b70-0100-4405-bb30-88b2e001a944","gnis:reviewed":"no","name":"Sacramento Metro Fire Station Number 28","source":"USGS Geonames"},"geometry":{"type":"Point","coordinates":[-121.2582827,38.700736]},"id":"node/368168060"},{"type":"Feature","properties":{"@id":"node/368168074","addr:state":"CA","amenity":"fire_station","ele":"15","gnis:county_name":"Sacramento","gnis:feature_id":"2061501","gnis:import_uuid":"57871b70-0100-4405-bb30-88b2e001a944","gnis:reviewed":"no","name":"Sacramento Metro Fire Station Number 45","source":"USGS Geonames"},"geometry":{"type":"Point","coordinates":[-121.3041153,38.2532484]},"id":"node/368168074"},{"type":"Feature","properties":{"@id":"node/368168084","addr:state":"CA","amenity":"fire_station","ele":"31","gnis:county_name":"Sacramento","gnis:feature_id":"2061499","gnis:import_uuid":"57871b70-0100-4405-bb30-88b2e001a944","gnis:reviewed":"no","name":"Sacramento Metro Fire Station Number 41","source":"USGS Geonames"},"geometry":{"type":"Point","coordinates":[-121.3757857,38.6926806]},"id":"node/368168084"},{"type":"Feature","properties":{"@id":"node/368168085","addr:state":"CA","amenity":"fire_station","ele":"71","gnis:county_name":"Sacramento","gnis:feature_id":"2061498","gnis:import_uuid":"57871b70-0100-4405-bb30-88b2e001a944","gnis:reviewed":"no","name":"Sacramento Metro Fire Station Number 33","source":"USGS Geonames"},"geometry":{"type":"Point","coordinates":[-121.20217,38.661015]},"id":"node/368168085"},{"type":"Feature","properties":{"@id":"node/368168169","addr:state":"CA","amenity":"fire_station","ele":"30","gnis:county_name":"Orange","gnis:feature_id":"2101230","gnis:import_uuid":"57871b70-0100-4405-bb30-88b2e001a944","gnis:reviewed":"no","name":"Laguna Beach Fire Station 2","source":"USGS Geonames"},"geometry":{"type":"Point","coordinates":[-117.7706079,33.5298636]},"id":"node/368168169"},{"type":"Feature","properties":{"@id":"node/368168170","addr:state":"CA","amenity":"fire_station","ele":"3","gnis:county_name":"Orange","gnis:feature_id":"2101232","gnis:import_uuid":"57871b70-0100-4405-bb30-88b2e001a944","gnis:reviewed":"no","name":"Newport Beach Fire Station 1","source":"USGS Geonames"},"geometry":{"type":"Point","coordinates":[-117.9061111,33.6041667]},"id":"node/368168170"},{"type":"Feature","properties":{"@id":"node/368168172","addr:state":"CA","amenity":"fire_station","ele":"39","gnis:county_name":"Orange","gnis:feature_id":"2101234","gnis:import_uuid":"57871b70-0100-4405-bb30-88b2e001a944","gnis:reviewed":"no","name":"Newport Beach Fire Station 3","source":"USGS Geonames"},"geometry":{"type":"Point","coordinates":[-117.8802778,33.6225]},"id":"node/368168172"},{"type":"Feature","properties":{"@id":"node/368168173","addr:state":"CA","amenity":"fire_station","ele":"3","gnis:county_name":"Orange","gnis:feature_id":"2101235","gnis:import_uuid":"57871b70-0100-4405-bb30-88b2e001a944","gnis:reviewed":"no","name":"Newport Beach Fire Station 4","source":"USGS Geonames"},"geometry":{"type":"Point","coordinates":[-117.8896016,33.6055391]},"id":"node/368168173"},{"type":"Feature","properties":{"@id":"node/368168174","addr:state":"CA","amenity":"fire_station","ele":"31","gnis:county_name":"Orange","gnis:feature_id":"2101236","gnis:import_uuid":"57871b70-0100-4405-bb30-88b2e001a944","gnis:reviewed":"no","name":"Newport Beach Fire Station 5","source":"USGS Geonames"},"geometry":{"type":"Point","coordinates":[-117.8697222,33.5961111]},"id":"node/368168174"},{"type":"Feature","properties":{"@id":"node/368168186","addr:state":"CA","amenity":"fire_station","ele":"87","gnis:county_name":"Orange","gnis:feature_id":"2101227","gnis:import_uuid":"57871b70-0100-4405-bb30-88b2e001a944","gnis:reviewed":"no","name":"Los Angeles County Fire Department Station #191","ref":"LAC191","source":"USGS Geonames"},"geometry":{"type":"Point","coordinates":[-117.9557473,33.9316506]},"id":"node/368168186"},{"type":"Feature","properties":{"@id":"node/368168188","addr:state":"CA","amenity":"fire_station","ele":"94","gnis:county_name":"Orange","gnis:feature_id":"2101228","gnis:import_uuid":"57871b70-0100-4405-bb30-88b2e001a944","gnis:reviewed":"no","name":"Los Angeles County Fire Department Station #192","ref":"LAC192","source":"USGS Geonames"},"geometry":{"type":"Point","coordinates":[-117.9326214,33.9269991]},"id":"node/368168188"},{"type":"Feature","properties":{"@id":"node/368168190","addr:city":"Laguna Beach","addr:housename":"501","addr:postcode":"92651","addr:state":"CA","addr:street":"Forest Avenue","amenity":"fire_station","ele":"13","gnis:county_name":"Orange","gnis:feature_id":"2101229","gnis:import_uuid":"57871b70-0100-4405-bb30-88b2e001a944","name":"Laguna Beach Fire Station 1","operator":"Laguna Beach Fire Department","ref":"1","source":"USGS Geonames"},"geometry":{"type":"Point","coordinates":[-117.7811828,33.5451962]},"id":"node/368168190"},{"type":"Feature","properties":{"@id":"node/368168202","addr:state":"CA","amenity":"fire_station","ele":"89","gnis:county_name":"Orange","gnis:feature_id":"2101239","gnis:import_uuid":"57871b70-0100-4405-bb30-88b2e001a944","gnis:reviewed":"no","name":"Orange Fire Station 2","source":"USGS Geonames"},"geometry":{"type":"Point","coordinates":[-117.8225,33.8022222]},"id":"node/368168202"},{"type":"Feature","properties":{"@id":"node/368168208","addr:state":"CA","amenity":"fire_station","ele":"88","gnis:county_name":"Orange","gnis:feature_id":"2101241","gnis:import_uuid":"57871b70-0100-4405-bb30-88b2e001a944","gnis:reviewed":"no","name":"Orange Fire Station 4","source":"USGS Geonames"},"geometry":{"type":"Point","coordinates":[-117.8094444,33.7861111]},"id":"node/368168208"},{"type":"Feature","properties":{"@id":"node/368168219","addr:state":"CA","amenity":"fire_station","ele":"15","gnis:county_name":"Orange","gnis:feature_id":"2101246","gnis:import_uuid":"57871b70-0100-4405-bb30-88b2e001a944","gnis:reviewed":"no","name":"OCFA Station 13","operator":"Orange County Fire Authority","source":"USGS Geonames"},"geometry":{"type":"Point","coordinates":[-118.036469,33.8493038]},"id":"node/368168219"},{"type":"Feature","properties":{"@id":"node/368168299","addr:state":"CA","amenity":"fire_station","ele":"49","gnis:county_name":"Los Angeles","gnis:feature_id":"2105687","gnis:import_uuid":"57871b70-0100-4405-bb30-88b2e001a944","gnis:reviewed":"no","name":"Los Angeles County Fire Department Station #103","ref":"LAC103","source":"USGS Geonames"},"geometry":{"type":"Point","coordinates":[-118.1081906,33.982789]},"id":"node/368168299"},{"type":"Feature","properties":{"@id":"node/368168302","addr:state":"CA","amenity":"fire_station","ele":"392","gnis:county_name":"Los Angeles","gnis:feature_id":"2105686","gnis:import_uuid":"57871b70-0100-4405-bb30-88b2e001a944","gnis:reviewed":"no","name":"Los Angeles County Fire Department Station #102","ref":"LAC102","source":"USGS Geonames"},"geometry":{"type":"Point","coordinates":[-117.738145,34.1211044]},"id":"node/368168302"},{"type":"Feature","properties":{"@id":"node/368168304","addr:state":"CA","amenity":"fire_station","ele":"304","gnis:county_name":"Los Angeles","gnis:feature_id":"2105689","gnis:import_uuid":"57871b70-0100-4405-bb30-88b2e001a944","gnis:reviewed":"no","name":"Los Angeles County Fire Department Station #106","ref":"LAC106","source":"USGS Geonames"},"geometry":{"type":"Point","coordinates":[-118.37639,33.7721468]},"id":"node/368168304"},{"type":"Feature","properties":{"@id":"node/368168305","addr:state":"CA","amenity":"fire_station","ele":"16","gnis:county_name":"Los Angeles","gnis:feature_id":"2105688","gnis:import_uuid":"57871b70-0100-4405-bb30-88b2e001a944","gnis:reviewed":"no","name":"Los Angeles County Fire Department Station #105","ref":"LAC105","source":"USGS Geonames"},"geometry":{"type":"Point","coordinates":[-118.2165498,33.8597988]},"id":"node/368168305"},{"type":"Feature","properties":{"@id":"node/368168307","addr:state":"CA","amenity":"fire_station","ele":"19","gnis:county_name":"Los Angeles","gnis:feature_id":"2105682","gnis:import_uuid":"57871b70-0100-4405-bb30-88b2e001a944","gnis:reviewed":"no","name":"Los Angeles County Fire Department Station #95","ref":"LAC95","source":"USGS Geonames"},"geometry":{"type":"Point","coordinates":[-118.2775801,33.8931505]},"id":"node/368168307"},{"type":"Feature","properties":{"@id":"node/368168310","addr:state":"CA","amenity":"fire_station","ele":"351","gnis:county_name":"Los Angeles","gnis:feature_id":"2105685","gnis:import_uuid":"57871b70-0100-4405-bb30-88b2e001a944","gnis:reviewed":"no","name":"Los Angeles County Fire Department Station #101","ref":"LAC101","source":"USGS Geonames"},"geometry":{"type":"Point","coordinates":[-117.7236156,34.0962069]},"id":"node/368168310"},{"type":"Feature","properties":{"@id":"node/368168311","addr:state":"CA","amenity":"fire_station","ele":"25","gnis:county_name":"Los Angeles","gnis:feature_id":"2105684","gnis:import_uuid":"57871b70-0100-4405-bb30-88b2e001a944","gnis:reviewed":"no","name":"Los Angeles County Fire Department Station #98","ref":"LAC98","source":"USGS Geonames"},"geometry":{"type":"Point","coordinates":[-118.1249519,33.8998787]},"id":"node/368168311"},{"type":"Feature","properties":{"@id":"node/368168312","addr:state":"CA","amenity":"fire_station","ele":"231","gnis:county_name":"Los Angeles","gnis:feature_id":"2105695","gnis:import_uuid":"57871b70-0100-4405-bb30-88b2e001a944","gnis:reviewed":"no","name":"Los Angeles County Fire Department Station #141","ref":"LAC141","source":"USGS Geonames"},"geometry":{"type":"Point","coordinates":[-117.8294903,34.0745838]},"id":"node/368168312"},{"type":"Feature","properties":{"@id":"node/368168313","addr:state":"CA","amenity":"fire_station","designation":"Carson Fire Station","ele":"7","gnis:county_name":"Los Angeles","gnis:feature_id":"2105694","gnis:import_uuid":"57871b70-0100-4405-bb30-88b2e001a944","gnis:reviewed":"no","name":"Los Angeles County Fire Department Station #127","ref":"LAC127","source":"USGS Geonames"},"geometry":{"type":"Point","coordinates":[-118.2384084,33.8246242]},"id":"node/368168313"},{"type":"Feature","properties":{"@id":"node/368168314","addr:state":"CA","amenity":"fire_station","ele":"28","gnis:county_name":"Los Angeles","gnis:feature_id":"2105697","gnis:import_uuid":"57871b70-0100-4405-bb30-88b2e001a944","gnis:reviewed":"no","name":"Los Angeles County Fire Department Station #147","ref":"LAC147","source":"USGS Geonames"},"geometry":{"type":"Point","coordinates":[-118.214272,33.9304888]},"id":"node/368168314"},{"type":"Feature","properties":{"@id":"node/368168315","addr:state":"CA","amenity":"fire_station","ele":"146","gnis:county_name":"Los Angeles","gnis:feature_id":"2105696","gnis:import_uuid":"57871b70-0100-4405-bb30-88b2e001a944","gnis:reviewed":"no","name":"Los Angeles County Fire Department Station #145","ref":"LAC145","source":"USGS Geonames"},"geometry":{"type":"Point","coordinates":[-117.8895396,33.989319]},"id":"node/368168315"},{"type":"Feature","properties":{"@id":"node/368168316","addr:state":"CA","amenity":"fire_station","ele":"24","gnis:county_name":"Los Angeles","gnis:feature_id":"2105691","gnis:import_uuid":"57871b70-0100-4405-bb30-88b2e001a944","gnis:reviewed":"no","name":"Los Angeles County Fire Department Station #116","ref":"LAC116","source":"USGS Geonames"},"geometry":{"type":"Point","coordinates":[-118.2619027,33.8674625]},"id":"node/368168316"},{"type":"Feature","properties":{"@id":"node/368168317","addr:state":"CA","amenity":"fire_station","ele":"4","gnis:county_name":"Los Angeles","gnis:feature_id":"2105690","gnis:import_uuid":"57871b70-0100-4405-bb30-88b2e001a944","gnis:reviewed":"no","name":"Los Angeles County Fire Department Station #110","ref":"LAC110","source":"USGS Geonames"},"geometry":{"type":"Point","coordinates":[-118.4485978,33.9839323]},"id":"node/368168317"},{"type":"Feature","properties":{"@id":"node/368168319","addr:state":"CA","amenity":"fire_station","ele":"121","gnis:county_name":"Los Angeles","gnis:feature_id":"2105692","gnis:import_uuid":"57871b70-0100-4405-bb30-88b2e001a944","gnis:reviewed":"no","name":"Los Angeles County Fire Department Station #118","ref":"LAC118","source":"USGS Geonames"},"geometry":{"type":"Point","coordinates":[-117.935502,34.0002554]},"id":"node/368168319"},{"type":"Feature","properties":{"@id":"node/368168320","addr:state":"CA","amenity":"fire_station","ele":"172","gnis:county_name":"Los Angeles","gnis:feature_id":"2105702","gnis:import_uuid":"57871b70-0100-4405-bb30-88b2e001a944","gnis:reviewed":"no","name":"Los Angeles County Fire Department Station #154","ref":"LAC154","source":"USGS Geonames"},"geometry":{"type":"Point","coordinates":[-117.8882897,34.0896589]},"id":"node/368168320"},{"type":"Feature","properties":{"@id":"node/368168321","addr:state":"CA","amenity":"fire_station","ele":"14","gnis:county_name":"Los Angeles","gnis:feature_id":"2105703","gnis:import_uuid":"57871b70-0100-4405-bb30-88b2e001a944","gnis:reviewed":"no","name":"Los Angeles County Fire Department Station #158","ref":"LAC158","source":"USGS Geonames"},"geometry":{"type":"Point","coordinates":[-118.3061671,33.8835207]},"id":"node/368168321"},{"type":"Feature","properties":{"@id":"node/368168322","addr:state":"CA","amenity":"fire_station","ele":"14","gnis:county_name":"Los Angeles","gnis:feature_id":"2105704","gnis:import_uuid":"57871b70-0100-4405-bb30-88b2e001a944","gnis:reviewed":"no","name":"Los Angeles County Fire Department Station #159","ref":"LAC159","source":"USGS Geonames"},"geometry":{"type":"Point","coordinates":[-118.3147342,33.908939]},"id":"node/368168322"},{"type":"Feature","properties":{"@id":"node/368168324","addr:state":"CA","amenity":"fire_station","ele":"28","gnis:county_name":"Los Angeles","gnis:feature_id":"2105705","gnis:import_uuid":"57871b70-0100-4405-bb30-88b2e001a944","gnis:reviewed":"no","name":"Los Angeles County Fire Department Station #160","ref":"LAC160","source":"USGS Geonames"},"geometry":{"type":"Point","coordinates":[-118.3730025,33.9021182]},"id":"node/368168324"},{"type":"Feature","properties":{"@id":"node/368168325","addr:state":"CA","amenity":"fire_station","ele":"26","gnis:county_name":"Los Angeles","gnis:feature_id":"2105698","gnis:import_uuid":"57871b70-0100-4405-bb30-88b2e001a944","gnis:reviewed":"no","name":"Los Angeles County Fire Department Station #148","ref":"LAC148","source":"USGS Geonames"},"geometry":{"type":"Point","coordinates":[-118.1903709,33.9221695]},"id":"node/368168325"},{"type":"Feature","properties":{"@id":"node/368168326","addr:state":"CA","amenity":"fire_station","ele":"232","gnis:county_name":"Los Angeles","gnis:feature_id":"2105699","gnis:import_uuid":"57871b70-0100-4405-bb30-88b2e001a944","gnis:reviewed":"no","name":"Los Angeles County Fire Department Station #151","ref":"LAC151","source":"USGS Geonames"},"geometry":{"type":"Point","coordinates":[-117.8677587,34.1377991]},"id":"node/368168326"},{"type":"Feature","properties":{"@id":"node/368168327","addr:state":"CA","amenity":"fire_station","ele":"156","gnis:county_name":"Los Angeles","gnis:feature_id":"2105700","gnis:import_uuid":"57871b70-0100-4405-bb30-88b2e001a944","gnis:reviewed":"no","name":"Los Angeles County Fire Department Station #152","ref":"LAC152","source":"USGS Geonames"},"geometry":{"type":"Point","coordinates":[-117.9058849,34.0960693]},"id":"node/368168327"},{"type":"Feature","properties":{"@id":"node/368168328","addr:state":"CA","amenity":"fire_station","ele":"211","gnis:county_name":"Los Angeles","gnis:feature_id":"2105701","gnis:import_uuid":"57871b70-0100-4405-bb30-88b2e001a944","gnis:reviewed":"no","name":"Los Angeles County Fire Department Station #153","ref":"LAC153","source":"USGS Geonames"},"geometry":{"type":"Point","coordinates":[-117.8576052,34.0960871]},"id":"node/368168328"},{"type":"Feature","properties":{"@id":"node/368168329","addr:state":"CA","amenity":"fire_station","ele":"45","gnis:county_name":"Los Angeles","gnis:feature_id":"2105710","gnis:import_uuid":"57871b70-0100-4405-bb30-88b2e001a944","gnis:reviewed":"no","name":"Los Angeles County Fire Department Station #164","ref":"LAC165","source":"USGS Geonames"},"geometry":{"type":"Point","coordinates":[-118.2085453,33.9762899]},"id":"node/368168329"},{"type":"Feature","properties":{"@id":"node/368168330","addr:state":"CA","amenity":"fire_station","ele":"84","gnis:county_name":"Los Angeles","gnis:feature_id":"2105711","gnis:import_uuid":"57871b70-0100-4405-bb30-88b2e001a944","gnis:reviewed":"no","name":"Los Angeles County Fire Department Station #166","ref":"LAC166","source":"USGS Geonames"},"geometry":{"type":"Point","coordinates":[-118.041771,34.0750926]},"id":"node/368168330"},{"type":"Feature","properties":{"@id":"node/368168332","addr:state":"CA","amenity":"fire_station","ele":"91","gnis:county_name":"Los Angeles","gnis:feature_id":"2105713","gnis:import_uuid":"57871b70-0100-4405-bb30-88b2e001a944","gnis:reviewed":"no","name":"Los Angeles County Fire Department Station #168","ref":"LAC168","source":"USGS Geonames"},"geometry":{"type":"Point","coordinates":[-118.018417,34.0645811]},"id":"node/368168332"},{"type":"Feature","properties":{"@id":"node/368168333","addr:state":"CA","amenity":"fire_station","ele":"23","gnis:county_name":"Los Angeles","gnis:feature_id":"2105706","gnis:import_uuid":"57871b70-0100-4405-bb30-88b2e001a944","gnis:reviewed":"no","name":"Los Angeles County Fire Department Station #161","ref":"LAC161","source":"USGS Geonames"},"geometry":{"type":"Point","coordinates":[-118.3543799,33.9166565]},"id":"node/368168333"},{"type":"Feature","properties":{"@id":"node/368168335","addr:state":"CA","amenity":"fire_station","ele":"45","gnis:county_name":"Los Angeles","gnis:feature_id":"2105708","gnis:import_uuid":"57871b70-0100-4405-bb30-88b2e001a944","gnis:reviewed":"no","name":"Los Angeles County Fire Department Station #163","ref":"LAC163","source":"USGS Geonames"},"geometry":{"type":"Point","coordinates":[-118.1886114,33.979445]},"id":"node/368168335"},{"type":"Feature","properties":{"@id":"node/368168336","addr:state":"CA","amenity":"fire_station","ele":"51","gnis:county_name":"Los Angeles","gnis:feature_id":"2105709","gnis:import_uuid":"57871b70-0100-4405-bb30-88b2e001a944","gnis:reviewed":"no","name":"Los Angeles County Fire Department Station #164","ref":"LAC164","source":"USGS Geonames"},"geometry":{"type":"Point","coordinates":[-118.2306525,33.9813177]},"id":"node/368168336"},{"type":"Feature","properties":{"@id":"node/368168337","addr:state":"CA","amenity":"fire_station","ele":"278","gnis:county_name":"Los Angeles","gnis:feature_id":"2105721","gnis:import_uuid":"57871b70-0100-4405-bb30-88b2e001a944","gnis:reviewed":"no","name":"Los Angeles County Fire Department Station #183","ref":"LAC183","source":"USGS Geonames"},"geometry":{"type":"Point","coordinates":[-117.7363399,34.0655965]},"id":"node/368168337"},{"type":"Feature","properties":{"@id":"node/368168338","addr:state":"CA","amenity":"fire_station","ele":"268","gnis:county_name":"Los Angeles","gnis:feature_id":"2105720","gnis:import_uuid":"57871b70-0100-4405-bb30-88b2e001a944","gnis:reviewed":"no","name":"Los Angeles County Fire Department Station #182","ref":"LAC182","source":"USGS Geonames"},"geometry":{"type":"Point","coordinates":[-117.7595575,34.0676745]},"id":"node/368168338"},{"type":"Feature","properties":{"@id":"node/368168339","addr:state":"CA","amenity":"fire_station","ele":"257","gnis:county_name":"Los Angeles","gnis:feature_id":"2105719","gnis:import_uuid":"57871b70-0100-4405-bb30-88b2e001a944","gnis:reviewed":"no","name":"Los Angeles County Fire Department (Out of Service)","ref":"LAC181","source":"USGS Geonames"},"geometry":{"type":"Point","coordinates":[-117.7540238,34.0541082]},"id":"node/368168339"},{"type":"Feature","properties":{"@id":"node/368168341","addr:state":"CA","amenity":"fire_station","ele":"53","gnis:county_name":"Los Angeles","gnis:feature_id":"2105717","gnis:import_uuid":"57871b70-0100-4405-bb30-88b2e001a944","gnis:reviewed":"no","name":"Los Angeles County Fire Department Station #172","ref":"LAC172","source":"USGS Geonames"},"geometry":{"type":"Point","coordinates":[-118.3533232,33.9761426]},"id":"node/368168341"},{"type":"Feature","properties":{"@id":"node/368168342","addr:state":"CA","amenity":"fire_station","ele":"36","gnis:county_name":"Los Angeles","gnis:feature_id":"2105716","gnis:import_uuid":"57871b70-0100-4405-bb30-88b2e001a944","gnis:reviewed":"no","name":"Los Angeles County Fire Department Station #171","ref":"LAC171","source":"USGS Geonames"},"geometry":{"type":"Point","coordinates":[-118.3568287,33.9647364]},"id":"node/368168342"},{"type":"Feature","properties":{"@id":"node/368168343","addr:state":"CA","amenity":"fire_station","ele":"32","gnis:county_name":"Los Angeles","gnis:feature_id":"2105715","gnis:import_uuid":"57871b70-0100-4405-bb30-88b2e001a944","gnis:reviewed":"no","name":"Los Angeles County Fire Department Station #170","ref":"LAC170","source":"USGS Geonames"},"geometry":{"type":"Point","coordinates":[-118.3268657,33.9383532]},"id":"node/368168343"},{"type":"Feature","properties":{"@id":"node/368168344","addr:state":"CA","amenity":"fire_station","ele":"101","gnis:county_name":"Los Angeles","gnis:feature_id":"2105714","gnis:import_uuid":"57871b70-0100-4405-bb30-88b2e001a944","gnis:reviewed":"no","name":"Los Angeles County Fire Department Station #169","ref":"LAC169","source":"USGS Geonames"},"geometry":{"type":"Point","coordinates":[-118.0119364,34.0955734]},"id":"node/368168344"},{"type":"Feature","properties":{"@id":"node/368168346","addr:state":"CA","amenity":"fire_station","ele":"141","gnis:county_name":"Los Angeles","gnis:feature_id":"2105728","gnis:import_uuid":"57871b70-0100-4405-bb30-88b2e001a944","gnis:reviewed":"no","name":"Beverly Hills Fire Station 2","source":"USGS Geonames"},"geometry":{"type":"Point","coordinates":[-118.4115451,34.0904136]},"id":"node/368168346"},{"type":"Feature","properties":{"@id":"node/368168349","addr:state":"CA","amenity":"fire_station","ele":"216","gnis:county_name":"Los Angeles","gnis:feature_id":"2105725","gnis:import_uuid":"57871b70-0100-4405-bb30-88b2e001a944","gnis:reviewed":"no","name":"Los Angeles County Fire Department Station #187","ref":"LAC187","source":"USGS Geonames"},"geometry":{"type":"Point","coordinates":[-117.8082732,34.0462916]},"id":"node/368168349"},{"type":"Feature","properties":{"@id":"node/368168350","addr:state":"CA","amenity":"fire_station","ele":"333","gnis:county_name":"Los Angeles","gnis:feature_id":"2105724","gnis:import_uuid":"57871b70-0100-4405-bb30-88b2e001a944","gnis:reviewed":"no","name":"Los Angeles County Fire Department Station #186","ref":"LAC186","source":"USGS Geonames"},"geometry":{"type":"Point","coordinates":[-117.7452617,34.0958866]},"id":"node/368168350"},{"type":"Feature","properties":{"@id":"node/368168351","addr:state":"CA","amenity":"fire_station","ele":"245","gnis:county_name":"Los Angeles","gnis:feature_id":"2105723","gnis:import_uuid":"57871b70-0100-4405-bb30-88b2e001a944","gnis:reviewed":"no","name":"Los Angeles County Fire Department Station #185","ref":"LAC185","source":"USGS Geonames"},"geometry":{"type":"Point","coordinates":[-117.7379035,34.0374887]},"id":"node/368168351"},{"type":"Feature","properties":{"@id":"node/368168352","addr:state":"CA","amenity":"fire_station","ele":"246","gnis:county_name":"Los Angeles","gnis:feature_id":"2105722","gnis:import_uuid":"57871b70-0100-4405-bb30-88b2e001a944","gnis:reviewed":"no","name":"Los Angeles County Fire Department Station #184","ref":"LAC184","source":"USGS Geonames"},"geometry":{"type":"Point","coordinates":[-117.7848811,34.0629968]},"id":"node/368168352"},{"type":"Feature","properties":{"@id":"node/368168353","addr:state":"CA","amenity":"fire_station","ele":"33","gnis:county_name":"Los Angeles","gnis:feature_id":"2105736","gnis:import_uuid":"57871b70-0100-4405-bb30-88b2e001a944","gnis:reviewed":"no","name":"Downey Fire Station 1","source":"USGS Geonames"},"geometry":{"type":"Point","coordinates":[-118.1472222,33.9297222]},"id":"node/368168353"},{"type":"Feature","properties":{"@id":"node/368168354","addr:state":"CA","amenity":"fire_station","ele":"29","gnis:county_name":"Los Angeles","gnis:feature_id":"2105737","gnis:import_uuid":"57871b70-0100-4405-bb30-88b2e001a944","gnis:reviewed":"no","name":"Downey Fire Station 2","source":"USGS Geonames"},"geometry":{"type":"Point","coordinates":[-118.1233333,33.9166667]},"id":"node/368168354"},{"type":"Feature","properties":{"@id":"node/368168355","addr:state":"CA","amenity":"fire_station","ele":"18","gnis:county_name":"Los Angeles","gnis:feature_id":"2105734","gnis:import_uuid":"57871b70-0100-4405-bb30-88b2e001a944","gnis:reviewed":"no","name":"Culver City Fire Station 2","source":"USGS Geonames"},"geometry":{"type":"Point","coordinates":[-118.4138889,34.0052778]},"id":"node/368168355"},{"type":"Feature","properties":{"@id":"node/368168357","addr:state":"CA","amenity":"fire_station","ele":"33","gnis:county_name":"Los Angeles","gnis:feature_id":"2105732","gnis:import_uuid":"57871b70-0100-4405-bb30-88b2e001a944","gnis:reviewed":"no","name":"Compton Fire Station 4","source":"USGS Geonames"},"geometry":{"type":"Point","coordinates":[-118.2397222,33.8758333]},"id":"node/368168357"},{"type":"Feature","properties":{"@id":"node/368168358","addr:state":"CA","amenity":"fire_station","ele":"30","gnis:county_name":"Los Angeles","gnis:feature_id":"2105733","gnis:import_uuid":"57871b70-0100-4405-bb30-88b2e001a944","gnis:reviewed":"no","name":"Culver City Fire Station 1","source":"USGS Geonames"},"geometry":{"type":"Point","coordinates":[-118.3952778,34.0225]},"id":"node/368168358"},{"type":"Feature","properties":{"@id":"node/368168360","addr:state":"CA","amenity":"fire_station","ele":"26","gnis:county_name":"Los Angeles","gnis:feature_id":"2105731","gnis:import_uuid":"57871b70-0100-4405-bb30-88b2e001a944","gnis:reviewed":"no","name":"Compton Fire Station 3","source":"USGS Geonames"},"geometry":{"type":"Point","coordinates":[-118.2455556,33.9036111]},"id":"node/368168360"},{"type":"Feature","properties":{"@id":"node/368168361","addr:state":"CA","amenity":"fire_station","ele":"3","gnis:county_name":"Los Angeles","gnis:feature_id":"2105744","gnis:import_uuid":"57871b70-0100-4405-bb30-88b2e001a944","gnis:reviewed":"no","name":"Long Beach Fire Station 8","source":"USGS Geonames"},"geometry":{"type":"Point","coordinates":[-118.1308279,33.7587793]},"id":"node/368168361"},{"type":"Feature","properties":{"@id":"node/368168367","addr:state":"CA","amenity":"fire_station","ele":"40","gnis:county_name":"Los Angeles","gnis:feature_id":"2105738","gnis:import_uuid":"57871b70-0100-4405-bb30-88b2e001a944","gnis:reviewed":"no","name":"Downey Fire Station 3","source":"USGS Geonames"},"geometry":{"type":"Point","coordinates":[-118.1283105,33.9553257]},"id":"node/368168367"},{"type":"Feature","properties":{"@id":"node/368168384","addr:state":"CA","amenity":"fire_station","ele":"173","gnis:county_name":"Los Angeles","gnis:feature_id":"2105614","gnis:import_uuid":"57871b70-0100-4405-bb30-88b2e001a944","gnis:reviewed":"no","name":"Los Angeles County Fire Department Headquarters","ref":"LAC HQ","source":"USGS Geonames"},"geometry":{"type":"Point","coordinates":[-118.1719444,34.0516667]},"id":"node/368168384"},{"type":"Feature","properties":{"@id":"node/368168405","addr:state":"CA","amenity":"fire_station","designation":"East Los Angeles Fire Station","ele":"61","gnis:county_name":"Los Angeles","gnis:feature_id":"2105616","gnis:import_uuid":"57871b70-0100-4405-bb30-88b2e001a944","gnis:reviewed":"no","name":"Los Angeles County Fire Department Station #3","ref":"LAC3","source":"USGS Geonames"},"geometry":{"type":"Point","coordinates":[-118.1736285,34.0229993]},"id":"node/368168405"},{"type":"Feature","properties":{"@id":"node/368168406","addr:state":"CA","amenity":"fire_station","designation":"Palos Verdes Fire Station","ele":"63","gnis:county_name":"Los Angeles","gnis:feature_id":"2105615","gnis:import_uuid":"57871b70-0100-4405-bb30-88b2e001a944","gnis:reviewed":"no","name":"Los Angeles County Fire Department Station #2","ref":"LAC2","source":"USGS Geonames"},"geometry":{"type":"Point","coordinates":[-118.3916678,33.7999982]},"id":"node/368168406"},{"type":"Feature","properties":{"@id":"node/368168407","addr:state":"CA","amenity":"fire_station","designation":"San Gabriel Fire Station","ele":"167","gnis:county_name":"Los Angeles","gnis:feature_id":"2105618","gnis:import_uuid":"57871b70-0100-4405-bb30-88b2e001a944","gnis:reviewed":"no","name":"Los Angeles County Fire Department Station #5","ref":"LAC5","source":"USGS Geonames"},"geometry":{"type":"Point","coordinates":[-118.0736098,34.1284054]},"id":"node/368168407"},{"type":"Feature","properties":{"@id":"node/368168408","addr:state":"CA","amenity":"fire_station","designation":"Rosemead Fire Station","ele":"81","gnis:county_name":"Los Angeles","gnis:feature_id":"2105617","gnis:import_uuid":"57871b70-0100-4405-bb30-88b2e001a944","gnis:reviewed":"no","name":"Los Angeles County Fire Department Station #4","ref":"LAC4","source":"USGS Geonames"},"geometry":{"type":"Point","coordinates":[-118.0902197,34.0603037]},"id":"node/368168408"},{"type":"Feature","properties":{"@id":"node/368168410","addr:state":"CA","amenity":"fire_station","designation":"West Hollywood Fire Station","ele":"88","gnis:county_name":"Los Angeles","gnis:feature_id":"2105620","gnis:import_uuid":"57871b70-0100-4405-bb30-88b2e001a944","gnis:reviewed":"no","name":"Los Angeles County Fire Department Station #8","ref":"LAC8","source":"USGS Geonames"},"geometry":{"type":"Point","coordinates":[-118.3564966,34.0910321]},"id":"node/368168410"},{"type":"Feature","properties":{"@id":"node/368168411","addr:state":"CA","amenity":"fire_station","designation":"Carson Fire Station","ele":"8","gnis:county_name":"Los Angeles","gnis:feature_id":"2105621","gnis:import_uuid":"57871b70-0100-4405-bb30-88b2e001a944","gnis:reviewed":"no","name":"Los Angeles County Fire Department Station #10","ref":"LAC10","source":"USGS Geonames"},"geometry":{"type":"Point","coordinates":[-118.2354912,33.8464335]},"id":"node/368168411"},{"type":"Feature","properties":{"@id":"node/368168412","addr:state":"CA","amenity":"fire_station","ele":"67","gnis:county_name":"Los Angeles","gnis:feature_id":"2105622","gnis:import_uuid":"57871b70-0100-4405-bb30-88b2e001a944","gnis:reviewed":"no","name":"Los Angeles County Fire Department Station #14","ref":"LAC14","source":"USGS Geonames"},"geometry":{"type":"Point","coordinates":[-118.3005667,33.9385003]},"id":"node/368168412"},{"type":"Feature","properties":{"@id":"node/368168413","addr:state":"CA","amenity":"fire_station","ele":"42","gnis:county_name":"Los Angeles","gnis:feature_id":"2105623","gnis:import_uuid":"57871b70-0100-4405-bb30-88b2e001a944","gnis:reviewed":"no","name":"Los Angeles County Fire Department Station #16","ref":"LAC16","source":"USGS Geonames"},"geometry":{"type":"Point","coordinates":[-118.2473946,33.9662446]},"id":"node/368168413"},{"type":"Feature","properties":{"@id":"node/368168414","addr:state":"CA","amenity":"fire_station","ele":"23","gnis:county_name":"Los Angeles","gnis:feature_id":"2105624","gnis:import_uuid":"57871b70-0100-4405-bb30-88b2e001a944","gnis:reviewed":"no","name":"Los Angeles County Fire Department Station #18","ref":"LAC18","source":"USGS Geonames"},"geometry":{"type":"Point","coordinates":[-118.3556216,33.9379394]},"id":"node/368168414"},{"type":"Feature","properties":{"@id":"node/368168415","addr:state":"CA","amenity":"fire_station","ele":"444","gnis:county_name":"Los Angeles","gnis:feature_id":"2105625","gnis:import_uuid":"57871b70-0100-4405-bb30-88b2e001a944","gnis:reviewed":"no","name":"Los Angeles County Fire Department Station #19","ref":"LAC19","source":"USGS Geonames"},"geometry":{"type":"Point","coordinates":[-118.2143908,34.211278]},"id":"node/368168415"},{"type":"Feature","properties":{"@id":"node/368168416","addr:state":"CA","amenity":"fire_station","ele":"19","gnis:county_name":"Los Angeles","gnis:feature_id":"2105626","gnis:import_uuid":"57871b70-0100-4405-bb30-88b2e001a944","gnis:reviewed":"no","name":"Los Angeles County Fire Department Station #21","ref":"LAC21","source":"USGS Geonames"},"geometry":{"type":"Point","coordinates":[-118.3511318,33.8979864]},"id":"node/368168416"},{"type":"Feature","properties":{"@id":"node/368168417","addr:state":"CA","amenity":"fire_station","ele":"58","gnis:county_name":"Los Angeles","gnis:feature_id":"2105627","gnis:import_uuid":"57871b70-0100-4405-bb30-88b2e001a944","gnis:reviewed":"no","name":"Los Angeles County Fire Department Station #22","ref":"LAC22","source":"USGS Geonames"},"geometry":{"type":"Point","coordinates":[-118.1469242,34.0173402]},"id":"node/368168417"},{"type":"Feature","properties":{"@id":"node/368168419","addr:state":"CA","amenity":"fire_station","ele":"47","gnis:county_name":"Los Angeles","gnis:feature_id":"2105629","gnis:import_uuid":"57871b70-0100-4405-bb30-88b2e001a944","gnis:reviewed":"no","name":"Los Angeles County Fire Department Station #25","ref":"LAC25","source":"USGS Geonames"},"geometry":{"type":"Point","coordinates":[-118.1004148,33.9698349]},"id":"node/368168419"},{"type":"Feature","properties":{"@id":"node/368168420","addr:state":"CA","amenity":"fire_station","ele":"99","gnis:county_name":"Los Angeles","gnis:feature_id":"2105631","gnis:import_uuid":"57871b70-0100-4405-bb30-88b2e001a944","gnis:reviewed":"no","name":"Los Angeles County Fire Department Station #26","ref":"LAC26","source":"USGS Geonames"},"geometry":{"type":"Point","coordinates":[-117.9512448,34.0363256]},"id":"node/368168420"},{"type":"Feature","properties":{"@id":"node/368168421","addr:housenumber":"14334","addr:postcode":"91706","addr:state":"CA","addr:street":"Los Angeles Street","amenity":"fire_station","ele":"118","gnis:county_name":"Los Angeles","gnis:feature_id":"2105633","gnis:import_uuid":"57871b70-0100-4405-bb30-88b2e001a944","gnis:reviewed":"no","name":"Los Angeles County Fire Department Station #29","phone":"(626) 337-0525","ref":"LAC29","source":"USGS Geonames","website":"https://www.fire.lacounty.gov/"},"geometry":{"type":"Point","coordinates":[-117.9618412,34.0921034]},"id":"node/368168421"},{"type":"Feature","properties":{"@id":"node/368168424","addr:state":"CA","amenity":"fire_station","ele":"184","gnis:county_name":"Los Angeles","gnis:feature_id":"2105639","gnis:import_uuid":"57871b70-0100-4405-bb30-88b2e001a944","gnis:reviewed":"no","name":"Los Angeles County Fire Department Station #32","ref":"LAC32","source":"USGS Geonames"},"geometry":{"type":"Point","coordinates":[-117.9103689,34.1318284]},"id":"node/368168424"},{"type":"Feature","properties":{"@id":"node/368168439","addr:state":"CA","amenity":"fire_station","ele":"86","gnis:county_name":"Los Angeles","gnis:feature_id":"2105648","gnis:import_uuid":"57871b70-0100-4405-bb30-88b2e001a944","gnis:reviewed":"no","name":"Los Angeles County Fire Department Station #38","ref":"LAC38","source":"USGS Geonames"},"geometry":{"type":"Point","coordinates":[-118.3424228,33.9932982]},"id":"node/368168439"},{"type":"Feature","properties":{"@id":"node/368168462","addr:state":"CA","amenity":"fire_station","ele":"12","gnis:county_name":"Los Angeles","gnis:feature_id":"2105647","gnis:import_uuid":"57871b70-0100-4405-bb30-88b2e001a944","gnis:reviewed":"no","name":"Los Angeles County Fire Department Station #36","ref":"LAC36","source":"USGS Geonames"},"geometry":{"type":"Point","coordinates":[-118.2771023,33.8246776]},"id":"node/368168462"},{"type":"Feature","properties":{"@id":"node/368168487","addr:state":"CA","amenity":"fire_station","ele":"17","gnis:county_name":"Los Angeles","gnis:feature_id":"2105646","gnis:import_uuid":"57871b70-0100-4405-bb30-88b2e001a944","gnis:reviewed":"no","name":"Los Angeles County Fire Department Station #35","ref":"LAC35","source":"USGS Geonames"},"geometry":{"type":"Point","coordinates":[-118.039419,33.8735997]},"id":"node/368168487"},{"type":"Feature","properties":{"@id":"node/368168488","addr:state":"CA","amenity":"fire_station","ele":"10","gnis:county_name":"Los Angeles","gnis:feature_id":"2105643","gnis:import_uuid":"57871b70-0100-4405-bb30-88b2e001a944","gnis:reviewed":"no","name":"Los Angeles County Fire Department Station #34","ref":"LAC34","source":"USGS Geonames"},"geometry":{"type":"Point","coordinates":[-118.0723251,33.836982]},"id":"node/368168488"},{"type":"Feature","properties":{"@id":"node/368168489","addr:state":"CA","amenity":"fire_station","ele":"104","gnis:county_name":"Los Angeles","gnis:feature_id":"2105657","gnis:import_uuid":"57871b70-0100-4405-bb30-88b2e001a944","gnis:reviewed":"no","name":"Los Angeles County Fire Department Station #43","ref":"LAC43","source":"USGS Geonames"},"geometry":{"type":"Point","coordinates":[-117.955715,34.0103324]},"id":"node/368168489"},{"type":"Feature","properties":{"@id":"node/368168491","addr:state":"CA","amenity":"fire_station","ele":"55","gnis:county_name":"Los Angeles","gnis:feature_id":"2105655","gnis:import_uuid":"57871b70-0100-4405-bb30-88b2e001a944","gnis:reviewed":"no","name":"Los Angeles County Fire Department Station #40","ref":"LAC40","source":"USGS Geonames"},"geometry":{"type":"Point","coordinates":[-118.0784221,34.0014492]},"id":"node/368168491"},{"type":"Feature","properties":{"@id":"node/368168492","addr:state":"CA","amenity":"fire_station","ele":"94","gnis:county_name":"Los Angeles","gnis:feature_id":"2105654","gnis:import_uuid":"57871b70-0100-4405-bb30-88b2e001a944","gnis:reviewed":"no","name":"Los Angeles County Fire Department Station #42","ref":"LAC42","source":"USGS Geonames"},"geometry":{"type":"Point","coordinates":[-118.0665897,34.0813431]},"id":"node/368168492"},{"type":"Feature","properties":{"@id":"node/368168496","addr:state":"CA","amenity":"fire_station","ele":"168","gnis:county_name":"Los Angeles","gnis:feature_id":"2105658","gnis:import_uuid":"57871b70-0100-4405-bb30-88b2e001a944","gnis:reviewed":"no","name":"Los Angeles County Fire Department Station #44","ref":"LAC44","source":"USGS Geonames"},"geometry":{"type":"Point","coordinates":[-117.9669267,34.1407134]},"id":"node/368168496"},{"type":"Feature","properties":{"@id":"node/368168498","addr:state":"CA","amenity":"fire_station","ele":"74","gnis:county_name":"Los Angeles","gnis:feature_id":"2105665","gnis:import_uuid":"57871b70-0100-4405-bb30-88b2e001a944","gnis:reviewed":"no","name":"Los Angeles County Fire Deparment Station #53","ref":"LAC53","source":"USGS Geonames"},"geometry":{"type":"Point","coordinates":[-118.3845929,33.7447917]},"id":"node/368168498"},{"type":"Feature","properties":{"@id":"node/368168501","addr:state":"CA","amenity":"fire_station","ele":"48","gnis:county_name":"Los Angeles","gnis:feature_id":"2105662","gnis:import_uuid":"57871b70-0100-4405-bb30-88b2e001a944","gnis:reviewed":"no","name":"Los Angeles County Fire Department Station #49","ref":"LAC49","source":"USGS Geonames"},"geometry":{"type":"Point","coordinates":[-118.0113709,33.9050612]},"id":"node/368168501"},{"type":"Feature","properties":{"@id":"node/368168502","addr:state":"CA","amenity":"fire_station","ele":"28","gnis:county_name":"Los Angeles","gnis:feature_id":"2105668","gnis:import_uuid":"57871b70-0100-4405-bb30-88b2e001a944","gnis:reviewed":"no","name":"Los Angeles County Fire Department Station #57","ref":"LAC57","source":"USGS Geonames"},"geometry":{"type":"Point","coordinates":[-118.1681352,33.9223477]},"id":"node/368168502"},{"type":"Feature","properties":{"@id":"node/368168503","addr:state":"CA","amenity":"fire_station","ele":"80","gnis:county_name":"Los Angeles","gnis:feature_id":"2105669","gnis:import_uuid":"57871b70-0100-4405-bb30-88b2e001a944","gnis:reviewed":"no","name":"Los Angeles County Fire Department Station #58","ref":"LAC58","source":"USGS Geonames"},"geometry":{"type":"Point","coordinates":[-118.3631724,33.9878934]},"id":"node/368168503"},{"type":"Feature","properties":{"@id":"node/368168504","addr:state":"CA","amenity":"fire_station","ele":"33","gnis:county_name":"Los Angeles","gnis:feature_id":"2105666","gnis:import_uuid":"57871b70-0100-4405-bb30-88b2e001a944","gnis:reviewed":"no","name":"Los Angeles County Fire Department Station #54","ref":"LAC54","source":"USGS Geonames"},"geometry":{"type":"Point","coordinates":[-118.1838597,33.9484865]},"id":"node/368168504"},{"type":"Feature","properties":{"@id":"node/368168505","addr:state":"CA","amenity":"fire_station","ele":"386","gnis:county_name":"Los Angeles","gnis:feature_id":"2105667","gnis:import_uuid":"57871b70-0100-4405-bb30-88b2e001a944","gnis:reviewed":"no","name":"Los Angeles County Fire Department Station #56","ref":"LAC56","source":"USGS Geonames"},"geometry":{"type":"Point","coordinates":[-118.3540713,33.7566942]},"id":"node/368168505"},{"type":"Feature","properties":{"@id":"node/368168506","addr:state":"CA","amenity":"fire_station","ele":"493","gnis:county_name":"Los Angeles","gnis:feature_id":"2105672","gnis:import_uuid":"57871b70-0100-4405-bb30-88b2e001a944","gnis:reviewed":"no","name":"Los Angeles County Fire Department Station #62","ref":"LAC62","source":"USGS Geonames"},"geometry":{"type":"Point","coordinates":[-117.7077502,34.1363179]},"id":"node/368168506"},{"type":"Feature","properties":{"@id":"node/368168509","addr:state":"CA","amenity":"fire_station","ele":"487","gnis:county_name":"Los Angeles","gnis:feature_id":"2105673","gnis:import_uuid":"57871b70-0100-4405-bb30-88b2e001a944","gnis:reviewed":"no","name":"Los Angeles County Department Station #63","ref":"LAC63","source":"USGS Geonames"},"geometry":{"type":"Point","coordinates":[-118.2440444,34.2278574]},"id":"node/368168509"},{"type":"Feature","properties":{"@id":"node/368168510","addr:state":"CA","amenity":"fire_station","ele":"34","gnis:county_name":"Los Angeles","gnis:feature_id":"2105670","gnis:import_uuid":"57871b70-0100-4405-bb30-88b2e001a944","gnis:reviewed":"no","name":"Los Angeles County Fire Department Station #60","ref":"LAC60","source":"USGS Geonames"},"geometry":{"type":"Point","coordinates":[-118.1641747,33.8061241]},"id":"node/368168510"},{"type":"Feature","properties":{"@id":"node/368168511","addr:state":"CA","amenity":"fire_station","ele":"175","gnis:county_name":"Los Angeles","gnis:feature_id":"2105671","gnis:import_uuid":"57871b70-0100-4405-bb30-88b2e001a944","gnis:reviewed":"no","name":"Los Angeles County Fire Department Station #61","ref":"LAC61","source":"USGS Geonames"},"geometry":{"type":"Point","coordinates":[-117.8656466,34.0207773]},"id":"node/368168511"},{"type":"Feature","properties":{"@id":"node/368168512","addr:state":"CA","amenity":"fire_station","ele":"353","gnis:county_name":"Los Angeles","gnis:feature_id":"2105676","gnis:import_uuid":"57871b70-0100-4405-bb30-88b2e001a944","gnis:reviewed":"no","name":"Los Angeles County Fire Department Station #82","ref":"LAC82","source":"USGS Geonames"},"geometry":{"type":"Point","coordinates":[-118.1863889,34.1975]},"id":"node/368168512"},{"type":"Feature","properties":{"@id":"node/368168514","addr:state":"CA","amenity":"fire_station","ele":"216","gnis:county_name":"Los Angeles","gnis:feature_id":"2105677","gnis:import_uuid":"57871b70-0100-4405-bb30-88b2e001a944","gnis:reviewed":"no","name":"Los Angeles County Fire Department Station #83","ref":"LAC83","source":"USGS Geonames"},"geometry":{"type":"Point","coordinates":[-118.3250461,33.7491809]},"id":"node/368168514"},{"type":"Feature","properties":{"@id":"node/368168519","addr:housenumber":"2764","addr:postcode":"91107","addr:state":"CA","addr:street":"E. Eaton Canyon Drive","amenity":"fire_station","ele":"290","gnis:county_name":"Los Angeles","gnis:feature_id":"2105675","gnis:import_uuid":"57871b70-0100-4405-bb30-88b2e001a944","gnis:reviewed":"no","name":"Los Angeles County Fire Department Station #66","ref":"LAC66","source":"USGS Geonames"},"geometry":{"type":"Point","coordinates":[-118.0937844,34.174449]},"id":"node/368168519"},{"type":"Feature","properties":{"@id":"node/368168522","addr:state":"CA","amenity":"fire_station","ele":"76","gnis:county_name":"Los Angeles","gnis:feature_id":"2105680","gnis:import_uuid":"57871b70-0100-4405-bb30-88b2e001a944","gnis:reviewed":"no","name":"Los Angeles County Fire Department Station #90","ref":"LAC90","source":"USGS Geonames"},"geometry":{"type":"Point","coordinates":[-118.049355,34.0521183]},"id":"node/368168522"},{"type":"Feature","properties":{"@id":"node/368168527","addr:state":"CA","amenity":"fire_station","ele":"233","gnis:county_name":"Los Angeles","gnis:feature_id":"2105678","gnis:import_uuid":"57871b70-0100-4405-bb30-88b2e001a944","gnis:reviewed":"no","name":"Los Angeles County Fire Department Station #85","ref":"LAC85","source":"USGS Geonames"},"geometry":{"type":"Point","coordinates":[-117.8511111,34.1136111]},"id":"node/368168527"},{"type":"Feature","properties":{"@id":"node/368168530","addr:state":"CA","amenity":"fire_station","ele":"287","gnis:county_name":"Los Angeles","gnis:feature_id":"2105679","gnis:import_uuid":"57871b70-0100-4405-bb30-88b2e001a944","gnis:reviewed":"no","name":"Los Angeles County Fire Department Station #86","ref":"LAC86","source":"USGS Geonames"},"geometry":{"type":"Point","coordinates":[-117.8201722,34.1282186]},"id":"node/368168530"},{"type":"Feature","properties":{"@id":"node/368168532","addr:state":"CA","amenity":"fire_station","ele":"51","gnis:county_name":"Santa Clara","gnis:feature_id":"2107866","gnis:import_uuid":"57871b70-0100-4405-bb30-88b2e001a944","gnis:reviewed":"no","name":"San Jose Fire Station 12","source":"USGS Geonames"},"geometry":{"type":"Point","coordinates":[-121.8311111,37.2419444]},"id":"node/368168532"},{"type":"Feature","properties":{"@id":"node/368168535","addr:state":"CA","amenity":"fire_station","ele":"140","gnis:county_name":"Santa Clara","gnis:feature_id":"2107865","gnis:import_uuid":"57871b70-0100-4405-bb30-88b2e001a944","gnis:reviewed":"no","name":"San Jose Fire Station 11","source":"USGS Geonames"},"geometry":{"type":"Point","coordinates":[-121.7638889,37.2902778]},"id":"node/368168535"},{"type":"Feature","properties":{"@id":"node/368168537","addr:state":"CA","amenity":"fire_station","created_by":"Potlatch 0.10f","ele":"61","gnis:county_name":"Santa Clara","gnis:feature_id":"2107863","gnis:import_uuid":"57871b70-0100-4405-bb30-88b2e001a944","gnis:reviewed":"no","name":"San Jose Fire Station 9","source":"USGS Geonames"},"geometry":{"type":"Point","coordinates":[-121.9163001,37.2634337]},"id":"node/368168537"},{"type":"Feature","properties":{"@id":"node/368168540","addr:state":"CA","amenity":"fire_station","ele":"43","gnis:county_name":"Santa Clara","gnis:feature_id":"2107860","gnis:import_uuid":"57871b70-0100-4405-bb30-88b2e001a944","gnis:reviewed":"no","name":"San Jose Fire Station 6","source":"USGS Geonames"},"geometry":{"type":"Point","coordinates":[-121.9038889,37.3013889]},"id":"node/368168540"},{"type":"Feature","properties":{"@id":"node/368168543","addr:state":"CA","amenity":"fire_station","ele":"32","gnis:county_name":"Santa Clara","gnis:feature_id":"2107857","gnis:import_uuid":"57871b70-0100-4405-bb30-88b2e001a944","gnis:reviewed":"no","name":"San Jose Fire Station 3","source":"USGS Geonames"},"geometry":{"type":"Point","coordinates":[-121.8783333,37.3233333]},"id":"node/368168543"},{"type":"Feature","properties":{"@id":"node/368168550","addr:city":"Campbell","addr:housenumber":"485","addr:postcode":"95008","addr:state":"CA","addr:street":"West Sunnyoaks Avenue","amenity":"fire_station","ele":"69","gnis:county_name":"Santa Clara","gnis:feature_id":"2107739","gnis:import_uuid":"57871b70-0100-4405-bb30-88b2e001a944","gnis:reviewed":"no","name":"Sunnyoaks Fire Station","operator":"Santa Clara County Fire Department","source":"USGS Geonames"},"geometry":{"type":"Point","coordinates":[-121.9584451,37.2724608]},"id":"node/368168550"},{"type":"Feature","properties":{"@id":"node/368168551","addr:city":"Saratoga","addr:housenumber":"19800","addr:postcode":"95070","addr:state":"CA","addr:street":"Cox Avenue","amenity":"fire_station","ele":"99","gnis:county_name":"Santa Clara","gnis:feature_id":"2107741","gnis:import_uuid":"57871b70-0100-4405-bb30-88b2e001a944","gnis:reviewed":"no","name":"West Valley Fire Station","operator":"Santa Clara County Fire Department","source":"USGS Geonames"},"geometry":{"type":"Point","coordinates":[-122.01947,37.2826583]},"id":"node/368168551"},{"type":"Feature","properties":{"@id":"node/368168552","addr:city":"Campbell","addr:housenumber":"123","addr:postcode":"95008","addr:state":"CA","addr:street":"Union Avenue","amenity":"fire_station","ele":"60","gnis:county_name":"Santa Clara","gnis:feature_id":"2107736","gnis:import_uuid":"57871b70-0100-4405-bb30-88b2e001a944","gnis:reviewed":"no","name":"Campbell Fire Station","operator":"Santa Clara County Fire Department","source":"USGS Geonames"},"geometry":{"type":"Point","coordinates":[-121.9358378,37.28546]},"id":"node/368168552"},{"type":"Feature","properties":{"@id":"node/368168554","addr:state":"CA","amenity":"fire_station","ele":"8","gnis:county_name":"Alameda","gnis:feature_id":"2107515","gnis:import_uuid":"57871b70-0100-4405-bb30-88b2e001a944","gnis:reviewed":"no","name":"Newark Fire Station 2","source":"USGS Geonames"},"geometry":{"type":"Point","coordinates":[-122.0403282,37.5460676]},"id":"node/368168554"},{"type":"Feature","properties":{"@id":"node/368168555","addr:state":"CA","amenity":"fire_station","ele":"7","gnis:county_name":"Alameda","gnis:feature_id":"2107516","gnis:import_uuid":"57871b70-0100-4405-bb30-88b2e001a944","gnis:reviewed":"no","name":"Newark Fire Station 3","source":"USGS Geonames"},"geometry":{"type":"Point","coordinates":[-122.0097222,37.5202778]},"id":"node/368168555"},{"type":"Feature","properties":{"@id":"node/368168556","addr:state":"CA","amenity":"fire_station","ele":"2","gnis:county_name":"Alameda","gnis:feature_id":"2107513","gnis:import_uuid":"57871b70-0100-4405-bb30-88b2e001a944","gnis:reviewed":"no","name":"Alameda Fire Station 5","source":"USGS Geonames"},"geometry":{"type":"Point","coordinates":[-122.3029966,37.7845455]},"id":"node/368168556"},{"type":"Feature","properties":{"@id":"node/368168557","addr:state":"CA","amenity":"fire_station","ele":"5","gnis:county_name":"Alameda","gnis:feature_id":"2107514","gnis:import_uuid":"57871b70-0100-4405-bb30-88b2e001a944","gnis:reviewed":"no","name":"Newark Fire Station 1","source":"USGS Geonames"},"geometry":{"type":"Point","coordinates":[-122.042189,37.5284918]},"id":"node/368168557"},{"type":"Feature","properties":{"@id":"node/368168558","addr:state":"CA","amenity":"fire_station","ele":"9","gnis:county_name":"Alameda","gnis:feature_id":"2107511","gnis:import_uuid":"57871b70-0100-4405-bb30-88b2e001a944","gnis:reviewed":"no","name":"Alameda Fire Station 1","source":"USGS Geonames"},"geometry":{"type":"Point","coordinates":[-122.2438889,37.7625]},"id":"node/368168558"},{"type":"Feature","properties":{"@id":"node/368168569","addr:state":"CA","amenity":"fire_station","ele":"6","gnis:county_name":"Alameda","gnis:feature_id":"2107512","gnis:import_uuid":"57871b70-0100-4405-bb30-88b2e001a944","gnis:reviewed":"no","name":"Alameda Fire Station 2","source":"USGS Geonames"},"geometry":{"type":"Point","coordinates":[-122.2777886,37.7763864]},"id":"node/368168569"},{"type":"Feature","properties":{"@id":"node/368168582","addr:state":"CA","amenity":"fire_station","ele":"277","gnis:county_name":"Alameda","gnis:feature_id":"2107509","gnis:import_uuid":"57871b70-0100-4405-bb30-88b2e001a944","gnis:reviewed":"no","name":"Hayward Fire Station  Number 8","source":"USGS Geonames"},"geometry":{"type":"Point","coordinates":[-122.0300326,37.6750833]},"id":"node/368168582"},{"type":"Feature","properties":{"@id":"node/368168603","addr:state":"CA","amenity":"fire_station","ele":"12","gnis:county_name":"Alameda","gnis:feature_id":"2107507","gnis:import_uuid":"57871b70-0100-4405-bb30-88b2e001a944","gnis:reviewed":"no","name":"Hayward Fire Station Number 6","source":"USGS Geonames"},"geometry":{"type":"Point","coordinates":[-122.1188889,37.6536111]},"id":"node/368168603"},{"type":"Feature","properties":{"@id":"node/368168614","addr:state":"CA","amenity":"fire_station","ele":"8","gnis:county_name":"Alameda","gnis:feature_id":"2107508","gnis:import_uuid":"57871b70-0100-4405-bb30-88b2e001a944","gnis:reviewed":"no","name":"Hayward Fire Station Number 7","source":"USGS Geonames"},"geometry":{"type":"Point","coordinates":[-122.0641667,37.6327778]},"id":"node/368168614"},{"type":"Feature","properties":{"@id":"node/368168622","addr:state":"CA","amenity":"fire_station","ele":"299","gnis:county_name":"Los Angeles","gnis:feature_id":"239995","gnis:import_uuid":"57871b70-0100-4405-bb30-88b2e001a944","gnis:reviewed":"no","name":"Los Angeles County Fire Department Station #68","ref":"LAC68","source":"USGS Geonames"},"geometry":{"type":"Point","coordinates":[-118.6523626,34.1517443]},"id":"node/368168622"},{"type":"Feature","properties":{"@id":"node/368168623","addr:state":"CA","amenity":"fire_station","ele":"618","gnis:county_name":"San Diego","gnis:feature_id":"238553","gnis:import_uuid":"57871b70-0100-4405-bb30-88b2e001a944","gnis:reviewed":"no","name":"Alpine Fire Station","source":"USGS Geonames"},"geometry":{"type":"Point","coordinates":[-116.7405768,32.8333856]},"id":"node/368168623"},{"type":"Feature","properties":{"@id":"node/368168624","addr:state":"CA","amenity":"fire_station","ele":"16","gnis:county_name":"San Mateo","gnis:feature_id":"2107893","gnis:import_uuid":"57871b70-0100-4405-bb30-88b2e001a944","gnis:reviewed":"no","name":"Menlo Park Fire District Station 3","source":"USGS Geonames"},"geometry":{"type":"Point","coordinates":[-122.2066667,37.4625]},"id":"node/368168624"},{"type":"Feature","properties":{"@id":"node/368168625","addr:state":"CA","amenity":"fire_station","ele":"6","gnis:county_name":"San Mateo","gnis:feature_id":"2107892","gnis:import_uuid":"57871b70-0100-4405-bb30-88b2e001a944","gnis:reviewed":"no","name":"Menlo Park Fire District Station 2","source":"USGS Geonames"},"geometry":{"type":"Point","coordinates":[-122.1410656,37.4682649]},"id":"node/368168625"},{"type":"Feature","properties":{"@id":"node/368168627","addr:state":"CA","amenity":"fire_station","ele":"39","gnis:county_name":"San Mateo","gnis:feature_id":"2107894","gnis:import_uuid":"57871b70-0100-4405-bb30-88b2e001a944","gnis:reviewed":"no","name":"Menlo Park Fire District Station 4","source":"USGS Geonames"},"geometry":{"type":"Point","coordinates":[-122.2063889,37.4338889]},"id":"node/368168627"},{"type":"Feature","properties":{"@id":"node/368168629","addr:state":"CA","amenity":"fire_station","ele":"80","gnis:county_name":"San Mateo","gnis:feature_id":"2107887","gnis:import_uuid":"57871b70-0100-4405-bb30-88b2e001a944","gnis:reviewed":"no","name":"Fire Station 10","source":"USGS Geonames"},"geometry":{"type":"Point","coordinates":[-122.2541667,37.4652778]},"id":"node/368168629"},{"type":"Feature","properties":{"@id":"node/368168631","addr:state":"CA","amenity":"fire_station","ele":"11","gnis:county_name":"San Mateo","gnis:feature_id":"2107889","gnis:import_uuid":"57871b70-0100-4405-bb30-88b2e001a944","gnis:reviewed":"no","name":"Fire Station 12","source":"USGS Geonames"},"geometry":{"type":"Point","coordinates":[-122.2394444,37.475]},"id":"node/368168631"},{"type":"Feature","properties":{"@id":"node/368168639","addr:state":"CA","amenity":"fire_station","ele":"112","gnis:county_name":"Santa Clara","gnis:feature_id":"2107882","gnis:import_uuid":"57871b70-0100-4405-bb30-88b2e001a944","gnis:reviewed":"no","name":"San Jose Fire Station 28","source":"USGS Geonames"},"geometry":{"type":"Point","coordinates":[-121.8247169,37.199521]},"id":"node/368168639"},{"type":"Feature","properties":{"@id":"node/368168641","addr:state":"CA","amenity":"fire_station","ele":"73","gnis:county_name":"Santa Clara","gnis:feature_id":"2107876","gnis:import_uuid":"57871b70-0100-4405-bb30-88b2e001a944","gnis:reviewed":"no","name":"San Jose Fire Station 22","source":"USGS Geonames"},"geometry":{"type":"Point","coordinates":[-121.8676792,37.2220581]},"id":"node/368168641"},{"type":"Feature","properties":{"@id":"node/368168642","addr:state":"CA","amenity":"fire_station","ele":"26","gnis:county_name":"Santa Clara","gnis:feature_id":"2107877","gnis:import_uuid":"57871b70-0100-4405-bb30-88b2e001a944","gnis:reviewed":"no","name":"San Jose Fire Station 23","source":"USGS Geonames"},"geometry":{"type":"Point","coordinates":[-121.8791667,37.4016667]},"id":"node/368168642"},{"type":"Feature","properties":{"@id":"node/368168645","addr:state":"CA","amenity":"fire_station","ele":"55","gnis:county_name":"Santa Clara","gnis:feature_id":"2107872","gnis:import_uuid":"57871b70-0100-4405-bb30-88b2e001a944","gnis:reviewed":"no","name":"San Jose Fire Station 18","source":"USGS Geonames"},"geometry":{"type":"Point","coordinates":[-121.8288889,37.2730556]},"id":"node/368168645"},{"type":"Feature","properties":{"@id":"node/368168646","addr:state":"CA","amenity":"fire_station","ele":"62","gnis:county_name":"Santa Clara","gnis:feature_id":"2107873","gnis:import_uuid":"57871b70-0100-4405-bb30-88b2e001a944","gnis:reviewed":"no","name":"San Jose Fire Station 19","source":"USGS Geonames"},"geometry":{"type":"Point","coordinates":[-121.8431858,37.3914422]},"id":"node/368168646"},{"type":"Feature","properties":{"@id":"node/368168650","addr:city":"San Jose","addr:housenumber":"1201","addr:postcode":"95117","addr:state":"CA","addr:street":"San Tomas Aquino Road","amenity":"fire_station","gnis:feature_id":"2107868","name":"San Jose Fire Station 14","source":"USGS Geonames"},"geometry":{"type":"Point","coordinates":[-121.9798429,37.3024654]},"id":"node/368168650"},{"type":"Feature","properties":{"@id":"node/368168652","addr:state":"CA","amenity":"fire_station","ele":"38","gnis:county_name":"Santa Clara","gnis:feature_id":"2107870","gnis:import_uuid":"57871b70-0100-4405-bb30-88b2e001a944","gnis:reviewed":"no","name":"San Jose Fire Station 16","source":"USGS Geonames"},"geometry":{"type":"Point","coordinates":[-121.8318375,37.3278582]},"id":"node/368168652"},{"type":"Feature","properties":{"@id":"node/368168657","addr:state":"CA","amenity":"fire_station","ele":"77","gnis:county_name":"San Francisco","gnis:feature_id":"2107361","gnis:import_uuid":"57871b70-0100-4405-bb30-88b2e001a944","gnis:reviewed":"no","name":"San Francisco Fire Station 32","source":"USGS Geonames"},"geometry":{"type":"Point","coordinates":[-122.4213889,37.7363889]},"id":"node/368168657"},{"type":"Feature","properties":{"@id":"node/368168698","addr:state":"CA","amenity":"fire_station","ele":"1","gnis:county_name":"Los Angeles","gnis:feature_id":"2105756","gnis:import_uuid":"57871b70-0100-4405-bb30-88b2e001a944","gnis:reviewed":"no","name":"Long Beach Fire Station 21","source":"USGS Geonames"},"geometry":{"type":"Point","coordinates":[-118.1137068,33.7507149]},"id":"node/368168698"},{"type":"Feature","properties":{"@id":"node/368168702","addr:state":"CA","amenity":"fire_station","ele":"2","gnis:county_name":"Solano","gnis:feature_id":"2107330","gnis:import_uuid":"57871b70-0100-4405-bb30-88b2e001a944","gnis:reviewed":"no","name":"Vallejo Fire Station 3","source":"USGS Geonames"},"geometry":{"type":"Point","coordinates":[-122.2530556,38.1227778]},"id":"node/368168702"},{"type":"Feature","properties":{"@id":"node/368168703","addr:state":"CA","amenity":"fire_station","ele":"14","gnis:county_name":"Solano","gnis:feature_id":"2107331","gnis:import_uuid":"57871b70-0100-4405-bb30-88b2e001a944","gnis:reviewed":"no","name":"Vallejo Fire Station 4","source":"USGS Geonames"},"geometry":{"type":"Point","coordinates":[-122.2181973,38.1041724]},"id":"node/368168703"},{"type":"Feature","properties":{"@id":"node/368168704","addr:state":"CA","amenity":"fire_station","ele":"6","gnis:county_name":"Los Angeles","gnis:feature_id":"2105758","gnis:import_uuid":"57871b70-0100-4405-bb30-88b2e001a944","gnis:reviewed":"no","name":"Long Beach Fire Station 24","source":"USGS Geonames"},"geometry":{"type":"Point","coordinates":[-118.2216667,33.7563889]},"id":"node/368168704"},{"type":"Feature","properties":{"@id":"node/368168705","addr:state":"CA","amenity":"fire_station","ele":"29","gnis:county_name":"Los Angeles","gnis:feature_id":"2105759","gnis:import_uuid":"57871b70-0100-4405-bb30-88b2e001a944","gnis:reviewed":"no","name":"Santa Monica Fire Station 1","source":"USGS Geonames"},"geometry":{"type":"Point","coordinates":[-118.4917042,34.0178482]},"id":"node/368168705"},{"type":"Feature","properties":{"@id":"node/368168706","addr:state":"CA","amenity":"fire_station","ele":"17","gnis:county_name":"Los Angeles","gnis:feature_id":"2105748","gnis:import_uuid":"57871b70-0100-4405-bb30-88b2e001a944","gnis:reviewed":"no","name":"Long Beach Fire Station 12","source":"USGS Geonames"},"geometry":{"type":"Point","coordinates":[-118.1752778,33.8730556]},"id":"node/368168706"},{"type":"Feature","properties":{"@id":"node/368168707","addr:state":"CA","amenity":"fire_station","ele":"6","gnis:county_name":"Los Angeles","gnis:feature_id":"2105749","gnis:import_uuid":"57871b70-0100-4405-bb30-88b2e001a944","gnis:reviewed":"no","name":"Long Beach Fire Station 13","source":"USGS Geonames"},"geometry":{"type":"Point","coordinates":[-118.2147222,33.8022222]},"id":"node/368168707"},{"type":"Feature","properties":{"@id":"node/368168708","addr:housenumber":"1417","addr:state":"CA","addr:street":"North Peterson Avenue","amenity":"fire_station","ele":"9","gnis:county_name":"Los Angeles","gnis:feature_id":"2105746","gnis:import_uuid":"57871b70-0100-4405-bb30-88b2e001a944","gnis:reviewed":"no","name":"Long Beach Fire Station Number 10","source":"USGS Geonames"},"geometry":{"type":"Point","coordinates":[-118.1733598,33.7848672]},"id":"node/368168708"},{"type":"Feature","properties":{"@id":"node/368168716","addr:state":"CA","amenity":"fire_station","ele":"14","gnis:county_name":"Alameda","gnis:feature_id":"2107500","gnis:import_uuid":"57871b70-0100-4405-bb30-88b2e001a944","gnis:reviewed":"no","name":"Alameda County Fire Department Station 12","source":"USGS Geonames"},"geometry":{"type":"Point","coordinates":[-122.1411111,37.7091667]},"id":"node/368168716"},{"type":"Feature","properties":{"@id":"node/368168717","addr:state":"CA","amenity":"fire_station","ele":"20","gnis:county_name":"Alameda","gnis:feature_id":"2107499","gnis:import_uuid":"57871b70-0100-4405-bb30-88b2e001a944","gnis:reviewed":"no","name":"Alameda County Fire Department Station 9","source":"USGS Geonames"},"geometry":{"type":"Point","coordinates":[-122.1507584,37.7267074]},"id":"node/368168717"},{"type":"Feature","properties":{"@id":"node/368168719","addr:state":"CA","amenity":"fire_station","ele":"7","gnis:county_name":"Alameda","gnis:feature_id":"2107501","gnis:import_uuid":"57871b70-0100-4405-bb30-88b2e001a944","gnis:reviewed":"no","name":"Alameda County Fire Department Station 13","source":"USGS Geonames"},"geometry":{"type":"Point","coordinates":[-122.1394444,37.6883333]},"id":"node/368168719"},{"type":"Feature","properties":{"@id":"node/368168720","addr:state":"CA","amenity":"fire_station","ele":"19","gnis:county_name":"Alameda","gnis:feature_id":"2107504","gnis:import_uuid":"57871b70-0100-4405-bb30-88b2e001a944","gnis:reviewed":"no","name":"Hayward Fire Station Number 3","source":"USGS Geonames"},"geometry":{"type":"Point","coordinates":[-122.0301908,37.6146157]},"id":"node/368168720"},{"type":"Feature","properties":{"@id":"node/368168721","addr:state":"CA","amenity":"fire_station","ele":"15","gnis:county_name":"Alameda","gnis:feature_id":"2107503","gnis:import_uuid":"57871b70-0100-4405-bb30-88b2e001a944","gnis:reviewed":"no","name":"Hayward Fire Station Number 2","source":"USGS Geonames"},"geometry":{"type":"Point","coordinates":[-122.0866667,37.6475]},"id":"node/368168721"},{"type":"Feature","properties":{"@id":"node/368168723","addr:housenumber":"33555","addr:state":"CA","addr:street":"Central Avenue","amenity":"fire_station","ele":"10","gnis:county_name":"Alameda","gnis:feature_id":"2107489","gnis:import_uuid":"57871b70-0100-4405-bb30-88b2e001a944","gnis:reviewed":"no","name":"Union City Fire Station 1","source":"USGS Geonames"},"geometry":{"type":"Point","coordinates":[-122.0390827,37.5942021]},"id":"node/368168723"},{"type":"Feature","properties":{"@id":"node/368168726","addr:state":"CA","amenity":"fire_station","ele":"20","gnis:county_name":"Alameda","gnis:feature_id":"2107491","gnis:import_uuid":"57871b70-0100-4405-bb30-88b2e001a944","gnis:reviewed":"no","name":"Union City Fire Station 3","source":"USGS Geonames"},"geometry":{"type":"Point","coordinates":[-122.0156898,37.5977526]},"id":"node/368168726"},{"type":"Feature","properties":{"@id":"node/368168727","addr:state":"CA","amenity":"fire_station","ele":"19","gnis:county_name":"Alameda","gnis:feature_id":"2107494","gnis:import_uuid":"57871b70-0100-4405-bb30-88b2e001a944","gnis:reviewed":"no","name":"Alameda County Fire Department Station 2","source":"USGS Geonames"},"geometry":{"type":"Point","coordinates":[-122.1075,37.675]},"id":"node/368168727"},{"type":"Feature","properties":{"@id":"node/368168728","addr:state":"CA","amenity":"fire_station","ele":"11","gnis:county_name":"Alameda","gnis:feature_id":"2107493","gnis:import_uuid":"57871b70-0100-4405-bb30-88b2e001a944","gnis:reviewed":"no","name":"Alameda County Fire Department Station 1","source":"USGS Geonames"},"geometry":{"type":"Point","coordinates":[-122.1261111,37.68]},"id":"node/368168728"},{"type":"Feature","properties":{"@id":"node/368168729","addr:state":"CA","amenity":"fire_station","ele":"53","gnis:county_name":"Alameda","gnis:feature_id":"2107496","gnis:import_uuid":"57871b70-0100-4405-bb30-88b2e001a944","gnis:reviewed":"no","name":"Alameda County Fire Department Station 4","source":"USGS Geonames"},"geometry":{"type":"Point","coordinates":[-122.0804806,37.69712]},"id":"node/368168729"},{"type":"Feature","properties":{"@id":"node/368168730","addr:state":"CA","amenity":"fire_station","ele":"14","gnis:county_name":"Alameda","gnis:feature_id":"2107495","gnis:import_uuid":"57871b70-0100-4405-bb30-88b2e001a944","gnis:reviewed":"no","name":"Alameda County Fire Department Station 3","source":"USGS Geonames"},"geometry":{"type":"Point","coordinates":[-122.1113889,37.6961111]},"id":"node/368168730"},{"type":"Feature","properties":{"@id":"node/368168732","addr:state":"CA","amenity":"fire_station","ele":"15","gnis:county_name":"Alameda","gnis:feature_id":"2107482","gnis:import_uuid":"57871b70-0100-4405-bb30-88b2e001a944","gnis:reviewed":"no","name":"Fremont Fire Station 1","source":"USGS Geonames"},"geometry":{"type":"Point","coordinates":[-121.9906505,37.5449187]},"id":"node/368168732"},{"type":"Feature","properties":{"@id":"node/368168734","addr:state":"CA","amenity":"fire_station","ele":"16","gnis:county_name":"Alameda","gnis:feature_id":"2107484","gnis:import_uuid":"57871b70-0100-4405-bb30-88b2e001a944","gnis:reviewed":"no","name":"Fremont Fire Station 3","source":"USGS Geonames"},"geometry":{"type":"Point","coordinates":[-121.9609861,37.5358796]},"id":"node/368168734"},{"type":"Feature","properties":{"@id":"node/368168735","addr:state":"CA","amenity":"fire_station","ele":"20","gnis:county_name":"Alameda","gnis:feature_id":"2107485","gnis:import_uuid":"57871b70-0100-4405-bb30-88b2e001a944","gnis:reviewed":"no","name":"Fremont Fire Station 5","source":"USGS Geonames"},"geometry":{"type":"Point","coordinates":[-121.9263889,37.4847222]},"id":"node/368168735"},{"type":"Feature","properties":{"@id":"node/368168736","addr:state":"CA","amenity":"fire_station","ele":"17","gnis:county_name":"Alameda","gnis:feature_id":"2107486","gnis:import_uuid":"57871b70-0100-4405-bb30-88b2e001a944","gnis:reviewed":"no","name":"Fremont Fire Station 6","source":"USGS Geonames"},"geometry":{"type":"Point","coordinates":[-122.0055556,37.5577778]},"id":"node/368168736"},{"type":"Feature","properties":{"@id":"node/368168737","addr:state":"CA","amenity":"fire_station","ele":"8","gnis:county_name":"Alameda","gnis:feature_id":"2107487","gnis:import_uuid":"57871b70-0100-4405-bb30-88b2e001a944","gnis:reviewed":"no","name":"Fremont Fire Station 7","source":"USGS Geonames"},"geometry":{"type":"Point","coordinates":[-121.9619444,37.5086111]},"id":"node/368168737"},{"type":"Feature","properties":{"@id":"node/368168738","addr:state":"CA","amenity":"fire_station","ele":"10","gnis:county_name":"Alameda","gnis:feature_id":"2107488","gnis:import_uuid":"57871b70-0100-4405-bb30-88b2e001a944","gnis:reviewed":"no","name":"Fremont Fire Station 8","source":"USGS Geonames"},"geometry":{"type":"Point","coordinates":[-122.0372222,37.5758333]},"id":"node/368168738"},{"type":"Feature","properties":{"@id":"node/368168739","addr:state":"CA","amenity":"fire_station","ele":"93","gnis:county_name":"San Francisco","gnis:feature_id":"2107362","gnis:import_uuid":"57871b70-0100-4405-bb30-88b2e001a944","gnis:reviewed":"no","name":"San Francisco Fire Station 33","source":"USGS Geonames"},"geometry":{"type":"Point","coordinates":[-122.4587887,37.7108529]},"id":"node/368168739"},{"type":"Feature","properties":{"@id":"node/368168745","addr:state":"CA","amenity":"fire_station","ele":"95","gnis:county_name":"San Francisco","gnis:feature_id":"2107367","gnis:import_uuid":"57871b70-0100-4405-bb30-88b2e001a944","gnis:reviewed":"no","name":"San Francisco Fire Station 41","source":"USGS Geonames"},"geometry":{"type":"Point","coordinates":[-122.4163676,37.7935487]},"id":"node/368168745"},{"type":"Feature","properties":{"@id":"node/368168747","addr:state":"CA","amenity":"fire_station","ele":"55","gnis:county_name":"San Francisco","gnis:feature_id":"2107369","gnis:import_uuid":"57871b70-0100-4405-bb30-88b2e001a944","gnis:reviewed":"no","name":"San Francisco Fire Station 44","source":"USGS Geonames"},"geometry":{"type":"Point","coordinates":[-122.4002721,37.7166892]},"id":"node/368168747"},{"type":"Feature","properties":{"@id":"node/368168858","addr:state":"CA","amenity":"fire_station","ele":"17","name":"San Diego City Fire Station #1","ref":"SD1"},"geometry":{"type":"Point","coordinates":[-117.1644866,32.7179522]},"id":"node/368168858"},{"type":"Feature","properties":{"@id":"node/368168859","addr:state":"CA","amenity":"fire_station","ele":"144","gnis:county_name":"San Diego","gnis:feature_id":"2456354","gnis:import_uuid":"57871b70-0100-4405-bb30-88b2e001a944","gnis:reviewed":"no","name":"San Diego City Fire Station 10","ref":"SD10","source":"USGS Geonames"},"geometry":{"type":"Point","coordinates":[-117.0638456,32.7608509]},"id":"node/368168859"},{"type":"Feature","properties":{"@id":"node/368168860","addr:state":"CA","amenity":"fire_station","ele":"306","gnis:county_name":"San Bernardino","gnis:feature_id":"2455578","gnis:import_uuid":"57871b70-0100-4405-bb30-88b2e001a944","gnis:reviewed":"no","name":"San Bernardino County Fire Department County Community Safety Division Building","source":"USGS Geonames"},"geometry":{"type":"Point","coordinates":[-117.2945563,34.0900935]},"id":"node/368168860"},{"type":"Feature","properties":{"@id":"node/368168861","addr:state":"CA","amenity":"fire_station","ele":"476","gnis:county_name":"San Bernardino","gnis:feature_id":"2455583","gnis:import_uuid":"57871b70-0100-4405-bb30-88b2e001a944","gnis:reviewed":"no","name":"San Manuel Fire Department","source":"USGS Geonames"},"geometry":{"type":"Point","coordinates":[-117.221851,34.150106]},"id":"node/368168861"},{"type":"Feature","properties":{"@id":"node/368168863","addr:state":"CA","amenity":"fire_station","ele":"108","gnis:county_name":"San Diego","gnis:feature_id":"2456358","gnis:import_uuid":"57871b70-0100-4405-bb30-88b2e001a944","name":"San Diego City Fire Station 14","ref":"SD14","source":"USGS Geonames"},"geometry":{"type":"Point","coordinates":[-117.124898,32.7505532]},"id":"node/368168863"},{"type":"Feature","properties":{"@id":"node/368168864","addr:city":"San Diego","addr:state":"CA","amenity":"fire_station","ele":"58","name":"San Diego City Fire Station #11","ref":"SD11"},"geometry":{"type":"Point","coordinates":[-117.139967,32.715534]},"id":"node/368168864"},{"type":"Feature","properties":{"@id":"node/368168865","addr:state":"CA","amenity":"fire_station","ele":"52","gnis:county_name":"San Diego","gnis:feature_id":"2456356","gnis:import_uuid":"57871b70-0100-4405-bb30-88b2e001a944","gnis:reviewed":"no","name":"San Diego City Fire Station 12","ref":"SD12","source":"USGS Geonames"},"geometry":{"type":"Point","coordinates":[-117.087852,32.7044035]},"id":"node/368168865"},{"type":"Feature","properties":{"@id":"node/368168866","addr:state":"CA","amenity":"fire_station","ele":"110","gnis:county_name":"San Diego","gnis:feature_id":"2456361","gnis:import_uuid":"57871b70-0100-4405-bb30-88b2e001a944","gnis:reviewed":"no","name":"San Diego City Fire Station 17","source":"USGS Geonames"},"geometry":{"type":"Point","coordinates":[-117.0968412,32.7533606]},"id":"node/368168866"},{"type":"Feature","properties":{"@id":"node/368168870","addr:state":"CA","amenity":"fire_station","ele":"227","gnis:county_name":"San Diego","gnis:feature_id":"2456360","gnis:import_uuid":"57871b70-0100-4405-bb30-88b2e001a944","gnis:reviewed":"no","name":"San Diego City Fire Station 16","source":"USGS Geonames"},"geometry":{"type":"Point","coordinates":[-117.253495,32.840933]},"id":"node/368168870"},{"type":"Feature","properties":{"@id":"node/368168871","addr:state":"CA","amenity":"fire_station","ele":"110","gnis:county_name":"San Diego","gnis:feature_id":"2456365","gnis:import_uuid":"57871b70-0100-4405-bb30-88b2e001a944","gnis:reviewed":"no","name":"San Diego City Fire Station 23","source":"USGS Geonames"},"geometry":{"type":"Point","coordinates":[-117.1715868,32.7829649]},"id":"node/368168871"},{"type":"Feature","properties":{"@id":"node/368168874","addr:state":"CA","amenity":"fire_station","ele":"5","gnis:county_name":"San Diego","gnis:feature_id":"2456363","gnis:import_uuid":"57871b70-0100-4405-bb30-88b2e001a944","gnis:reviewed":"no","name":"San Diego City Fire Station 21","source":"USGS Geonames"},"geometry":{"type":"Point","coordinates":[-117.255362,32.794852]},"id":"node/368168874"},{"type":"Feature","properties":{"@id":"node/368168875","addr:state":"CA","amenity":"fire_station","ele":"80","gnis:county_name":"San Diego","gnis:feature_id":"2456364","gnis:import_uuid":"57871b70-0100-4405-bb30-88b2e001a944","gnis:reviewed":"no","name":"San Diego City Fire Station 22","source":"USGS Geonames"},"geometry":{"type":"Point","coordinates":[-117.244428,32.725572]},"id":"node/368168875"},{"type":"Feature","properties":{"@id":"node/368168876","addr:state":"CA","amenity":"fire_station","ele":"261","gnis:county_name":"Los Angeles","gnis:feature_id":"245408","gnis:import_uuid":"57871b70-0100-4405-bb30-88b2e001a944","gnis:reviewed":"no","name":"Los Angeles County Fire Department Station #65","ref":"LAC65","source":"USGS Geonames"},"geometry":{"type":"Point","coordinates":[-118.7535149,34.1343168]},"id":"node/368168876"},{"type":"Feature","properties":{"@id":"node/368168877","addr:state":"CA","agency":"LACoFD","amenity":"fire_station","ele":"498","gnis:county_name":"Los Angeles","gnis:feature_id":"244482","gnis:import_uuid":"57871b70-0100-4405-bb30-88b2e001a944","gnis:reviewed":"no","name":"Los Angeles County Fire Department Station #72","ref":"LAC72","source":"USGS Geonames;AM909_DSCS7166","source_ref":"AM909_DSCS7166"},"geometry":{"type":"Point","coordinates":[-118.8811562,34.0766325]},"id":"node/368168877"},{"type":"Feature","properties":{"@id":"node/368168878","addr:state":"CA","amenity":"fire_station","ele":"26","gnis:county_name":"Los Angeles","gnis:feature_id":"241092","gnis:import_uuid":"57871b70-0100-4405-bb30-88b2e001a944","gnis:reviewed":"no","name":"Cressey Park Fire Station","source":"USGS Geonames"},"geometry":{"type":"Point","coordinates":[-118.245281,33.9037389]},"id":"node/368168878"},{"type":"Feature","properties":{"@id":"node/368168879","addr:state":"CA","amenity":"fire_station","ele":"1099","gnis:county_name":"Los Angeles","gnis:feature_id":"241008","gnis:import_uuid":"57871b70-0100-4405-bb30-88b2e001a944","gnis:reviewed":"no","name":"County Fire Station Number Seventynine","source":"USGS Geonames"},"geometry":{"type":"Point","coordinates":[-117.861175,34.4549964]},"id":"node/368168879"},{"type":"Feature","properties":{"@id":"node/368168880","addr:state":"CA","amenity":"fire_station","designation":"Riverside Fire Station 10","ele":"280","gnis:county_name":"Riverside","gnis:feature_id":"2455567","gnis:import_uuid":"57871b70-0100-4405-bb30-88b2e001a944","gnis:reviewed":"no","name":"Riverside Fire Department Station #10","ref":"RIV10","source":"USGS Geonames"},"geometry":{"type":"Point","coordinates":[-117.402985,33.919641]},"id":"node/368168880"},{"type":"Feature","properties":{"@id":"node/368168881","addr:state":"CA","amenity":"fire_station","designation":"Riverside Fire Station 1","ele":"263","gnis:county_name":"Riverside","gnis:feature_id":"2455566","gnis:import_uuid":"57871b70-0100-4405-bb30-88b2e001a944","gnis:reviewed":"no","name":"Riverside Fire Department Station #1","ref":"RIV1","source":"USGS Geonames"},"geometry":{"type":"Point","coordinates":[-117.371155,33.9806886]},"id":"node/368168881"},{"type":"Feature","properties":{"@id":"node/368168882","addr:state":"CA","amenity":"fire_station","ele":"374","gnis:county_name":"San Bernardino","gnis:feature_id":"2455564","gnis:import_uuid":"57871b70-0100-4405-bb30-88b2e001a944","gnis:reviewed":"no","name":"Rialto City Fire Department","source":"USGS Geonames"},"geometry":{"type":"Point","coordinates":[-117.374258,34.099691]},"id":"node/368168882"},{"type":"Feature","properties":{"@id":"node/368168883","addr:state":"CA","amenity":"fire_station","ele":"392","gnis:county_name":"San Bernardino","gnis:feature_id":"2455545","gnis:import_uuid":"57871b70-0100-4405-bb30-88b2e001a944","gnis:reviewed":"no","name":"California State Forestry and Fire Protection Department","source":"USGS Geonames"},"geometry":{"type":"Point","coordinates":[-117.2855958,34.1608942]},"id":"node/368168883"},{"type":"Feature","properties":{"@id":"node/368168884","addr:state":"CA","amenity":"fire_station","designation":"Riverside Fire Station 5","ele":"235","gnis:county_name":"Riverside","gnis:feature_id":"2455571","gnis:import_uuid":"57871b70-0100-4405-bb30-88b2e001a944","gnis:reviewed":"no","name":"Riverside Fire Department Station #5","ref":"RIV5","source":"USGS Geonames"},"geometry":{"type":"Point","coordinates":[-117.4311878,33.9462748]},"id":"node/368168884"},{"type":"Feature","properties":{"@id":"node/368168885","addr:city":"Riverside","addr:state":"CA","amenity":"fire_station","ele":"299","gnis:county_name":"Riverside","gnis:feature_id":"2455570","gnis:import_uuid":"57871b70-0100-4405-bb30-88b2e001a944","gnis:reviewed":"no","name":"Riverside Fire Department Station #4","ref":"RIV4","source":"USGS Geonames"},"geometry":{"type":"Point","coordinates":[-117.3438912,33.9790694]},"id":"node/368168885"},{"type":"Feature","properties":{"@id":"node/368168887","addr:state":"CA","amenity":"fire_station","designation":"Riverside Fire Station 2","ele":"246","gnis:county_name":"Riverside","gnis:feature_id":"2455568","gnis:import_uuid":"57871b70-0100-4405-bb30-88b2e001a944","gnis:reviewed":"no","name":"Riverside Fire Department Station #2","ref":"RIV2","source":"USGS Geonames"},"geometry":{"type":"Point","coordinates":[-117.442998,33.91727]},"id":"node/368168887"},{"type":"Feature","properties":{"@id":"node/368168889","addr:state":"CA","amenity":"fire_station","designation":"Riverside Fire Station 8","ele":"218","gnis:county_name":"Riverside","gnis:feature_id":"2455574","gnis:import_uuid":"57871b70-0100-4405-bb30-88b2e001a944","gnis:reviewed":"no","name":"Riverside Fire Department Station #8","ref":"RIV8","source":"USGS Geonames"},"geometry":{"type":"Point","coordinates":[-117.4877502,33.9187775]},"id":"node/368168889"},{"type":"Feature","properties":{"@id":"node/368168890","addr:state":"CA","amenity":"fire_station","designation":"Riverside Fire Station 7","ele":"239","gnis:county_name":"Riverside","gnis:feature_id":"2455573","gnis:import_uuid":"57871b70-0100-4405-bb30-88b2e001a944","gnis:reviewed":"no","name":"Riverside Fire Department Station #7","ref":"RIV7","source":"USGS Geonames"},"geometry":{"type":"Point","coordinates":[-117.476231,33.943201]},"id":"node/368168890"},{"type":"Feature","properties":{"@id":"node/368168891","addr:state":"CA","amenity":"fire_station","designation":"Riverside Fire Station 6","ele":"253","gnis:county_name":"Riverside","gnis:feature_id":"2455572","gnis:import_uuid":"57871b70-0100-4405-bb30-88b2e001a944","gnis:reviewed":"no","name":"Riverside Fire Department Station #6","ref":"RIV6","source":"USGS Geonames"},"geometry":{"type":"Point","coordinates":[-117.3571102,34.0060983]},"id":"node/368168891"},{"type":"Feature","properties":{"@id":"node/368168892","addr:state":"CA","amenity":"fire_station","ele":"83","gnis:county_name":"San Diego","gnis:feature_id":"2456383","gnis:import_uuid":"57871b70-0100-4405-bb30-88b2e001a944","gnis:reviewed":"no","name":"San Diego City Fire Station 8","source":"USGS Geonames"},"geometry":{"type":"Point","coordinates":[-117.171613,32.749649]},"id":"node/368168892"},{"type":"Feature","properties":{"@id":"node/368168894","addr:state":"CA","amenity":"fire_station","ele":"7","gnis:county_name":"San Diego","gnis:feature_id":"2456391","gnis:import_uuid":"57871b70-0100-4405-bb30-88b2e001a944","gnis:reviewed":"no","name":"San Diego International Airport Fire Station","source":"USGS Geonames"},"geometry":{"type":"Point","coordinates":[-117.1843818,32.7407105]},"id":"node/368168894"},{"type":"Feature","properties":{"@id":"node/368168895","addr:state":"CA","amenity":"fire_station","ele":"950","gnis:county_name":"Los Angeles","gnis:feature_id":"251059","gnis:import_uuid":"57871b70-0100-4405-bb30-88b2e001a944","gnis:reviewed":"no","name":"Los Angeles County Fire Department Station #80","name:en":"All Valley RV Center","ref":"LAC80","source":"USGS Geonames"},"geometry":{"type":"Point","coordinates":[-118.1420974,34.4877774]},"id":"node/368168895"},{"type":"Feature","properties":{"@id":"node/368168898","addr:state":"CA","amenity":"fire_station","ele":"1093","gnis:county_name":"Ventura","gnis:feature_id":"254451","gnis:import_uuid":"57871b70-0100-4405-bb30-88b2e001a944","gnis:reviewed":"no","name":"Ozena Fire Station","source":"USGS Geonames"},"geometry":{"type":"Point","coordinates":[-119.3540062,34.6833174]},"id":"node/368168898"},{"type":"Feature","properties":{"@id":"node/368168900","addr:state":"CA","amenity":"fire_station","ele":"185","gnis:county_name":"Los Angeles","gnis:feature_id":"256068","gnis:import_uuid":"57871b70-0100-4405-bb30-88b2e001a944","gnis:reviewed":"no","name":"Los Angeles County Fire Department Station #67","ref":"LAC67","source":"USGS Geonames"},"geometry":{"type":"Point","coordinates":[-118.6941132,34.0780859]},"id":"node/368168900"},{"type":"Feature","properties":{"@id":"node/368168901","addr:state":"CA","amenity":"fire_station","ele":"325","gnis:county_name":"Humboldt","gnis:feature_id":"256174","gnis:import_uuid":"57871b70-0100-4405-bb30-88b2e001a944","gnis:reviewed":"no","name":"Alderpoint Forest Fire Station","source":"USGS Geonames"},"geometry":{"type":"Point","coordinates":[-123.5911395,40.1865346]},"id":"node/368168901"},{"type":"Feature","properties":{"@id":"node/368168903","addr:state":"CA","amenity":"fire_station","ele":"1223","gnis:county_name":"Los Angeles","gnis:feature_id":"273147","gnis:import_uuid":"57871b70-0100-4405-bb30-88b2e001a944","gnis:reviewed":"no","name":"Quail Lake Fire Station","source":"USGS Geonames"},"geometry":{"type":"Point","coordinates":[-118.7125182,34.7443598]},"id":"node/368168903"},{"type":"Feature","properties":{"@id":"node/368168905","addr:state":"CA","amenity":"fire_station","ele":"534","gnis:county_name":"Los Angeles","gnis:feature_id":"274077","gnis:import_uuid":"57871b70-0100-4405-bb30-88b2e001a944","gnis:reviewed":"no","name":"Texas Canyon Fire Control Station","source":"USGS Geonames"},"geometry":{"type":"Point","coordinates":[-118.4503605,34.5097146]},"id":"node/368168905"},{"type":"Feature","properties":{"@id":"node/368168908","addr:state":"CA","amenity":"fire_station","ele":"1166","gnis:county_name":"Tulare","gnis:feature_id":"274904","gnis:import_uuid":"57871b70-0100-4405-bb30-88b2e001a944","gnis:reviewed":"no","name":"Tulare County Fire Station","source":"USGS Geonames"},"geometry":{"type":"Point","coordinates":[-118.6403659,35.8721725]},"id":"node/368168908"},{"type":"Feature","properties":{"@id":"node/368168915","addr:state":"CA","amenity":"fire_station","ele":"1859","gnis:county_name":"Kern","gnis:feature_id":"275308","gnis:import_uuid":"57871b70-0100-4405-bb30-88b2e001a944","gnis:reviewed":"no","name":"Apache Saddle Fire Station","source":"USGS Geonames"},"geometry":{"type":"Point","coordinates":[-119.210944,34.860254]},"id":"node/368168915"},{"type":"Feature","properties":{"@id":"node/368168917","addr:state":"CA","amenity":"fire_station","ele":"1133","gnis:county_name":"Los Angeles","gnis:feature_id":"276586","gnis:import_uuid":"57871b70-0100-4405-bb30-88b2e001a944","gnis:reviewed":"no","name":"Area 4 Work Center Fire Station","source":"USGS Geonames"},"geometry":{"type":"Point","coordinates":[-117.8522857,34.4449968]},"id":"node/368168917"},{"type":"Feature","properties":{"@id":"node/368168918","addr:state":"CA","amenity":"fire_station","ele":"1014","gnis:county_name":"Los Angeles","gnis:feature_id":"276613","gnis:import_uuid":"57871b70-0100-4405-bb30-88b2e001a944","gnis:reviewed":"no","name":"Los Angeles County Fire Department Station #78","ref":"LAC78","source":"USGS Geonames"},"geometry":{"type":"Point","coordinates":[-118.4308228,34.6736189]},"id":"node/368168918"},{"type":"Feature","properties":{"@id":"node/368168927","addr:state":"CA","amenity":"fire_station","ele":"83","gnis:county_name":"San Diego","gnis:feature_id":"2456368","gnis:import_uuid":"57871b70-0100-4405-bb30-88b2e001a944","gnis:reviewed":"no","name":"San Diego City Fire Station 26","source":"USGS Geonames"},"geometry":{"type":"Point","coordinates":[-117.0799029,32.7354113]},"id":"node/368168927"},{"type":"Feature","properties":{"@id":"node/368168938","addr:state":"CA","amenity":"fire_station","ele":"7","gnis:county_name":"San Diego","gnis:feature_id":"2456367","gnis:import_uuid":"57871b70-0100-4405-bb30-88b2e001a944","gnis:reviewed":"no","name":"San Diego City Fire Station 25","source":"USGS Geonames"},"geometry":{"type":"Point","coordinates":[-117.2065266,32.781827]},"id":"node/368168938"},{"type":"Feature","properties":{"@id":"node/368168939","addr:state":"CA","amenity":"fire_station","ele":"16","gnis:county_name":"San Diego","gnis:feature_id":"2456370","gnis:import_uuid":"57871b70-0100-4405-bb30-88b2e001a944","gnis:reviewed":"no","name":"San Diego City Fire Station 29","source":"USGS Geonames"},"geometry":{"type":"Point","coordinates":[-117.0474977,32.5533426]},"id":"node/368168939"},{"type":"Feature","properties":{"@id":"node/368168940","addr:state":"CA","amenity":"fire_station","ele":"109","gnis:county_name":"San Diego","gnis:feature_id":"2456369","gnis:import_uuid":"57871b70-0100-4405-bb30-88b2e001a944","gnis:reviewed":"no","name":"San Diego City Fire Station 27","source":"USGS Geonames"},"geometry":{"type":"Point","coordinates":[-117.201665,32.833854]},"id":"node/368168940"},{"type":"Feature","properties":{"@id":"node/368168941","addr:state":"CA","amenity":"fire_station","ele":"147","gnis:county_name":"San Diego","gnis:feature_id":"2456372","gnis:import_uuid":"57871b70-0100-4405-bb30-88b2e001a944","gnis:reviewed":"no","name":"San Diego City Fire Station 32","source":"USGS Geonames"},"geometry":{"type":"Point","coordinates":[-117.0370322,32.6921197]},"id":"node/368168941"},{"type":"Feature","properties":{"@id":"node/368168942","addr:state":"CA","amenity":"fire_station","ele":"130","gnis:county_name":"San Diego","gnis:feature_id":"2456371","gnis:import_uuid":"57871b70-0100-4405-bb30-88b2e001a944","gnis:reviewed":"no","name":"San Diego City Fire Station 31","source":"USGS Geonames"},"geometry":{"type":"Point","coordinates":[-117.0664432,32.7927623]},"id":"node/368168942"},{"type":"Feature","properties":{"@id":"node/368168943","addr:state":"CA","amenity":"fire_station","ele":"196","gnis:county_name":"San Diego","gnis:feature_id":"2456374","gnis:import_uuid":"57871b70-0100-4405-bb30-88b2e001a944","gnis:reviewed":"no","name":"San Diego City Fire Station 34","source":"USGS Geonames"},"geometry":{"type":"Point","coordinates":[-117.0252004,32.8025726]},"id":"node/368168943"},{"type":"Feature","properties":{"@id":"node/368168946","addr:state":"CA","amenity":"fire_station","ele":"113","gnis:county_name":"San Diego","gnis:feature_id":"2456375","gnis:import_uuid":"57871b70-0100-4405-bb30-88b2e001a944","gnis:reviewed":"no","name":"San Diego City Fire Station 36","source":"USGS Geonames"},"geometry":{"type":"Point","coordinates":[-117.1745199,32.822353]},"id":"node/368168946"},{"type":"Feature","properties":{"@id":"node/368168948","addr:state":"CA","amenity":"fire_station","ele":"185","gnis:county_name":"San Diego","gnis:feature_id":"2456378","gnis:import_uuid":"57871b70-0100-4405-bb30-88b2e001a944","gnis:reviewed":"no","name":"San Diego City Fire Station 40","source":"USGS Geonames"},"geometry":{"type":"Point","coordinates":[-117.122276,32.95962]},"id":"node/368168948"},{"type":"Feature","properties":{"@id":"node/368168960","addr:state":"CA","amenity":"fire_station","ele":"126","gnis:county_name":"San Diego","gnis:feature_id":"2456377","gnis:import_uuid":"57871b70-0100-4405-bb30-88b2e001a944","gnis:reviewed":"no","name":"San Diego City Fire Station 39","source":"USGS Geonames"},"geometry":{"type":"Point","coordinates":[-117.0985861,32.8205797]},"id":"node/368168960"},{"type":"Feature","properties":{"@id":"node/368168961","addr:state":"CA","amenity":"fire_station","ele":"89","gnis:county_name":"San Diego","gnis:feature_id":"2456380","gnis:import_uuid":"57871b70-0100-4405-bb30-88b2e001a944","gnis:reviewed":"no","name":"San Diego City Fire Station 5","source":"USGS Geonames"},"geometry":{"type":"Point","coordinates":[-117.156537,32.748683]},"id":"node/368168961"},{"type":"Feature","properties":{"@id":"node/368168962","addr:state":"CA","amenity":"fire_station","ele":"211","gnis:county_name":"San Diego","gnis:feature_id":"2456379","gnis:import_uuid":"57871b70-0100-4405-bb30-88b2e001a944","gnis:reviewed":"no","name":"San Diego City Fire Station 42","source":"USGS Geonames"},"geometry":{"type":"Point","coordinates":[-117.0733011,32.9829941]},"id":"node/368168962"},{"type":"Feature","properties":{"@id":"node/368168963","addr:state":"CA","amenity":"fire_station","ele":"17","gnis:county_name":"San Diego","gnis:feature_id":"2456382","gnis:import_uuid":"57871b70-0100-4405-bb30-88b2e001a944","gnis:reviewed":"no","name":"San Diego City Fire Station 7","source":"USGS Geonames"},"geometry":{"type":"Point","coordinates":[-117.1448508,32.7014775]},"id":"node/368168963"},{"type":"Feature","properties":{"@id":"node/368168964","addr:state":"CA","amenity":"fire_station","ele":"77","gnis:county_name":"San Diego","gnis:feature_id":"2456381","gnis:import_uuid":"57871b70-0100-4405-bb30-88b2e001a944","gnis:reviewed":"no","name":"San Diego City Fire Station 6","source":"USGS Geonames"},"geometry":{"type":"Point","coordinates":[-117.045131,32.583977]},"id":"node/368168964"},{"type":"Feature","properties":{"@id":"node/418624983","addr:city":"Fontana","addr:housenumber":"5075","addr:state":"CA","addr:street":"Coyote Canyon Rd","amenity":"fire_station","fax":"+1 909 463 6577","name":"San Bernardino County Fire Department","phone":"+1 909 463 3998","phone:2":"+1 909 463 4997","ref":"Station 79"},"geometry":{"type":"Point","coordinates":[-117.4659842,34.1624521]},"id":"node/418624983"},{"type":"Feature","properties":{"@id":"node/464804696","addr:city":"Saratoga","addr:housenumber":"14380","addr:postcode":"95070","addr:state":"CA","addr:street":"Saratoga Avenue","amenity":"fire_station","name":"Saratoga Fire Station","operator":"Santa Clara County Fire Department"},"geometry":{"type":"Point","coordinates":[-122.0314805,37.2591845]},"id":"node/464804696"},{"type":"Feature","properties":{"@id":"node/529895129","addr:city":"Pacifica","addr:housenumber":"616","addr:postcode":"94044","addr:state":"CA","addr:street":"Edgemar Avenue","amenity":"fire_station","name":"Fire Station 71","operator":"North County Fire Authority","website":"https://northcountyfire.org/"},"geometry":{"type":"Point","coordinates":[-122.4902205,37.6461832]},"id":"node/529895129"},{"type":"Feature","properties":{"@id":"node/534353181","addr:city":"Willits","addr:housenumber":"17501","addr:postcode":"95490","addr:state":"CA","addr:street":"North Highway 101","amenity":"fire_station","name":"Cal Fire Howard Forest"},"geometry":{"type":"Point","coordinates":[-123.3188849,39.3460256]},"id":"node/534353181"},{"type":"Feature","properties":{"@id":"node/548007357","addr:county":"San Benito","addr:state":"CA","amenity":"fire_station","name":"Fire Department","source":"Tiger2009"},"geometry":{"type":"Point","coordinates":[-121.3224518,36.790327]},"id":"node/548007357"},{"type":"Feature","properties":{"@id":"node/549645909","addr:county":"Monterey","addr:state":"CA","amenity":"fire_station","name":"Fire Department","source":"Tiger2009"},"geometry":{"type":"Point","coordinates":[-121.8278904,36.5304436]},"id":"node/549645909"},{"type":"Feature","properties":{"@id":"node/549660866","addr:county":"Monterey","addr:state":"CA","amenity":"fire_station","name":"Fire Department","source":"Tiger2009"},"geometry":{"type":"Point","coordinates":[-121.1280056,36.2110987]},"id":"node/549660866"},{"type":"Feature","properties":{"@id":"node/549661039","addr:county":"Monterey","addr:state":"CA","amenity":"fire_station","name":"Greenfield City Fire Department","source":"Tiger2009"},"geometry":{"type":"Point","coordinates":[-121.244059,36.320594]},"id":"node/549661039"},{"type":"Feature","properties":{"@id":"node/549663062","addr:county":"Monterey","addr:state":"CA","amenity":"fire_station","name":"State Fire Station","source":"Tiger2009"},"geometry":{"type":"Point","coordinates":[-121.914133,36.578064]},"id":"node/549663062"},{"type":"Feature","properties":{"@id":"node/549663907","addr:county":"Monterey","addr:state":"CA","amenity":"fire_station","name":"Pacific Grove Fire Department","source":"Tiger2009"},"geometry":{"type":"Point","coordinates":[-121.919334,36.619321]},"id":"node/549663907"},{"type":"Feature","properties":{"@id":"node/549666171","addr:county":"Monterey","addr:state":"CA","amenity":"fire_station","name":"Fire Department","source":"Tiger2009"},"geometry":{"type":"Point","coordinates":[-121.82902,36.6092513]},"id":"node/549666171"},{"type":"Feature","properties":{"@id":"node/549667559","addr:county":"Monterey","addr:state":"CA","amenity":"fire_station","name":"Fire Station","source":"Tiger2009"},"geometry":{"type":"Point","coordinates":[-121.687402,36.6182205]},"id":"node/549667559"},{"type":"Feature","properties":{"@id":"node/549668582","addr:county":"Monterey","addr:state":"CA","amenity":"fire_station","name":"Castroville Fire Station","source":"Tiger2009"},"geometry":{"type":"Point","coordinates":[-121.756532,36.767992]},"id":"node/549668582"},{"type":"Feature","properties":{"@id":"node/549668686","addr:county":"Monterey","addr:state":"CA","amenity":"fire_station","name":"Prunedale Fire Station","source":"Tiger2009"},"geometry":{"type":"Point","coordinates":[-121.667222,36.77757]},"id":"node/549668686"},{"type":"Feature","properties":{"@id":"node/549668887","addr:county":"Monterey","addr:state":"CA","amenity":"fire_station","source":"Tiger2009"},"geometry":{"type":"Point","coordinates":[-121.5175363,36.5714444]},"id":"node/549668887"},{"type":"Feature","properties":{"@id":"node/585334848","addr:city":"Yucaipa","addr:housenumber":"32664","addr:postcode":"92399","addr:state":"CA","addr:street":"Yucaipa Boulevard","agency":"Yucaipa FD","amenity":"fire_station","name":"Crafton Hills Station 552","operator":"CAL FIRE","ref":"Fire Station 2"},"geometry":{"type":"Point","coordinates":[-117.0922904,34.0342191]},"id":"node/585334848"},{"type":"Feature","properties":{"@id":"node/596153364","addr:city":"Escondido","addr:housenumber":"9127","addr:postcode":"92026","addr:state":"CA","addr:street":"West Lilac Road","amenity":"fire_station","name":"Miller Station 15","operator":"Deer Springs FPD/CAL FIRE","phone":"+1 760 728 8532","source":"SanGIS Addresses Public Domain (http://www.sangis.org/);bing_imagery_0.25m_201005;survey;image","source_ref":"AM909_DSCX6835"},"geometry":{"type":"Point","coordinates":[-117.136364,33.299306]},"id":"node/596153364"},{"type":"Feature","properties":{"@id":"node/597027786","addr:city":"Chula Vista","addr:country":"US","addr:housenumber":"1410","addr:postcode":"91911","addr:state":"CA","addr:street":"Brandywine Avenue","amenity":"fire_station","name":"Chula Vista Fire Station 3","source":"SanGIS Addresses Public Domain (http://www.sangis.org/);City of Chula Vista Fire Department (http://www.chulavistaca.gov/departments/fire-department/)"},"geometry":{"type":"Point","coordinates":[-117.0288651,32.610071]},"id":"node/597027786"},{"type":"Feature","properties":{"@id":"node/647699753","addr:city":"Los Gatos","addr:housenumber":"306","addr:postcode":"95030","addr:state":"CA","addr:street":"University Avenue","amenity":"fire_station","name":"Los Gatos Fire Station","note":"Engine 83 Rescue 83 Battalion 83","operator":"Santa Clara County Fire Department","website":"https://www.sccfd.org/about-sccfd/fire-station-locations/los-gatos-fire-station"},"geometry":{"type":"Point","coordinates":[-121.9799346,37.22685]},"id":"node/647699753"},{"type":"Feature","properties":{"@id":"node/749471811","addr:city":"Silverado","addr:housenumber":"27172","addr:postcode":"92676","addr:state":"CA","addr:street":"Silverado Canyon Road","agency":"OCFA","amenity":"fire_station","name":"Silverado Fire Station","ref":"15","source":"yahoo_imagery;survey;image","source_ref":"AM909_DSCV0413"},"geometry":{"type":"Point","coordinates":[-117.6599167,33.7434226]},"id":"node/749471811"},{"type":"Feature","properties":{"@id":"node/835835799","addr:city":"Lake Elsinore","addr:postcode":"92530","addr:state":"CA","addr:street":"Ortega Highway","amenity":"fire_station","name":"U.S. Forest Service El Cariso Fire Station","ref":"USFS","source":"local_knowledge","source_ref":"AM909_DSCU5886"},"geometry":{"type":"Point","coordinates":[-117.4127913,33.6508237]},"id":"node/835835799"},{"type":"Feature","properties":{"@id":"node/878729364","addr:city":"Topanga","addr:housenumber":"401","addr:postcode":"90290","addr:state":"CA","addr:street":"Topanga Canyon Blvd","addr:street_direction_prefix":"S","agency":"LACFD","amenity":"fire_station","name":"Los Angeles County Fire Department Station #69","phone":"(310) 455-1766","ref":"LAC69","source":"usgs_imagery_2006;survey;image","source_ref":"AM909_DSCS6917","url":"http://fire.lacounty.gov/HometownFireStations/HometownFireStations.asp#Battalion05"},"geometry":{"type":"Point","coordinates":[-118.600113,34.0838662]},"id":"node/878729364"},{"type":"Feature","properties":{"@id":"node/994133237","addr:city":"Baker","addr:housenumber":"72734","addr:postcode":"92309","addr:state":"CA","addr:street":"Baker Blvd","agency":"SBCFD","amenity":"fire_station","name":"San Bernardino County Fire Department Station 53","ref":"53","source":"usgs_imagery_1m_NAIP;survey;image","source_ref":"AM909_DSCW4918"},"geometry":{"type":"Point","coordinates":[-116.0616829,35.2742692]},"id":"node/994133237"},{"type":"Feature","properties":{"@id":"node/1393084460","addr:city":"Riverside","addr:housenumber":"6674","addr:postcode":"92506","addr:state":"CA","addr:street":"Alessandro Blvd","amenity":"fire_station","designation":"Riverside Fire Station 9","name":"Riverside Fire Department Station #9","ref":"RIV9","source":"Local_Knowledge","source_ref":"AM909_DSCX8428"},"geometry":{"type":"Point","coordinates":[-117.3458878,33.9303633]},"id":"node/1393084460"},{"type":"Feature","properties":{"@id":"node/1463725908","addr:city":"Auburn","addr:housenumber":"10106","addr:postcode":"95602","addr:state":"CA","addr:street":"Combie Road","amenity":"fire_station","name":"Station 21","operator":"Higgins Fire District","phone":"+1 (530) 269-2488"},"geometry":{"type":"Point","coordinates":[-121.0936124,39.043341]},"id":"node/1463725908"},{"type":"Feature","properties":{"@id":"node/1586562782","addr:city":"Markleeville","addr:housenumber":"60","addr:postcode":"96120","addr:state":"CA","addr:street":"Diamond Valley Road","amenity":"fire_station","name":"Woodfords Fire Station","operator":"Eastern Alpine Volunteer Fire Department","source":"GNIS"},"geometry":{"type":"Point","coordinates":[-119.8164956,38.7697399]},"id":"node/1586562782"},{"type":"Feature","properties":{"@id":"node/1843284741","addr:city":"Diamond Bar","addr:housenumber":"346","addr:postcode":"91765","addr:state":"CA","addr:street":"Armitos Place","amenity":"fire_station","name":"Los Angeles County Fire Department Station #121","ref":"LAC121"},"geometry":{"type":"Point","coordinates":[-117.793306,34.0260178]},"id":"node/1843284741"},{"type":"Feature","properties":{"@id":"node/1843344524","addr:city":"Lancaster","addr:housenumber":"42110","addr:postcode":"93534","addr:state":"CA","addr:street":"6th Street West","amenity":"fire_station","name":"Los Angeles County Fire Department Station #129","operator":"Los Angeles County","phone":"+1 661 940-7700","ref":"LAC129"},"geometry":{"type":"Point","coordinates":[-118.1407723,34.6480669]},"id":"node/1843344524"},{"type":"Feature","properties":{"@id":"node/2213391736","addr:city":"Grover Beach","addr:housenumber":"701","addr:postcode":"93433","addr:state":"CA","addr:street":"Rockaway Avenue","amenity":"fire_station","name":"Five Cities Fire Authority Station 2","operator":"Five Cities Fire Authority","website":"http://fivecitiesfireauthority.org/about/station-68"},"geometry":{"type":"Point","coordinates":[-120.6224801,35.1206659]},"id":"node/2213391736"},{"type":"Feature","properties":{"@id":"node/2326576006","addr:city":"Los Gatos","addr:housenumber":"18269","addr:postcode":"95033","addr:state":"CA","addr:street":"Las Cumbres Road","amenity":"fire_station","name":"Cal FIre CZU Station 29 - Las Cumbres","note":"Location approximate"},"geometry":{"type":"Point","coordinates":[-122.0668329,37.2068235]},"id":"node/2326576006"},{"type":"Feature","properties":{"@id":"node/2401965264","addr:city":"El Paso de Robles (Paso Robles)","addr:housenumber":"4735","addr:postcode":"93446","addr:state":"CA","addr:street":"Airport Road","amenity":"fire_station","description":"CAL FIRE / San Luis Obispo County Fire","name":"CAL FIRE / SLO County Fire Station 98"},"geometry":{"type":"Point","coordinates":[-120.6428477,35.6694779]},"id":"node/2401965264"},{"type":"Feature","properties":{"@id":"node/2467283065","addr:city":"Dublin","addr:country":"US","addr:housenumber":"4800","addr:postcode":"94568","addr:state":"CA","addr:street":"Fallon Road","amenity":"fire_station","name":"ACFD Station 18"},"geometry":{"type":"Point","coordinates":[-121.8544339,37.7149472]},"id":"node/2467283065"},{"type":"Feature","properties":{"@id":"node/3487013446","addr:city":"Angels Camp","addr:housenumber":"1404","addr:postcode":"95222","addr:state":"CA","addr:street":"Vallecito Road","amenity":"fire_station","name":"Fire Station, Volunteer","phone":"(209) 736-4081"},"geometry":{"type":"Point","coordinates":[-120.5373527,38.0689653]},"id":"node/3487013446"},{"type":"Feature","properties":{"@id":"node/3487013447","addr:city":"Altaville","addr:housenumber":"148","addr:postcode":"95221","addr:state":"CA","addr:street":"Monte Verda Street","amenity":"fire_station","name":"Alta Melones Fire District","phone":"(209) 736-4461"},"geometry":{"type":"Point","coordinates":[-120.5573459,38.0806121]},"id":"node/3487013447"},{"type":"Feature","properties":{"@id":"node/3513424193","addr:city":"Los Gatos","addr:housenumber":"18870","addr:postcode":"95030","addr:state":"CA","addr:street":"Saratoga Los Gatos Road","amenity":"fire_station","name":"Quito Fire Station","operator":"Santa Clara County Fire Department"},"geometry":{"type":"Point","coordinates":[-122.0022948,37.2412219]},"id":"node/3513424193"},{"type":"Feature","properties":{"@id":"node/3513457593","addr:city":"Los Gatos","addr:housenumber":"14850","addr:postcode":"95030","addr:state":"CA","addr:street":"Winchester Boulevard","amenity":"fire_station","name":"Winchester Fire Station","operator":"Santa Clara County Fire Department"},"geometry":{"type":"Point","coordinates":[-121.9677138,37.2523098]},"id":"node/3513457593"},{"type":"Feature","properties":{"@id":"node/3517586924","addr:city":"Arroyo Grande","addr:housenumber":"140","addr:postcode":"93420","addr:state":"CA","addr:street":"Traffic Way","amenity":"fire_station","name":"Five Cities Fire Authority Station 1","operator":"Five Cities Fire Authority","phone":"+1 805-473-5490","website":"http://fivecitiesfireauthority.org/about/station-66"},"geometry":{"type":"Point","coordinates":[-120.5792452,35.1213131]},"id":"node/3517586924"},{"type":"Feature","properties":{"@id":"node/3534945477","addr:city":"San Francisco","addr:country":"US","addr:housenumber":"449","addr:postcode":"94158","addr:state":"CA","addr:street":"Mission Rock","amenity":"fire_station","name":"SFFD Fire Station 4"},"geometry":{"type":"Point","coordinates":[-122.3891338,37.7728017]},"id":"node/3534945477"},{"type":"Feature","properties":{"@id":"node/3608363593","addr:city":"Camp Connell","addr:housenumber":"5200","addr:state":"CA","addr:street":"Highway 4","amenity":"fire_station","name":"Dorrington Station 22","operator":"Stanislaus National Forest","phone":"+1-209-795-1791","source":"CFF;local knowledge"},"geometry":{"type":"Point","coordinates":[-120.2610396,38.3187754]},"id":"node/3608363593"},{"type":"Feature","properties":{"@id":"node/3614346000","addr:city":"Greeley Hill","addr:state":"CA","addr:street":"Holtzel Road","amenity":"fire_station","name":"McDiarmid Station 43","operator":"Stanislaus National Forest","phone":"+1-209-878-3320","source":"CFF;local knowledge"},"geometry":{"type":"Point","coordinates":[-120.0963155,37.7206929]},"id":"node/3614346000"},{"type":"Feature","properties":{"@id":"node/3622229914","addr:city":"Livermore","addr:housenumber":"1617","addr:postcode":"94550","addr:state":"CA","addr:street":"College Avenue","amenity":"fire_station","name":"Fire Station 8","operator":"Alameda County Fire Department"},"geometry":{"type":"Point","coordinates":[-121.7737482,37.6742427]},"id":"node/3622229914"},{"type":"Feature","properties":{"@id":"node/3622260912","addr:city":"Livermore","addr:housenumber":"7000","addr:postcode":"94550","addr:state":"CA","addr:street":"East Avenue","amenity":"fire_station","name":"Fire Station 20","operator":"Alameda County Fire Department"},"geometry":{"type":"Point","coordinates":[-121.7063175,37.6816716]},"id":"node/3622260912"},{"type":"Feature","properties":{"@id":"node/3622275077","addr:city":"Livermore","addr:housenumber":"4550","addr:postcode":"94550","addr:state":"CA","addr:street":"East Avenue","amenity":"fire_station","name":"Fire Station No. 6","operator":"Livermore-Pleasanton Fire Department"},"geometry":{"type":"Point","coordinates":[-121.739519,37.6802545]},"id":"node/3622275077"},{"type":"Feature","properties":{"@id":"node/3646501652","addr:city":"Eureka","addr:housenumber":"3455","addr:state":"CA","addr:street":"Harris Street","amenity":"fire_station","name":"Humboldt Bay Fire Station 5","phone":"(707) 441-4000"},"geometry":{"type":"Point","coordinates":[-124.1297491,40.7807218]},"id":"node/3646501652"},{"type":"Feature","properties":{"@id":"node/4242074403","addr:city":"Avalon","addr:housenumber":"945","addr:postcode":"90704","addr:state":"CA","addr:street":"Avalon Canyon Road","amenity":"fire_station","name":"Fire Station 55","phone":"+1 310-510-0424"},"geometry":{"type":"Point","coordinates":[-118.335662,33.3331585]},"id":"node/4242074403"},{"type":"Feature","properties":{"@id":"node/4586526959","addr:city":"Sacramento","addr:housenumber":"1432","addr:state":"CA","addr:street":"Eastern Avenue","amenity":"fire_station","name":"Sacramento Metro Fire District Station 110","website":"http://metrofire.ca.gov/index.php/serving-you/fire-stations/141-station-110"},"geometry":{"type":"Point","coordinates":[-121.3641764,38.5915625]},"id":"node/4586526959"},{"type":"Feature","properties":{"@id":"node/4703155743","addr:city":"Antioch","addr:postcode":"94509","addr:state":"CA","addr:street":"Gentrytown Drive","amenity":"fire_station","name":"Cal Fire Station 83","operator":"California Fire Protection"},"geometry":{"type":"Point","coordinates":[-121.8377688,37.997318]},"id":"node/4703155743"},{"type":"Feature","properties":{"@id":"node/4705338396","addr:city":"Marysville","addr:housenumber":"107","addr:postcode":"95901","addr:state":"CA","addr:street":"9th Street","amenity":"fire_station","name":"Marysville Fire Department"},"geometry":{"type":"Point","coordinates":[-121.585498,39.1454401]},"id":"node/4705338396"},{"type":"Feature","properties":{"@id":"node/4727158834","addr:city":"Oakley","addr:housenumber":"540","addr:postcode":"94561","addr:state":"CA","addr:street":"O'Hara Avenue","amenity":"fire_station","name":"East Contra Costa Fire Protection District Station 53","operator":"East Contra Costa Fire Protection District","website":"https://www.eccfpd.org/"},"geometry":{"type":"Point","coordinates":[-121.7136211,37.9936723]},"id":"node/4727158834"},{"type":"Feature","properties":{"@id":"node/4748552487","addr:city":"Eastvale","addr:housenumber":"14491","addr:postcode":"92880","addr:state":"CA","addr:street":"Chandler Street","amenity":"fire_station","name":"Riverside County Fire Department Station #31","ref":"RVC31"},"geometry":{"type":"Point","coordinates":[-117.5998193,33.9465542]},"id":"node/4748552487"},{"type":"Feature","properties":{"@id":"node/4844810416","addr:state":"CA","amenity":"fire_station","name":"Cranston Station","operator":"USFS"},"geometry":{"type":"Point","coordinates":[-116.8375151,33.7378614]},"id":"node/4844810416"},{"type":"Feature","properties":{"@id":"node/5008542402","addr:city":"Carlsbad","addr:housenumber":"7201","addr:postcode":"92009","addr:state":"CA","addr:street":"Rancho Santa Fe Road","amenity":"fire_station","name":"Carlsbad Station No. 6","operator":"City of Carlsbad","source":"http://www.firedepartment.net/directory/california/san-diego-county/carlsbad/carlsbad-fire-department-station-6"},"geometry":{"type":"Point","coordinates":[-117.225918,33.0944435]},"id":"node/5008542402"},{"type":"Feature","properties":{"@id":"node/5052252996","addr:city":"Knightsen","addr:housenumber":"15","addr:postcode":"94548","addr:state":"CA","addr:street":"A Street","amenity":"fire_station","name":"(CLOSED) East Contra Costa County Fire Protection District Station 94","operator":"East Contra Costa County Fire Protection District","website":"https://www.eccfpd.org/"},"geometry":{"type":"Point","coordinates":[-121.6670248,37.9696764]},"id":"node/5052252996"},{"type":"Feature","properties":{"@id":"node/5240552914","addr:city":"Placentia","addr:housenumber":"112","addr:postcode":"92870-5615","addr:state":"CA","addr:street":"South Bradford Avenue","amenity":"fire_station","name":"Orange County Fire Authority Station 35","operator":"Orange County Fire Authority"},"geometry":{"type":"Point","coordinates":[-117.8703528,33.8713706]},"id":"node/5240552914"},{"type":"Feature","properties":{"@id":"node/5258513907","addr:city":"Paso Robles","addr:full":"900 Park Street","addr:housenumber":"900","addr:postcode":"93446","addr:state":"CA","addr:street":"Park Street","addr:street:name":"Park","addr:street:type":"Street","amenity":"fire_station","name":"Paso Robles Fire Department"},"geometry":{"type":"Point","coordinates":[-120.6894332,35.6238003]},"id":"node/5258513907"},{"type":"Feature","properties":{"@id":"node/5411029806","addr:city":"Atascadero","addr:full":"6005 Lewis Avenue","addr:housenumber":"6005","addr:postcode":"93422","addr:state":"CA","addr:street":"Lewis Avenue","addr:street:name":"Lewis","addr:street:type":"Avenue","amenity":"fire_station","name":"City of Atascadero Fire Department"},"geometry":{"type":"Point","coordinates":[-120.6687448,35.49141]},"id":"node/5411029806"},{"type":"Feature","properties":{"@id":"node/5487016603","addr:city":"El Paso de Robles (Paso Robles)","addr:housenumber":"4735","addr:postcode":"93446","addr:state":"CA","addr:street":"Airport Road","amenity":"fire_station","name":"CAL FIRE / SLO County Fire North County Auto Shop","shop":"car_repair"},"geometry":{"type":"Point","coordinates":[-120.6422774,35.6697441]},"id":"node/5487016603"},{"type":"Feature","properties":{"@id":"node/5550753996","addr:city":"Fairfield","addr:housenumber":"600","addr:postcode":"94534","addr:state":"CA","addr:street":"Lopes Road","amenity":"fire_station","description":"Station #35 is located at 600 Lopes Road serving Cordelia and Green Valley districts.","name":"Station 35","operator":"City of Fairfield"},"geometry":{"type":"Point","coordinates":[-122.1406104,38.197682]},"id":"node/5550753996"},{"type":"Feature","properties":{"@id":"node/5590658329","addr:city":"Groveland","addr:housenumber":"24545","addr:postcode":"95321","addr:state":"CA","addr:street":"Highway 120","amenity":"fire_station","name":"Buck Meadows Station 42","operator":"Stanislaus National Forest","phone":"+1-209-962-7620"},"geometry":{"type":"Point","coordinates":[-120.0995655,37.8227282]},"id":"node/5590658329"},{"type":"Feature","properties":{"@id":"node/5683494757","addr:city":"El Centro","addr:postcode":"92243","addr:state":"CA","addr:street":"South Dogwood Road","amenity":"fire_station","name":"Fire Station No. 2"},"geometry":{"type":"Point","coordinates":[-115.5357908,32.7851273]},"id":"node/5683494757"},{"type":"Feature","properties":{"@id":"node/5880397238","addr:city":"Sun City","addr:housenumber":"28349","addr:postcode":"92586","addr:state":"CA","addr:street":"Bradley Road","amenity":"fire_station","name":"Riverside County Fire Department Station 7","ref":"RVC 7"},"geometry":{"type":"Point","coordinates":[-117.1890836,33.7098421]},"id":"node/5880397238"},{"type":"Feature","properties":{"@id":"node/6319805869","addr:city":"Brentwood","addr:housenumber":"739","addr:postcode":"94513","addr:state":"CA","addr:street":"1st Street","amenity":"fire_station","name":"(CLOSED) East Contra Costa Fire Protection District Station 54","operator":"East Contra Costa Fire Protection District","website":"https://www.eccfpd.org/"},"geometry":{"type":"Point","coordinates":[-121.6956445,37.9331932]},"id":"node/6319805869"},{"type":"Feature","properties":{"@id":"node/6319960049","addr:city":"Clayton","addr:housenumber":"11851","addr:state":"CA","addr:street":"Marsh Creek Road","amenity":"fire_station","name":"CalFire Sunshine Station","operator":"CalFire"},"geometry":{"type":"Point","coordinates":[-121.860805,37.899625]},"id":"node/6319960049"},{"type":"Feature","properties":{"@id":"node/6534399111","addr:city":"Manhattan Beach","addr:housenumber":"400","addr:postcode":"90266","addr:state":"CA","addr:street":"15th Street","amenity":"fire_station","name":"Station 1","operator":"Manhattan Beach","phone":"+1-310-802-5200","website":"https://www.citymb.info/departments/fire-department/about-mbfd/fire-stations"},"geometry":{"type":"Point","coordinates":[-118.4094611,33.8878153]},"id":"node/6534399111"},{"type":"Feature","properties":{"@id":"node/7137316867","addr:city":"Salinas","addr:housenumber":"1400","addr:postcode":"93905-3919","addr:state":"CA","addr:street":"Rider Avenue","amenity":"fire_station","name":"Fire Station 5","source":"survey","website":"https://www.cityofsalinas.org/our-city-services/fire-department/fire-stations-and-teams/fire-station-5"},"geometry":{"type":"Point","coordinates":[-121.6035119,36.6960292]},"id":"node/7137316867"},{"type":"Feature","properties":{"@id":"node/7185685983","addr:city":"Pasadena","addr:housenumber":"1150","addr:postcode":"91103","addr:state":"CA","addr:street":"Linda Vista Avenue","amenity":"fire_station","name":"Pasadena Fire Department Station 38"},"geometry":{"type":"Point","coordinates":[-118.1761273,34.1667887]},"id":"node/7185685983"},{"type":"Feature","properties":{"@id":"node/7185705823","addr:city":"Pasadena","addr:housenumber":"1140","addr:postcode":"91103","addr:state":"CA","addr:street":"North Fair Oaks Avenue","amenity":"fire_station","name":"Pasadena Fire Department Station 36"},"geometry":{"type":"Point","coordinates":[-118.1503484,34.1654229]},"id":"node/7185705823"}]}